G0 Z20
G21
G90
G94
F80.00
G00 Z3.0000
M03 S45
G4 P1
G00 X53.2149Y8.9018
G01 Z-0.2000
G01 X52.9662Y8.8523
G01 X52.7329Y8.7557
G01 X52.5230Y8.6155
G01 X52.3445Y8.4370
G01 X52.2043Y8.2271
G01 X52.1077Y7.9938
G01 X52.0584Y7.7462
G01 X52.0584Y7.4938
G01 X52.1077Y7.2462
G01 X52.2043Y7.0129
G01 X52.3445Y6.8030
G01 X52.5230Y6.6245
G01 X52.7329Y6.4843
G01 X52.9662Y6.3877
G01 X53.2138Y6.3384
G01 X53.4662Y6.3384
G01 X53.7138Y6.3877
G01 X53.9471Y6.4843
G01 X54.1570Y6.6245
G01 X54.3355Y6.8030
G01 X54.4757Y7.0129
G01 X54.5445Y7.1785
G01 X54.5508Y7.1919
G01 X54.5615Y7.2103
G01 X54.5752Y7.2298
G01 X54.5949Y7.2521
G01 X54.6082Y7.2644
G01 X54.6270Y7.2790
G01 X54.6367Y7.2855
G01 X54.6551Y7.2961
G01 X54.6793Y7.3070
G01 X54.6967Y7.3130
G01 X54.7252Y7.3197
G01 X54.7429Y7.3222
G01 X54.7670Y7.3234
G01 X56.1683Y7.3234
G01 X56.1924Y7.3222
G01 X56.2184Y7.3182
G01 X56.2386Y7.3130
G01 X56.2642Y7.3037
G01 X56.2881Y7.2918
G01 X56.3083Y7.2790
G01 X56.3309Y7.2609
G01 X56.5429Y7.1193
G01 X56.7762Y7.0227
G01 X57.0238Y6.9734
G01 X57.2762Y6.9734
G01 X57.5238Y7.0227
G01 X57.7571Y7.1193
G01 X57.9670Y7.2595
G01 X58.1455Y7.4380
G01 X58.2857Y7.6479
G01 X58.3823Y7.8812
G01 X58.4316Y8.1288
G01 X58.4316Y8.3812
G01 X58.3823Y8.6288
G01 X58.2857Y8.8621
G01 X58.1455Y9.0720
G01 X57.9670Y9.2505
G01 X57.7571Y9.3907
G01 X57.5238Y9.4873
G01 X57.2762Y9.5366
G01 X57.0238Y9.5366
G01 X56.7762Y9.4873
G01 X56.5429Y9.3907
G01 X56.3309Y9.2491
G01 X56.3083Y9.2310
G01 X56.2881Y9.2182
G01 X56.2642Y9.2063
G01 X56.2386Y9.1970
G01 X56.2184Y9.1918
G01 X56.1924Y9.1878
G01 X56.1683Y9.1866
G01 X54.0327Y9.1866
G01 X54.0089Y9.1878
G01 X53.9750Y9.1911
G01 X53.7924Y9.1731
G01 X53.6168Y9.1199
G01 X53.4549Y9.0333
G01 X53.3571Y8.9533
G01 X53.3424Y8.9426
G01 X53.3192Y8.9289
G01 X53.2950Y8.9180
G01 X53.2724Y8.9105
G01 X53.2491Y8.9053
G01 X53.2313Y8.9028
G01 X53.2149Y8.9018
G00 Z3.0000
G00 X53.3299Y8.8380
G01 Z-0.2000
G01 X53.3652Y8.8731
G01 X53.4287Y8.9299
G01 X53.4926Y8.9771
G01 X53.5606Y9.0180
G01 X53.6374Y9.0549
G01 X53.6481Y9.0594
G01 X53.7233Y9.0861
G01 X53.7999Y9.1054
G01 X53.8113Y9.1077
G01 X53.8897Y9.1192
G01 X53.9750Y9.1234
G01 X56.2958Y9.1234
G01 X56.3751Y9.1952
G01 X56.4683Y9.2647
G01 X56.4780Y9.2712
G01 X56.5706Y9.3267
G01 X56.5808Y9.3321
G01 X56.6810Y9.3795
G01 X56.7967Y9.4210
G01 X56.9097Y9.4494
G01 X57.0248Y9.4668
G01 X57.0364Y9.4680
G01 X57.1442Y9.4733
G01 X57.1558Y9.4733
G01 X57.2696Y9.4675
G01 X57.3820Y9.4510
G01 X57.3934Y9.4487
G01 X57.5033Y9.4210
G01 X57.6190Y9.3795
G01 X57.7215Y9.3310
G01 X57.8268Y9.2681
G01 X57.9249Y9.1952
G01 X58.0115Y9.1165
G01 X58.0902Y9.0299
G01 X58.1631Y8.9318
G01 X58.2260Y8.8265
G01 X58.2745Y8.7240
G01 X58.3160Y8.6083
G01 X58.3444Y8.4953
G01 X58.3625Y8.3746
G01 X58.3684Y8.2550
G01 X58.3625Y8.1354
G01 X58.3460Y8.0230
G01 X58.3437Y8.0116
G01 X58.3160Y7.9017
G01 X58.2777Y7.7942
G01 X58.2733Y7.7834
G01 X58.2260Y7.6835
G01 X58.1662Y7.5830
G01 X58.1597Y7.5733
G01 X58.0954Y7.4866
G01 X58.0880Y7.4777
G01 X58.0115Y7.3935
G01 X57.9273Y7.3170
G01 X57.9184Y7.3096
G01 X57.8268Y7.2419
G01 X57.7215Y7.1790
G01 X57.6216Y7.1317
G01 X57.6108Y7.1273
G01 X57.5033Y7.0890
G01 X57.3934Y7.0613
G01 X57.3820Y7.0590
G01 X57.2696Y7.0425
G01 X57.1558Y7.0367
G01 X57.1442Y7.0367
G01 X57.0304Y7.0425
G01 X56.9180Y7.0590
G01 X56.9066Y7.0613
G01 X56.7967Y7.0890
G01 X56.6892Y7.1273
G01 X56.6784Y7.1317
G01 X56.5785Y7.1790
G01 X56.4780Y7.2388
G01 X56.4683Y7.2453
G01 X56.3751Y7.3148
G01 X56.2958Y7.3866
G01 X54.5357Y7.3866
G01 X54.5060Y7.2667
G01 X54.4645Y7.1510
G01 X54.4160Y7.0485
G01 X54.3531Y6.9432
G01 X54.2802Y6.8451
G01 X54.2015Y6.7585
G01 X54.1149Y6.6798
G01 X54.0168Y6.6069
G01 X53.9115Y6.5440
G01 X53.8090Y6.4955
G01 X53.6933Y6.4540
G01 X53.5803Y6.4256
G01 X53.4596Y6.4075
G01 X53.3400Y6.4016
G01 X53.2204Y6.4075
G01 X53.1080Y6.4240
G01 X53.0966Y6.4263
G01 X52.9867Y6.4540
G01 X52.8792Y6.4923
G01 X52.8684Y6.4967
G01 X52.7708Y6.5429
G01 X52.7606Y6.5483
G01 X52.6632Y6.6069
G01 X52.5651Y6.6798
G01 X52.4785Y6.7585
G01 X52.4020Y6.8427
G01 X52.3946Y6.8516
G01 X52.3269Y6.9432
G01 X52.2640Y7.0485
G01 X52.2155Y7.1510
G01 X52.1740Y7.2667
G01 X52.1456Y7.3797
G01 X52.1275Y7.5004
G01 X52.1216Y7.6200
G01 X52.1275Y7.7396
G01 X52.1456Y7.8603
G01 X52.1740Y7.9733
G01 X52.2155Y8.0890
G01 X52.2629Y8.1892
G01 X52.2683Y8.1994
G01 X52.3269Y8.2968
G01 X52.3946Y8.3884
G01 X52.4020Y8.3973
G01 X52.4745Y8.4773
G01 X52.4827Y8.4855
G01 X52.5651Y8.5602
G01 X52.6632Y8.6331
G01 X52.7685Y8.6960
G01 X52.8710Y8.7445
G01 X52.9867Y8.7860
G01 X53.0997Y8.8144
G01 X53.2204Y8.8325
G01 X53.3299Y8.8380
G00 Z3.0000
G00 X53.4178Y8.8149
G01 Z-0.2000
G01 X53.3618Y8.7590
G01 X53.3380Y8.7600
G01 X53.2282Y8.7545
G01 X53.1167Y8.7379
G01 X53.0092Y8.7109
G01 X52.9056Y8.6739
G01 X52.8009Y8.6244
G01 X52.7067Y8.5679
G01 X52.6153Y8.4999
G01 X52.5339Y8.4261
G01 X52.4593Y8.3439
G01 X52.3921Y8.2533
G01 X52.3341Y8.1564
G01 X52.2872Y8.0572
G01 X52.2491Y7.9508
G01 X52.2221Y7.8433
G01 X52.2057Y7.7337
G01 X52.2000Y7.6200
G01 X52.2055Y7.5082
G01 X52.2221Y7.3967
G01 X52.2491Y7.2892
G01 X52.2872Y7.1828
G01 X52.3341Y7.0836
G01 X52.3921Y6.9867
G01 X52.4576Y6.8983
G01 X52.5339Y6.8139
G01 X52.6161Y6.7393
G01 X52.7067Y6.6721
G01 X52.8009Y6.6156
G01 X52.9056Y6.5661
G01 X53.0092Y6.5291
G01 X53.1195Y6.5016
G01 X53.2282Y6.4855
G01 X53.3400Y6.4800
G01 X53.4518Y6.4855
G01 X53.5633Y6.5021
G01 X53.6708Y6.5291
G01 X53.7772Y6.5672
G01 X53.8764Y6.6141
G01 X53.9750Y6.6733
G01 X54.0639Y6.7393
G01 X54.1461Y6.8139
G01 X54.2207Y6.8961
G01 X54.2889Y6.9883
G01 X54.3459Y7.0836
G01 X54.3939Y7.1856
G01 X54.4314Y7.2910
G01 X54.4579Y7.3967
G01 X54.4681Y7.4650
G01 X56.3292Y7.4650
G01 X56.3453Y7.4475
G01 X56.4261Y7.3743
G01 X56.5183Y7.3061
G01 X56.6136Y7.2491
G01 X56.7119Y7.2026
G01 X56.8210Y7.1636
G01 X56.9267Y7.1371
G01 X57.0363Y7.1207
G01 X57.1500Y7.1150
G01 X57.2637Y7.1207
G01 X57.3733Y7.1371
G01 X57.4808Y7.1641
G01 X57.5881Y7.2026
G01 X57.6864Y7.2491
G01 X57.7833Y7.3071
G01 X57.8747Y7.3751
G01 X57.9561Y7.4489
G01 X58.0300Y7.5303
G01 X58.0989Y7.6233
G01 X58.1559Y7.7186
G01 X58.2024Y7.8169
G01 X58.2409Y7.9242
G01 X58.2684Y8.0345
G01 X58.2845Y8.1432
G01 X58.2900Y8.2550
G01 X58.2845Y8.3668
G01 X58.2679Y8.4783
G01 X58.2409Y8.5858
G01 X58.2028Y8.6922
G01 X58.1559Y8.7914
G01 X58.0979Y8.8883
G01 X58.0307Y8.9789
G01 X57.9561Y9.0611
G01 X57.8739Y9.1357
G01 X57.7833Y9.2029
G01 X57.6864Y9.2609
G01 X57.5872Y9.3078
G01 X57.4808Y9.3459
G01 X57.3705Y9.3734
G01 X57.2618Y9.3895
G01 X57.1520Y9.3950
G01 X57.0402Y9.3897
G01 X56.9267Y9.3729
G01 X56.8192Y9.3459
G01 X56.7119Y9.3074
G01 X56.6136Y9.2609
G01 X56.5183Y9.2039
G01 X56.4261Y9.1357
G01 X56.3453Y9.0625
G01 X56.3292Y9.0450
G01 X53.9750Y9.0450
G01 X53.8975Y9.0412
G01 X53.8200Y9.0296
G01 X53.7476Y9.0115
G01 X53.6709Y8.9841
G01 X53.6036Y8.9522
G01 X53.5361Y8.9119
G01 X53.4732Y8.8651
G01 X53.4178Y8.8149
G00 Z3.0000
G00 X53.9334Y9.2658
G01 Z-0.2000
G01 X53.7770Y9.2504
G01 X53.5866Y9.1926
G01 X53.4112Y9.0988
G01 X53.3104Y9.0162
G01 X53.2989Y9.0078
G01 X53.2868Y9.0005
G01 X53.2714Y8.9930
G01 X53.2551Y8.9871
G01 X53.2404Y8.9834
G01 X53.2235Y8.9808
G01 X53.2061Y8.9800
G01 X52.9433Y8.9277
G01 X52.6958Y8.8252
G01 X52.4731Y8.6764
G01 X52.2836Y8.4869
G01 X52.1348Y8.2642
G01 X52.0323Y8.0167
G01 X51.9800Y7.7539
G01 X51.9800Y7.4861
G01 X52.0323Y7.2233
G01 X52.1348Y6.9758
G01 X52.2836Y6.7531
G01 X52.4731Y6.5636
G01 X52.6958Y6.4148
G01 X52.9433Y6.3123
G01 X53.2061Y6.2600
G01 X53.4739Y6.2600
G01 X53.7367Y6.3123
G01 X53.9842Y6.4148
G01 X54.2070Y6.5636
G01 X54.3964Y6.7531
G01 X54.5452Y6.9758
G01 X54.6145Y7.1431
G01 X54.6210Y7.1568
G01 X54.6309Y7.1733
G01 X54.6400Y7.1853
G01 X54.6503Y7.1967
G01 X54.6616Y7.2070
G01 X54.6770Y7.2182
G01 X54.6902Y7.2260
G01 X54.7057Y7.2331
G01 X54.7192Y7.2379
G01 X54.7329Y7.2414
G01 X54.7489Y7.2440
G01 X54.7670Y7.2450
G01 X56.1683Y7.2450
G01 X56.1846Y7.2442
G01 X56.2014Y7.2416
G01 X56.2181Y7.2373
G01 X56.2333Y7.2316
G01 X56.2451Y7.2260
G01 X56.2583Y7.2182
G01 X56.2715Y7.2088
G01 X56.2826Y7.1989
G01 X56.5058Y7.0498
G01 X56.7533Y6.9473
G01 X57.0161Y6.8950
G01 X57.2839Y6.8950
G01 X57.5467Y6.9473
G01 X57.7942Y7.0498
G01 X58.0170Y7.1986
G01 X58.2064Y7.3881
G01 X58.3552Y7.6108
G01 X58.4577Y7.8583
G01 X58.5100Y8.1211
G01 X58.5100Y8.3889
G01 X58.4577Y8.6517
G01 X58.3552Y8.8992
G01 X58.2064Y9.1219
G01 X58.0170Y9.3114
G01 X57.7942Y9.4602
G01 X57.5467Y9.5627
G01 X57.2839Y9.6150
G01 X57.0161Y9.6150
G01 X56.7533Y9.5627
G01 X56.5058Y9.4602
G01 X56.2826Y9.3111
G01 X56.2715Y9.3012
G01 X56.2583Y9.2918
G01 X56.2451Y9.2840
G01 X56.2333Y9.2784
G01 X56.2181Y9.2727
G01 X56.2014Y9.2684
G01 X56.1846Y9.2658
G01 X56.1683Y9.2650
G01 X54.0327Y9.2650
G01 X54.0165Y9.2658
G01 X53.9750Y9.2699
G01 X53.9334Y9.2658
G00 Z3.0000
G00 X51.8508Y15.1649
G01 Z-0.2000
G01 X51.8668Y15.1624
G01 X51.8804Y15.1589
G01 X51.8940Y15.1541
G01 X51.9095Y15.1470
G01 X51.9243Y15.1382
G01 X51.9388Y15.1273
G01 X51.9493Y15.1177
G01 X51.9589Y15.1072
G01 X51.9699Y15.0926
G01 X51.9787Y15.0778
G01 X51.9858Y15.0623
G01 X51.9906Y15.0488
G01 X51.9941Y15.0351
G01 X52.0323Y14.8433
G01 X52.1348Y14.5958
G01 X52.2836Y14.3731
G01 X52.4731Y14.1836
G01 X52.6958Y14.0348
G01 X52.9433Y13.9323
G01 X53.2061Y13.8800
G01 X53.4739Y13.8800
G01 X53.7367Y13.9323
G01 X53.9842Y14.0348
G01 X54.2070Y14.1836
G01 X54.3964Y14.3731
G01 X54.5452Y14.5958
G01 X54.6477Y14.8433
G01 X54.7000Y15.1061
G01 X54.7000Y15.3739
G01 X54.6477Y15.6367
G01 X54.5452Y15.8842
G01 X54.3964Y16.1069
G01 X54.2070Y16.2964
G01 X53.9842Y16.4452
G01 X53.7367Y16.5477
G01 X53.5628Y16.5823
G01 X53.5472Y16.5862
G01 X53.5301Y16.5925
G01 X53.5155Y16.5996
G01 X53.5017Y16.6081
G01 X53.4897Y16.6172
G01 X53.4797Y16.6261
G01 X53.4687Y16.6380
G01 X53.4578Y16.6525
G01 X53.4490Y16.6673
G01 X53.4430Y16.6801
G01 X53.4371Y16.6964
G01 X53.4334Y16.7111
G01 X53.4310Y16.7260
G01 X53.4300Y16.7442
G01 X53.4300Y19.1168
G01 X53.4103Y19.3166
G01 X53.3326Y19.5730
G01 X53.2063Y19.8092
G01 X53.0363Y20.0163
G01 X52.8292Y20.1863
G01 X52.5930Y20.3126
G01 X52.3366Y20.3903
G01 X52.0700Y20.4166
G01 X51.8034Y20.3903
G01 X51.5470Y20.3126
G01 X51.3108Y20.1863
G01 X51.1037Y20.0163
G01 X50.9337Y19.8092
G01 X50.8074Y19.5730
G01 X50.7297Y19.3166
G01 X50.7100Y19.1168
G01 X50.7100Y16.4432
G01 X50.7297Y16.2434
G01 X50.8074Y15.9870
G01 X50.9337Y15.7508
G01 X51.1037Y15.5437
G01 X51.3108Y15.3737
G01 X51.5470Y15.2474
G01 X51.8034Y15.1697
G01 X51.8508Y15.1649
G00 Z3.0000
G00 X51.8623Y15.2424
G01 Z-0.2000
G01 X51.8827Y15.2392
G01 X51.9088Y15.2321
G01 X51.9311Y15.2235
G01 X51.9445Y15.2171
G01 X51.9630Y15.2065
G01 X51.9890Y15.1875
G01 X52.0048Y15.1731
G01 X52.0192Y15.1574
G01 X52.0351Y15.1361
G01 X52.0488Y15.1129
G01 X52.0563Y15.0969
G01 X52.0671Y15.0661
G01 X52.0714Y15.0485
G01 X52.1077Y14.8662
G01 X52.2043Y14.6329
G01 X52.3445Y14.4230
G01 X52.5230Y14.2445
G01 X52.7329Y14.1043
G01 X52.9662Y14.0077
G01 X53.2138Y13.9584
G01 X53.4662Y13.9584
G01 X53.7138Y14.0077
G01 X53.9471Y14.1043
G01 X54.1570Y14.2445
G01 X54.3355Y14.4230
G01 X54.4757Y14.6329
G01 X54.5723Y14.8662
G01 X54.6216Y15.1138
G01 X54.6216Y15.3662
G01 X54.5723Y15.6138
G01 X54.4757Y15.8471
G01 X54.3355Y16.0570
G01 X54.1570Y16.2355
G01 X53.9471Y16.3757
G01 X53.7138Y16.4723
G01 X53.5419Y16.5067
G01 X53.5247Y16.5111
G01 X53.5073Y16.5172
G01 X53.4831Y16.5280
G01 X53.4599Y16.5417
G01 X53.4386Y16.5576
G01 X53.4229Y16.5720
G01 X53.4085Y16.5878
G01 X53.3926Y16.6090
G01 X53.3789Y16.6323
G01 X53.3713Y16.6482
G01 X53.3620Y16.6738
G01 X53.3568Y16.6941
G01 X53.3535Y16.7145
G01 X53.3516Y16.7442
G01 X53.3516Y19.1130
G01 X53.3331Y19.3012
G01 X53.2598Y19.5428
G01 X53.1408Y19.7655
G01 X52.9806Y19.9606
G01 X52.7855Y20.1208
G01 X52.5628Y20.2398
G01 X52.3212Y20.3131
G01 X52.0700Y20.3378
G01 X51.8188Y20.3131
G01 X51.5772Y20.2398
G01 X51.3545Y20.1208
G01 X51.1594Y19.9606
G01 X50.9992Y19.7655
G01 X50.8802Y19.5428
G01 X50.8069Y19.3012
G01 X50.7884Y19.1130
G01 X50.7884Y16.4470
G01 X50.8069Y16.2588
G01 X50.8802Y16.0172
G01 X50.9992Y15.7945
G01 X51.1594Y15.5994
G01 X51.3545Y15.4392
G01 X51.5772Y15.3202
G01 X51.8188Y15.2469
G01 X51.8623Y15.2424
G00 Z3.0000
G00 X52.0599Y15.2920
G01 Z-0.2000
G01 X51.9504Y15.2975
G01 X51.8297Y15.3156
G01 X51.7167Y15.3440
G01 X51.6092Y15.3823
G01 X51.5984Y15.3867
G01 X51.5008Y15.4329
G01 X51.4906Y15.4383
G01 X51.3932Y15.4969
G01 X51.3016Y15.5646
G01 X51.2927Y15.5720
G01 X51.2127Y15.6445
G01 X51.2045Y15.6527
G01 X51.1298Y15.7351
G01 X51.0569Y15.8332
G01 X50.9940Y15.9385
G01 X50.9467Y16.0384
G01 X50.9423Y16.0492
G01 X50.9040Y16.1567
G01 X50.8756Y16.2697
G01 X50.8582Y16.3848
G01 X50.8570Y16.3964
G01 X50.8516Y16.5100
G01 X50.8516Y19.0500
G01 X50.8575Y19.1696
G01 X50.8756Y19.2903
G01 X50.9040Y19.4033
G01 X50.9455Y19.5190
G01 X50.9940Y19.6215
G01 X51.0569Y19.7268
G01 X51.1298Y19.8249
G01 X51.2085Y19.9115
G01 X51.2951Y19.9902
G01 X51.3932Y20.0631
G01 X51.4985Y20.1260
G01 X51.6010Y20.1745
G01 X51.7167Y20.2160
G01 X51.8297Y20.2444
G01 X51.9504Y20.2625
G01 X52.0700Y20.2684
G01 X52.1836Y20.2630
G01 X52.1952Y20.2618
G01 X52.3103Y20.2444
G01 X52.4233Y20.2160
G01 X52.5308Y20.1777
G01 X52.5416Y20.1733
G01 X52.6415Y20.1260
G01 X52.7420Y20.0662
G01 X52.7517Y20.0597
G01 X52.8449Y19.9902
G01 X52.9273Y19.9155
G01 X52.9355Y19.9073
G01 X53.0102Y19.8249
G01 X53.0797Y19.7317
G01 X53.0862Y19.7220
G01 X53.1460Y19.6215
G01 X53.1945Y19.5190
G01 X53.2341Y19.4092
G01 X53.2375Y19.3981
G01 X53.2644Y19.2903
G01 X53.2818Y19.1752
G01 X53.2830Y19.1636
G01 X53.2883Y19.0558
G01 X53.2884Y16.5197
G01 X53.3501Y16.4580
G01 X53.4596Y16.4525
G01 X53.5803Y16.4344
G01 X53.6933Y16.4060
G01 X53.8090Y16.3645
G01 X53.9115Y16.3160
G01 X54.0168Y16.2531
G01 X54.1149Y16.1802
G01 X54.2015Y16.1015
G01 X54.2802Y16.0149
G01 X54.3531Y15.9168
G01 X54.4160Y15.8115
G01 X54.4645Y15.7090
G01 X54.5060Y15.5933
G01 X54.5344Y15.4803
G01 X54.5525Y15.3596
G01 X54.5584Y15.2400
G01 X54.5525Y15.1204
G01 X54.5344Y14.9997
G01 X54.5060Y14.8867
G01 X54.4645Y14.7710
G01 X54.4160Y14.6685
G01 X54.3531Y14.5632
G01 X54.2802Y14.4651
G01 X54.2015Y14.3785
G01 X54.1149Y14.2998
G01 X54.0168Y14.2269
G01 X53.9115Y14.1640
G01 X53.8090Y14.1155
G01 X53.6933Y14.0740
G01 X53.5803Y14.0456
G01 X53.4596Y14.0275
G01 X53.3400Y14.0216
G01 X53.2204Y14.0275
G01 X53.0997Y14.0456
G01 X52.9867Y14.0740
G01 X52.8710Y14.1155
G01 X52.7685Y14.1640
G01 X52.6632Y14.2269
G01 X52.5651Y14.2998
G01 X52.4785Y14.3785
G01 X52.3998Y14.4651
G01 X52.3269Y14.5632
G01 X52.2640Y14.6685
G01 X52.2155Y14.7710
G01 X52.1740Y14.8867
G01 X52.1456Y14.9997
G01 X52.1275Y15.1204
G01 X52.1220Y15.2299
G01 X52.0599Y15.2920
G00 Z3.0000
G00 X53.3183Y16.3790
G01 Z-0.2000
G01 X53.2090Y16.4882
G01 X53.2100Y16.5100
G01 X53.2100Y19.0520
G01 X53.2045Y19.1618
G01 X53.1879Y19.2733
G01 X53.1609Y19.3808
G01 X53.1228Y19.4872
G01 X53.0759Y19.5864
G01 X53.0179Y19.6833
G01 X52.9507Y19.7739
G01 X52.8761Y19.8561
G01 X52.7939Y19.9307
G01 X52.7033Y19.9979
G01 X52.6064Y20.0559
G01 X52.5072Y20.1028
G01 X52.4008Y20.1409
G01 X52.2933Y20.1679
G01 X52.1818Y20.1845
G01 X52.0700Y20.1900
G01 X51.9582Y20.1845
G01 X51.8467Y20.1679
G01 X51.7392Y20.1409
G01 X51.6328Y20.1028
G01 X51.5309Y20.0544
G01 X51.4367Y19.9979
G01 X51.3483Y19.9324
G01 X51.2639Y19.8561
G01 X51.1893Y19.7739
G01 X51.1211Y19.6817
G01 X51.0641Y19.5864
G01 X51.0176Y19.4881
G01 X50.9791Y19.3808
G01 X50.9516Y19.2705
G01 X50.9355Y19.1618
G01 X50.9300Y19.0500
G01 X50.9300Y16.5100
G01 X50.9357Y16.3963
G01 X50.9521Y16.2867
G01 X50.9791Y16.1792
G01 X51.0176Y16.0719
G01 X51.0641Y15.9736
G01 X51.1221Y15.8767
G01 X51.1893Y15.7861
G01 X51.2625Y15.7053
G01 X51.3483Y15.6276
G01 X51.4367Y15.5621
G01 X51.5336Y15.5041
G01 X51.6328Y15.4572
G01 X51.7372Y15.4197
G01 X51.8467Y15.3921
G01 X51.9563Y15.3757
G01 X52.0680Y15.3700
G01 X52.0918Y15.3710
G01 X52.2010Y15.2618
G01 X52.2000Y15.2380
G01 X52.2055Y15.1282
G01 X52.2221Y15.0167
G01 X52.2491Y14.9092
G01 X52.2876Y14.8019
G01 X52.3356Y14.7009
G01 X52.3921Y14.6067
G01 X52.4576Y14.5183
G01 X52.5339Y14.4339
G01 X52.6161Y14.3593
G01 X52.7067Y14.2921
G01 X52.8009Y14.2356
G01 X52.9056Y14.1861
G01 X53.0092Y14.1491
G01 X53.1167Y14.1221
G01 X53.2282Y14.1055
G01 X53.3400Y14.1000
G01 X53.4518Y14.1055
G01 X53.5633Y14.1221
G01 X53.6708Y14.1491
G01 X53.7772Y14.1872
G01 X53.8764Y14.2341
G01 X53.9733Y14.2921
G01 X54.0639Y14.3593
G01 X54.1461Y14.4339
G01 X54.2207Y14.5161
G01 X54.2879Y14.6067
G01 X54.3459Y14.7036
G01 X54.3928Y14.8028
G01 X54.4309Y14.9092
G01 X54.4579Y15.0167
G01 X54.4745Y15.1282
G01 X54.4800Y15.2400
G01 X54.4745Y15.3518
G01 X54.4579Y15.4633
G01 X54.4309Y15.5708
G01 X54.3928Y15.6772
G01 X54.3459Y15.7764
G01 X54.2879Y15.8733
G01 X54.2207Y15.9639
G01 X54.1461Y16.0461
G01 X54.0639Y16.1207
G01 X53.9733Y16.1879
G01 X53.8764Y16.2459
G01 X53.7772Y16.2928
G01 X53.6708Y16.3309
G01 X53.5633Y16.3579
G01 X53.4518Y16.3745
G01 X53.3420Y16.3800
G01 X53.3183Y16.3790
G00 Z3.0000
G00 Z3.0000
G00 X0Y0
M05
G0 Z20
G0 X0 Y100