G0 Z20
G21
G90
G94
F50.00
G00 Z3.0000
M03 S45
G4 P1
G00 X44.4500Y5.0800
G01 Z-2.0000
G01 Z0
G00 Z3.0000
G00 X41.9100Y5.0800
G01 Z-2.0000
G01 Z0
G00 Z3.0000
G00 X39.3700Y5.0800
G01 Z-2.0000
G01 Z0
G00 Z3.0000
G00 X36.8300Y5.0800
G01 Z-2.0000
G01 Z0
G00 Z3.0000
G00 X34.2900Y5.0800
G01 Z-2.0000
G01 Z0
G00 Z3.0000
G00 X31.7500Y5.0800
G01 Z-2.0000
G01 Z0
G00 Z3.0000
G00 X29.2100Y5.0800
G01 Z-2.0000
G01 Z0
G00 Z3.0000
G00 X26.6700Y5.0800
G01 Z-2.0000
G01 Z0
G00 Z3.0000
G00 X6.3500Y10.1600
G01 Z-2.0000
G01 Z0
G00 Z3.0000
G00 X6.3500Y12.7000
G01 Z-2.0000
G01 Z0
G00 Z3.0000
G00 X6.3500Y43.1800
G01 Z-2.0000
G01 Z0
G00 Z3.0000
G00 X6.3500Y45.7200
G01 Z-2.0000
G01 Z0
G00 Z3.0000
G00 X6.3500Y48.2600
G01 Z-2.0000
G01 Z0
G00 Z3.0000
G00 X6.3500Y50.8000
G01 Z-2.0000
G01 Z0
G00 Z3.0000
G00 X6.3500Y54.6100
G01 Z-2.0000
G01 Z0
G00 Z3.0000
G00 X6.3500Y57.1500
G01 Z-2.0000
G01 Z0
G00 Z3.0000
G00 X6.3500Y59.6900
G01 Z-2.0000
G01 Z0
G00 Z3.0000
G00 X0.0000Y0.0000
M05
G0 Z20
G0 X0 Y100