G0 Z20
G21
G90
G94
F50.00
G00 Z3.0000
M03 S45
G4 P1
G00 X3.8600Y3.8100
G01 Z-0.2500
G01 X3.8590Y3.8002
G01 X3.8562Y3.7909
G01 X3.8516Y3.7822
G01 X3.8454Y3.7746
G01 X3.8378Y3.7684
G01 X3.8291Y3.7638
G01 X3.8198Y3.7610
G01 X3.8100Y3.7600
G01 X3.8002Y3.7610
G01 X3.7909Y3.7638
G01 X3.7822Y3.7684
G01 X3.7746Y3.7746
G01 X3.7684Y3.7822
G01 X3.7638Y3.7909
G01 X3.7610Y3.8002
G01 X3.7600Y3.8100
G01 X3.7610Y3.8198
G01 X3.7638Y3.8291
G01 X3.7684Y3.8378
G01 X3.7746Y3.8454
G01 X3.7822Y3.8516
G01 X3.7909Y3.8562
G01 X3.8002Y3.8590
G01 X3.8100Y3.8600
G01 X3.8198Y3.8590
G01 X3.8291Y3.8562
G01 X3.8378Y3.8516
G01 X3.8454Y3.8454
G01 X3.8516Y3.8378
G01 X3.8562Y3.8291
G01 X3.8590Y3.8198
G01 X3.8600Y3.8100
G00 X3.8600Y3.8100
G01 Z-0.5000
G01 X3.8590Y3.8002
G01 X3.8562Y3.7909
G01 X3.8516Y3.7822
G01 X3.8454Y3.7746
G01 X3.8378Y3.7684
G01 X3.8291Y3.7638
G01 X3.8198Y3.7610
G01 X3.8100Y3.7600
G01 X3.8002Y3.7610
G01 X3.7909Y3.7638
G01 X3.7822Y3.7684
G01 X3.7746Y3.7746
G01 X3.7684Y3.7822
G01 X3.7638Y3.7909
G01 X3.7610Y3.8002
G01 X3.7600Y3.8100
G01 X3.7610Y3.8198
G01 X3.7638Y3.8291
G01 X3.7684Y3.8378
G01 X3.7746Y3.8454
G01 X3.7822Y3.8516
G01 X3.7909Y3.8562
G01 X3.8002Y3.8590
G01 X3.8100Y3.8600
G01 X3.8198Y3.8590
G01 X3.8291Y3.8562
G01 X3.8378Y3.8516
G01 X3.8454Y3.8454
G01 X3.8516Y3.8378
G01 X3.8562Y3.8291
G01 X3.8590Y3.8198
G01 X3.8600Y3.8100
G00 X3.8600Y3.8100
G01 Z-0.7500
G01 X3.8590Y3.8002
G01 X3.8562Y3.7909
G01 X3.8516Y3.7822
G01 X3.8454Y3.7746
G01 X3.8378Y3.7684
G01 X3.8291Y3.7638
G01 X3.8198Y3.7610
G01 X3.8100Y3.7600
G01 X3.8002Y3.7610
G01 X3.7909Y3.7638
G01 X3.7822Y3.7684
G01 X3.7746Y3.7746
G01 X3.7684Y3.7822
G01 X3.7638Y3.7909
G01 X3.7610Y3.8002
G01 X3.7600Y3.8100
G01 X3.7610Y3.8198
G01 X3.7638Y3.8291
G01 X3.7684Y3.8378
G01 X3.7746Y3.8454
G01 X3.7822Y3.8516
G01 X3.7909Y3.8562
G01 X3.8002Y3.8590
G01 X3.8100Y3.8600
G01 X3.8198Y3.8590
G01 X3.8291Y3.8562
G01 X3.8378Y3.8516
G01 X3.8454Y3.8454
G01 X3.8516Y3.8378
G01 X3.8562Y3.8291
G01 X3.8590Y3.8198
G01 X3.8600Y3.8100
G00 X3.8600Y3.8100
G01 Z-1.0000
G01 X3.8590Y3.8002
G01 X3.8562Y3.7909
G01 X3.8516Y3.7822
G01 X3.8454Y3.7746
G01 X3.8378Y3.7684
G01 X3.8291Y3.7638
G01 X3.8198Y3.7610
G01 X3.8100Y3.7600
G01 X3.8002Y3.7610
G01 X3.7909Y3.7638
G01 X3.7822Y3.7684
G01 X3.7746Y3.7746
G01 X3.7684Y3.7822
G01 X3.7638Y3.7909
G01 X3.7610Y3.8002
G01 X3.7600Y3.8100
G01 X3.7610Y3.8198
G01 X3.7638Y3.8291
G01 X3.7684Y3.8378
G01 X3.7746Y3.8454
G01 X3.7822Y3.8516
G01 X3.7909Y3.8562
G01 X3.8002Y3.8590
G01 X3.8100Y3.8600
G01 X3.8198Y3.8590
G01 X3.8291Y3.8562
G01 X3.8378Y3.8516
G01 X3.8454Y3.8454
G01 X3.8516Y3.8378
G01 X3.8562Y3.8291
G01 X3.8590Y3.8198
G01 X3.8600Y3.8100
G00 X3.8600Y3.8100
G01 Z-1.2500
G01 X3.8590Y3.8002
G01 X3.8562Y3.7909
G01 X3.8516Y3.7822
G01 X3.8454Y3.7746
G01 X3.8378Y3.7684
G01 X3.8291Y3.7638
G01 X3.8198Y3.7610
G01 X3.8100Y3.7600
G01 X3.8002Y3.7610
G01 X3.7909Y3.7638
G01 X3.7822Y3.7684
G01 X3.7746Y3.7746
G01 X3.7684Y3.7822
G01 X3.7638Y3.7909
G01 X3.7610Y3.8002
G01 X3.7600Y3.8100
G01 X3.7610Y3.8198
G01 X3.7638Y3.8291
G01 X3.7684Y3.8378
G01 X3.7746Y3.8454
G01 X3.7822Y3.8516
G01 X3.7909Y3.8562
G01 X3.8002Y3.8590
G01 X3.8100Y3.8600
G01 X3.8198Y3.8590
G01 X3.8291Y3.8562
G01 X3.8378Y3.8516
G01 X3.8454Y3.8454
G01 X3.8516Y3.8378
G01 X3.8562Y3.8291
G01 X3.8590Y3.8198
G01 X3.8600Y3.8100
G00 X3.8600Y3.8100
G01 Z-1.5000
G01 X3.8590Y3.8002
G01 X3.8562Y3.7909
G01 X3.8516Y3.7822
G01 X3.8454Y3.7746
G01 X3.8378Y3.7684
G01 X3.8291Y3.7638
G01 X3.8198Y3.7610
G01 X3.8100Y3.7600
G01 X3.8002Y3.7610
G01 X3.7909Y3.7638
G01 X3.7822Y3.7684
G01 X3.7746Y3.7746
G01 X3.7684Y3.7822
G01 X3.7638Y3.7909
G01 X3.7610Y3.8002
G01 X3.7600Y3.8100
G01 X3.7610Y3.8198
G01 X3.7638Y3.8291
G01 X3.7684Y3.8378
G01 X3.7746Y3.8454
G01 X3.7822Y3.8516
G01 X3.7909Y3.8562
G01 X3.8002Y3.8590
G01 X3.8100Y3.8600
G01 X3.8198Y3.8590
G01 X3.8291Y3.8562
G01 X3.8378Y3.8516
G01 X3.8454Y3.8454
G01 X3.8516Y3.8378
G01 X3.8562Y3.8291
G01 X3.8590Y3.8198
G01 X3.8600Y3.8100
G00 X3.8600Y3.8100
G01 Z-1.7500
G01 X3.8590Y3.8002
G01 X3.8562Y3.7909
G01 X3.8516Y3.7822
G01 X3.8454Y3.7746
G01 X3.8378Y3.7684
G01 X3.8291Y3.7638
G01 X3.8198Y3.7610
G01 X3.8100Y3.7600
G01 X3.8002Y3.7610
G01 X3.7909Y3.7638
G01 X3.7822Y3.7684
G01 X3.7746Y3.7746
G01 X3.7684Y3.7822
G01 X3.7638Y3.7909
G01 X3.7610Y3.8002
G01 X3.7600Y3.8100
G01 X3.7610Y3.8198
G01 X3.7638Y3.8291
G01 X3.7684Y3.8378
G01 X3.7746Y3.8454
G01 X3.7822Y3.8516
G01 X3.7909Y3.8562
G01 X3.8002Y3.8590
G01 X3.8100Y3.8600
G01 X3.8198Y3.8590
G01 X3.8291Y3.8562
G01 X3.8378Y3.8516
G01 X3.8454Y3.8454
G01 X3.8516Y3.8378
G01 X3.8562Y3.8291
G01 X3.8590Y3.8198
G01 X3.8600Y3.8100
G00 X3.8600Y3.8100
G01 Z-2.0000
G01 X3.8590Y3.8002
G01 X3.8562Y3.7909
G01 X3.8516Y3.7822
G01 X3.8454Y3.7746
G01 X3.8378Y3.7684
G01 X3.8291Y3.7638
G01 X3.8198Y3.7610
G01 X3.8100Y3.7600
G01 X3.8002Y3.7610
G01 X3.7909Y3.7638
G01 X3.7822Y3.7684
G01 X3.7746Y3.7746
G01 X3.7684Y3.7822
G01 X3.7638Y3.7909
G01 X3.7610Y3.8002
G01 X3.7600Y3.8100
G01 X3.7610Y3.8198
G01 X3.7638Y3.8291
G01 X3.7684Y3.8378
G01 X3.7746Y3.8454
G01 X3.7822Y3.8516
G01 X3.7909Y3.8562
G01 X3.8002Y3.8590
G01 X3.8100Y3.8600
G01 X3.8198Y3.8590
G01 X3.8291Y3.8562
G01 X3.8378Y3.8516
G01 X3.8454Y3.8454
G01 X3.8516Y3.8378
G01 X3.8562Y3.8291
G01 X3.8590Y3.8198
G01 X3.8600Y3.8100
G00 Z3.0000
G00 X62.2800Y3.8100
G01 Z-0.2500
G01 X62.2790Y3.8002
G01 X62.2762Y3.7909
G01 X62.2716Y3.7822
G01 X62.2654Y3.7746
G01 X62.2578Y3.7684
G01 X62.2491Y3.7638
G01 X62.2398Y3.7610
G01 X62.2300Y3.7600
G01 X62.2202Y3.7610
G01 X62.2109Y3.7638
G01 X62.2022Y3.7684
G01 X62.1946Y3.7746
G01 X62.1884Y3.7822
G01 X62.1838Y3.7909
G01 X62.1810Y3.8002
G01 X62.1800Y3.8100
G01 X62.1810Y3.8198
G01 X62.1838Y3.8291
G01 X62.1884Y3.8378
G01 X62.1946Y3.8454
G01 X62.2022Y3.8516
G01 X62.2109Y3.8562
G01 X62.2202Y3.8590
G01 X62.2300Y3.8600
G01 X62.2398Y3.8590
G01 X62.2491Y3.8562
G01 X62.2578Y3.8516
G01 X62.2654Y3.8454
G01 X62.2716Y3.8378
G01 X62.2762Y3.8291
G01 X62.2790Y3.8198
G01 X62.2800Y3.8100
G00 X62.2800Y3.8100
G01 Z-0.5000
G01 X62.2790Y3.8002
G01 X62.2762Y3.7909
G01 X62.2716Y3.7822
G01 X62.2654Y3.7746
G01 X62.2578Y3.7684
G01 X62.2491Y3.7638
G01 X62.2398Y3.7610
G01 X62.2300Y3.7600
G01 X62.2202Y3.7610
G01 X62.2109Y3.7638
G01 X62.2022Y3.7684
G01 X62.1946Y3.7746
G01 X62.1884Y3.7822
G01 X62.1838Y3.7909
G01 X62.1810Y3.8002
G01 X62.1800Y3.8100
G01 X62.1810Y3.8198
G01 X62.1838Y3.8291
G01 X62.1884Y3.8378
G01 X62.1946Y3.8454
G01 X62.2022Y3.8516
G01 X62.2109Y3.8562
G01 X62.2202Y3.8590
G01 X62.2300Y3.8600
G01 X62.2398Y3.8590
G01 X62.2491Y3.8562
G01 X62.2578Y3.8516
G01 X62.2654Y3.8454
G01 X62.2716Y3.8378
G01 X62.2762Y3.8291
G01 X62.2790Y3.8198
G01 X62.2800Y3.8100
G00 X62.2800Y3.8100
G01 Z-0.7500
G01 X62.2790Y3.8002
G01 X62.2762Y3.7909
G01 X62.2716Y3.7822
G01 X62.2654Y3.7746
G01 X62.2578Y3.7684
G01 X62.2491Y3.7638
G01 X62.2398Y3.7610
G01 X62.2300Y3.7600
G01 X62.2202Y3.7610
G01 X62.2109Y3.7638
G01 X62.2022Y3.7684
G01 X62.1946Y3.7746
G01 X62.1884Y3.7822
G01 X62.1838Y3.7909
G01 X62.1810Y3.8002
G01 X62.1800Y3.8100
G01 X62.1810Y3.8198
G01 X62.1838Y3.8291
G01 X62.1884Y3.8378
G01 X62.1946Y3.8454
G01 X62.2022Y3.8516
G01 X62.2109Y3.8562
G01 X62.2202Y3.8590
G01 X62.2300Y3.8600
G01 X62.2398Y3.8590
G01 X62.2491Y3.8562
G01 X62.2578Y3.8516
G01 X62.2654Y3.8454
G01 X62.2716Y3.8378
G01 X62.2762Y3.8291
G01 X62.2790Y3.8198
G01 X62.2800Y3.8100
G00 X62.2800Y3.8100
G01 Z-1.0000
G01 X62.2790Y3.8002
G01 X62.2762Y3.7909
G01 X62.2716Y3.7822
G01 X62.2654Y3.7746
G01 X62.2578Y3.7684
G01 X62.2491Y3.7638
G01 X62.2398Y3.7610
G01 X62.2300Y3.7600
G01 X62.2202Y3.7610
G01 X62.2109Y3.7638
G01 X62.2022Y3.7684
G01 X62.1946Y3.7746
G01 X62.1884Y3.7822
G01 X62.1838Y3.7909
G01 X62.1810Y3.8002
G01 X62.1800Y3.8100
G01 X62.1810Y3.8198
G01 X62.1838Y3.8291
G01 X62.1884Y3.8378
G01 X62.1946Y3.8454
G01 X62.2022Y3.8516
G01 X62.2109Y3.8562
G01 X62.2202Y3.8590
G01 X62.2300Y3.8600
G01 X62.2398Y3.8590
G01 X62.2491Y3.8562
G01 X62.2578Y3.8516
G01 X62.2654Y3.8454
G01 X62.2716Y3.8378
G01 X62.2762Y3.8291
G01 X62.2790Y3.8198
G01 X62.2800Y3.8100
G00 X62.2800Y3.8100
G01 Z-1.2500
G01 X62.2790Y3.8002
G01 X62.2762Y3.7909
G01 X62.2716Y3.7822
G01 X62.2654Y3.7746
G01 X62.2578Y3.7684
G01 X62.2491Y3.7638
G01 X62.2398Y3.7610
G01 X62.2300Y3.7600
G01 X62.2202Y3.7610
G01 X62.2109Y3.7638
G01 X62.2022Y3.7684
G01 X62.1946Y3.7746
G01 X62.1884Y3.7822
G01 X62.1838Y3.7909
G01 X62.1810Y3.8002
G01 X62.1800Y3.8100
G01 X62.1810Y3.8198
G01 X62.1838Y3.8291
G01 X62.1884Y3.8378
G01 X62.1946Y3.8454
G01 X62.2022Y3.8516
G01 X62.2109Y3.8562
G01 X62.2202Y3.8590
G01 X62.2300Y3.8600
G01 X62.2398Y3.8590
G01 X62.2491Y3.8562
G01 X62.2578Y3.8516
G01 X62.2654Y3.8454
G01 X62.2716Y3.8378
G01 X62.2762Y3.8291
G01 X62.2790Y3.8198
G01 X62.2800Y3.8100
G00 X62.2800Y3.8100
G01 Z-1.5000
G01 X62.2790Y3.8002
G01 X62.2762Y3.7909
G01 X62.2716Y3.7822
G01 X62.2654Y3.7746
G01 X62.2578Y3.7684
G01 X62.2491Y3.7638
G01 X62.2398Y3.7610
G01 X62.2300Y3.7600
G01 X62.2202Y3.7610
G01 X62.2109Y3.7638
G01 X62.2022Y3.7684
G01 X62.1946Y3.7746
G01 X62.1884Y3.7822
G01 X62.1838Y3.7909
G01 X62.1810Y3.8002
G01 X62.1800Y3.8100
G01 X62.1810Y3.8198
G01 X62.1838Y3.8291
G01 X62.1884Y3.8378
G01 X62.1946Y3.8454
G01 X62.2022Y3.8516
G01 X62.2109Y3.8562
G01 X62.2202Y3.8590
G01 X62.2300Y3.8600
G01 X62.2398Y3.8590
G01 X62.2491Y3.8562
G01 X62.2578Y3.8516
G01 X62.2654Y3.8454
G01 X62.2716Y3.8378
G01 X62.2762Y3.8291
G01 X62.2790Y3.8198
G01 X62.2800Y3.8100
G00 X62.2800Y3.8100
G01 Z-1.7500
G01 X62.2790Y3.8002
G01 X62.2762Y3.7909
G01 X62.2716Y3.7822
G01 X62.2654Y3.7746
G01 X62.2578Y3.7684
G01 X62.2491Y3.7638
G01 X62.2398Y3.7610
G01 X62.2300Y3.7600
G01 X62.2202Y3.7610
G01 X62.2109Y3.7638
G01 X62.2022Y3.7684
G01 X62.1946Y3.7746
G01 X62.1884Y3.7822
G01 X62.1838Y3.7909
G01 X62.1810Y3.8002
G01 X62.1800Y3.8100
G01 X62.1810Y3.8198
G01 X62.1838Y3.8291
G01 X62.1884Y3.8378
G01 X62.1946Y3.8454
G01 X62.2022Y3.8516
G01 X62.2109Y3.8562
G01 X62.2202Y3.8590
G01 X62.2300Y3.8600
G01 X62.2398Y3.8590
G01 X62.2491Y3.8562
G01 X62.2578Y3.8516
G01 X62.2654Y3.8454
G01 X62.2716Y3.8378
G01 X62.2762Y3.8291
G01 X62.2790Y3.8198
G01 X62.2800Y3.8100
G00 X62.2800Y3.8100
G01 Z-2.0000
G01 X62.2790Y3.8002
G01 X62.2762Y3.7909
G01 X62.2716Y3.7822
G01 X62.2654Y3.7746
G01 X62.2578Y3.7684
G01 X62.2491Y3.7638
G01 X62.2398Y3.7610
G01 X62.2300Y3.7600
G01 X62.2202Y3.7610
G01 X62.2109Y3.7638
G01 X62.2022Y3.7684
G01 X62.1946Y3.7746
G01 X62.1884Y3.7822
G01 X62.1838Y3.7909
G01 X62.1810Y3.8002
G01 X62.1800Y3.8100
G01 X62.1810Y3.8198
G01 X62.1838Y3.8291
G01 X62.1884Y3.8378
G01 X62.1946Y3.8454
G01 X62.2022Y3.8516
G01 X62.2109Y3.8562
G01 X62.2202Y3.8590
G01 X62.2300Y3.8600
G01 X62.2398Y3.8590
G01 X62.2491Y3.8562
G01 X62.2578Y3.8516
G01 X62.2654Y3.8454
G01 X62.2716Y3.8378
G01 X62.2762Y3.8291
G01 X62.2790Y3.8198
G01 X62.2800Y3.8100
G00 Z3.0000
G00 X62.2800Y64.7700
G01 Z-0.2500
G01 X62.2790Y64.7602
G01 X62.2762Y64.7509
G01 X62.2716Y64.7422
G01 X62.2654Y64.7346
G01 X62.2578Y64.7284
G01 X62.2491Y64.7238
G01 X62.2398Y64.7210
G01 X62.2300Y64.7200
G01 X62.2202Y64.7210
G01 X62.2109Y64.7238
G01 X62.2022Y64.7284
G01 X62.1946Y64.7346
G01 X62.1884Y64.7422
G01 X62.1838Y64.7509
G01 X62.1810Y64.7602
G01 X62.1800Y64.7700
G01 X62.1810Y64.7798
G01 X62.1838Y64.7891
G01 X62.1884Y64.7978
G01 X62.1946Y64.8054
G01 X62.2022Y64.8116
G01 X62.2109Y64.8162
G01 X62.2202Y64.8190
G01 X62.2300Y64.8200
G01 X62.2398Y64.8190
G01 X62.2491Y64.8162
G01 X62.2578Y64.8116
G01 X62.2654Y64.8054
G01 X62.2716Y64.7978
G01 X62.2762Y64.7891
G01 X62.2790Y64.7798
G01 X62.2800Y64.7700
G00 X62.2800Y64.7700
G01 Z-0.5000
G01 X62.2790Y64.7602
G01 X62.2762Y64.7509
G01 X62.2716Y64.7422
G01 X62.2654Y64.7346
G01 X62.2578Y64.7284
G01 X62.2491Y64.7238
G01 X62.2398Y64.7210
G01 X62.2300Y64.7200
G01 X62.2202Y64.7210
G01 X62.2109Y64.7238
G01 X62.2022Y64.7284
G01 X62.1946Y64.7346
G01 X62.1884Y64.7422
G01 X62.1838Y64.7509
G01 X62.1810Y64.7602
G01 X62.1800Y64.7700
G01 X62.1810Y64.7798
G01 X62.1838Y64.7891
G01 X62.1884Y64.7978
G01 X62.1946Y64.8054
G01 X62.2022Y64.8116
G01 X62.2109Y64.8162
G01 X62.2202Y64.8190
G01 X62.2300Y64.8200
G01 X62.2398Y64.8190
G01 X62.2491Y64.8162
G01 X62.2578Y64.8116
G01 X62.2654Y64.8054
G01 X62.2716Y64.7978
G01 X62.2762Y64.7891
G01 X62.2790Y64.7798
G01 X62.2800Y64.7700
G00 X62.2800Y64.7700
G01 Z-0.7500
G01 X62.2790Y64.7602
G01 X62.2762Y64.7509
G01 X62.2716Y64.7422
G01 X62.2654Y64.7346
G01 X62.2578Y64.7284
G01 X62.2491Y64.7238
G01 X62.2398Y64.7210
G01 X62.2300Y64.7200
G01 X62.2202Y64.7210
G01 X62.2109Y64.7238
G01 X62.2022Y64.7284
G01 X62.1946Y64.7346
G01 X62.1884Y64.7422
G01 X62.1838Y64.7509
G01 X62.1810Y64.7602
G01 X62.1800Y64.7700
G01 X62.1810Y64.7798
G01 X62.1838Y64.7891
G01 X62.1884Y64.7978
G01 X62.1946Y64.8054
G01 X62.2022Y64.8116
G01 X62.2109Y64.8162
G01 X62.2202Y64.8190
G01 X62.2300Y64.8200
G01 X62.2398Y64.8190
G01 X62.2491Y64.8162
G01 X62.2578Y64.8116
G01 X62.2654Y64.8054
G01 X62.2716Y64.7978
G01 X62.2762Y64.7891
G01 X62.2790Y64.7798
G01 X62.2800Y64.7700
G00 X62.2800Y64.7700
G01 Z-1.0000
G01 X62.2790Y64.7602
G01 X62.2762Y64.7509
G01 X62.2716Y64.7422
G01 X62.2654Y64.7346
G01 X62.2578Y64.7284
G01 X62.2491Y64.7238
G01 X62.2398Y64.7210
G01 X62.2300Y64.7200
G01 X62.2202Y64.7210
G01 X62.2109Y64.7238
G01 X62.2022Y64.7284
G01 X62.1946Y64.7346
G01 X62.1884Y64.7422
G01 X62.1838Y64.7509
G01 X62.1810Y64.7602
G01 X62.1800Y64.7700
G01 X62.1810Y64.7798
G01 X62.1838Y64.7891
G01 X62.1884Y64.7978
G01 X62.1946Y64.8054
G01 X62.2022Y64.8116
G01 X62.2109Y64.8162
G01 X62.2202Y64.8190
G01 X62.2300Y64.8200
G01 X62.2398Y64.8190
G01 X62.2491Y64.8162
G01 X62.2578Y64.8116
G01 X62.2654Y64.8054
G01 X62.2716Y64.7978
G01 X62.2762Y64.7891
G01 X62.2790Y64.7798
G01 X62.2800Y64.7700
G00 X62.2800Y64.7700
G01 Z-1.2500
G01 X62.2790Y64.7602
G01 X62.2762Y64.7509
G01 X62.2716Y64.7422
G01 X62.2654Y64.7346
G01 X62.2578Y64.7284
G01 X62.2491Y64.7238
G01 X62.2398Y64.7210
G01 X62.2300Y64.7200
G01 X62.2202Y64.7210
G01 X62.2109Y64.7238
G01 X62.2022Y64.7284
G01 X62.1946Y64.7346
G01 X62.1884Y64.7422
G01 X62.1838Y64.7509
G01 X62.1810Y64.7602
G01 X62.1800Y64.7700
G01 X62.1810Y64.7798
G01 X62.1838Y64.7891
G01 X62.1884Y64.7978
G01 X62.1946Y64.8054
G01 X62.2022Y64.8116
G01 X62.2109Y64.8162
G01 X62.2202Y64.8190
G01 X62.2300Y64.8200
G01 X62.2398Y64.8190
G01 X62.2491Y64.8162
G01 X62.2578Y64.8116
G01 X62.2654Y64.8054
G01 X62.2716Y64.7978
G01 X62.2762Y64.7891
G01 X62.2790Y64.7798
G01 X62.2800Y64.7700
G00 X62.2800Y64.7700
G01 Z-1.5000
G01 X62.2790Y64.7602
G01 X62.2762Y64.7509
G01 X62.2716Y64.7422
G01 X62.2654Y64.7346
G01 X62.2578Y64.7284
G01 X62.2491Y64.7238
G01 X62.2398Y64.7210
G01 X62.2300Y64.7200
G01 X62.2202Y64.7210
G01 X62.2109Y64.7238
G01 X62.2022Y64.7284
G01 X62.1946Y64.7346
G01 X62.1884Y64.7422
G01 X62.1838Y64.7509
G01 X62.1810Y64.7602
G01 X62.1800Y64.7700
G01 X62.1810Y64.7798
G01 X62.1838Y64.7891
G01 X62.1884Y64.7978
G01 X62.1946Y64.8054
G01 X62.2022Y64.8116
G01 X62.2109Y64.8162
G01 X62.2202Y64.8190
G01 X62.2300Y64.8200
G01 X62.2398Y64.8190
G01 X62.2491Y64.8162
G01 X62.2578Y64.8116
G01 X62.2654Y64.8054
G01 X62.2716Y64.7978
G01 X62.2762Y64.7891
G01 X62.2790Y64.7798
G01 X62.2800Y64.7700
G00 X62.2800Y64.7700
G01 Z-1.7500
G01 X62.2790Y64.7602
G01 X62.2762Y64.7509
G01 X62.2716Y64.7422
G01 X62.2654Y64.7346
G01 X62.2578Y64.7284
G01 X62.2491Y64.7238
G01 X62.2398Y64.7210
G01 X62.2300Y64.7200
G01 X62.2202Y64.7210
G01 X62.2109Y64.7238
G01 X62.2022Y64.7284
G01 X62.1946Y64.7346
G01 X62.1884Y64.7422
G01 X62.1838Y64.7509
G01 X62.1810Y64.7602
G01 X62.1800Y64.7700
G01 X62.1810Y64.7798
G01 X62.1838Y64.7891
G01 X62.1884Y64.7978
G01 X62.1946Y64.8054
G01 X62.2022Y64.8116
G01 X62.2109Y64.8162
G01 X62.2202Y64.8190
G01 X62.2300Y64.8200
G01 X62.2398Y64.8190
G01 X62.2491Y64.8162
G01 X62.2578Y64.8116
G01 X62.2654Y64.8054
G01 X62.2716Y64.7978
G01 X62.2762Y64.7891
G01 X62.2790Y64.7798
G01 X62.2800Y64.7700
G00 X62.2800Y64.7700
G01 Z-2.0000
G01 X62.2790Y64.7602
G01 X62.2762Y64.7509
G01 X62.2716Y64.7422
G01 X62.2654Y64.7346
G01 X62.2578Y64.7284
G01 X62.2491Y64.7238
G01 X62.2398Y64.7210
G01 X62.2300Y64.7200
G01 X62.2202Y64.7210
G01 X62.2109Y64.7238
G01 X62.2022Y64.7284
G01 X62.1946Y64.7346
G01 X62.1884Y64.7422
G01 X62.1838Y64.7509
G01 X62.1810Y64.7602
G01 X62.1800Y64.7700
G01 X62.1810Y64.7798
G01 X62.1838Y64.7891
G01 X62.1884Y64.7978
G01 X62.1946Y64.8054
G01 X62.2022Y64.8116
G01 X62.2109Y64.8162
G01 X62.2202Y64.8190
G01 X62.2300Y64.8200
G01 X62.2398Y64.8190
G01 X62.2491Y64.8162
G01 X62.2578Y64.8116
G01 X62.2654Y64.8054
G01 X62.2716Y64.7978
G01 X62.2762Y64.7891
G01 X62.2790Y64.7798
G01 X62.2800Y64.7700
G00 Z3.0000
G00 X3.8600Y64.7700
G01 Z-0.2500
G01 X3.8590Y64.7602
G01 X3.8562Y64.7509
G01 X3.8516Y64.7422
G01 X3.8454Y64.7346
G01 X3.8378Y64.7284
G01 X3.8291Y64.7238
G01 X3.8198Y64.7210
G01 X3.8100Y64.7200
G01 X3.8002Y64.7210
G01 X3.7909Y64.7238
G01 X3.7822Y64.7284
G01 X3.7746Y64.7346
G01 X3.7684Y64.7422
G01 X3.7638Y64.7509
G01 X3.7610Y64.7602
G01 X3.7600Y64.7700
G01 X3.7610Y64.7798
G01 X3.7638Y64.7891
G01 X3.7684Y64.7978
G01 X3.7746Y64.8054
G01 X3.7822Y64.8116
G01 X3.7909Y64.8162
G01 X3.8002Y64.8190
G01 X3.8100Y64.8200
G01 X3.8198Y64.8190
G01 X3.8291Y64.8162
G01 X3.8378Y64.8116
G01 X3.8454Y64.8054
G01 X3.8516Y64.7978
G01 X3.8562Y64.7891
G01 X3.8590Y64.7798
G01 X3.8600Y64.7700
G00 X3.8600Y64.7700
G01 Z-0.5000
G01 X3.8590Y64.7602
G01 X3.8562Y64.7509
G01 X3.8516Y64.7422
G01 X3.8454Y64.7346
G01 X3.8378Y64.7284
G01 X3.8291Y64.7238
G01 X3.8198Y64.7210
G01 X3.8100Y64.7200
G01 X3.8002Y64.7210
G01 X3.7909Y64.7238
G01 X3.7822Y64.7284
G01 X3.7746Y64.7346
G01 X3.7684Y64.7422
G01 X3.7638Y64.7509
G01 X3.7610Y64.7602
G01 X3.7600Y64.7700
G01 X3.7610Y64.7798
G01 X3.7638Y64.7891
G01 X3.7684Y64.7978
G01 X3.7746Y64.8054
G01 X3.7822Y64.8116
G01 X3.7909Y64.8162
G01 X3.8002Y64.8190
G01 X3.8100Y64.8200
G01 X3.8198Y64.8190
G01 X3.8291Y64.8162
G01 X3.8378Y64.8116
G01 X3.8454Y64.8054
G01 X3.8516Y64.7978
G01 X3.8562Y64.7891
G01 X3.8590Y64.7798
G01 X3.8600Y64.7700
G00 X3.8600Y64.7700
G01 Z-0.7500
G01 X3.8590Y64.7602
G01 X3.8562Y64.7509
G01 X3.8516Y64.7422
G01 X3.8454Y64.7346
G01 X3.8378Y64.7284
G01 X3.8291Y64.7238
G01 X3.8198Y64.7210
G01 X3.8100Y64.7200
G01 X3.8002Y64.7210
G01 X3.7909Y64.7238
G01 X3.7822Y64.7284
G01 X3.7746Y64.7346
G01 X3.7684Y64.7422
G01 X3.7638Y64.7509
G01 X3.7610Y64.7602
G01 X3.7600Y64.7700
G01 X3.7610Y64.7798
G01 X3.7638Y64.7891
G01 X3.7684Y64.7978
G01 X3.7746Y64.8054
G01 X3.7822Y64.8116
G01 X3.7909Y64.8162
G01 X3.8002Y64.8190
G01 X3.8100Y64.8200
G01 X3.8198Y64.8190
G01 X3.8291Y64.8162
G01 X3.8378Y64.8116
G01 X3.8454Y64.8054
G01 X3.8516Y64.7978
G01 X3.8562Y64.7891
G01 X3.8590Y64.7798
G01 X3.8600Y64.7700
G00 X3.8600Y64.7700
G01 Z-1.0000
G01 X3.8590Y64.7602
G01 X3.8562Y64.7509
G01 X3.8516Y64.7422
G01 X3.8454Y64.7346
G01 X3.8378Y64.7284
G01 X3.8291Y64.7238
G01 X3.8198Y64.7210
G01 X3.8100Y64.7200
G01 X3.8002Y64.7210
G01 X3.7909Y64.7238
G01 X3.7822Y64.7284
G01 X3.7746Y64.7346
G01 X3.7684Y64.7422
G01 X3.7638Y64.7509
G01 X3.7610Y64.7602
G01 X3.7600Y64.7700
G01 X3.7610Y64.7798
G01 X3.7638Y64.7891
G01 X3.7684Y64.7978
G01 X3.7746Y64.8054
G01 X3.7822Y64.8116
G01 X3.7909Y64.8162
G01 X3.8002Y64.8190
G01 X3.8100Y64.8200
G01 X3.8198Y64.8190
G01 X3.8291Y64.8162
G01 X3.8378Y64.8116
G01 X3.8454Y64.8054
G01 X3.8516Y64.7978
G01 X3.8562Y64.7891
G01 X3.8590Y64.7798
G01 X3.8600Y64.7700
G00 X3.8600Y64.7700
G01 Z-1.2500
G01 X3.8590Y64.7602
G01 X3.8562Y64.7509
G01 X3.8516Y64.7422
G01 X3.8454Y64.7346
G01 X3.8378Y64.7284
G01 X3.8291Y64.7238
G01 X3.8198Y64.7210
G01 X3.8100Y64.7200
G01 X3.8002Y64.7210
G01 X3.7909Y64.7238
G01 X3.7822Y64.7284
G01 X3.7746Y64.7346
G01 X3.7684Y64.7422
G01 X3.7638Y64.7509
G01 X3.7610Y64.7602
G01 X3.7600Y64.7700
G01 X3.7610Y64.7798
G01 X3.7638Y64.7891
G01 X3.7684Y64.7978
G01 X3.7746Y64.8054
G01 X3.7822Y64.8116
G01 X3.7909Y64.8162
G01 X3.8002Y64.8190
G01 X3.8100Y64.8200
G01 X3.8198Y64.8190
G01 X3.8291Y64.8162
G01 X3.8378Y64.8116
G01 X3.8454Y64.8054
G01 X3.8516Y64.7978
G01 X3.8562Y64.7891
G01 X3.8590Y64.7798
G01 X3.8600Y64.7700
G00 X3.8600Y64.7700
G01 Z-1.5000
G01 X3.8590Y64.7602
G01 X3.8562Y64.7509
G01 X3.8516Y64.7422
G01 X3.8454Y64.7346
G01 X3.8378Y64.7284
G01 X3.8291Y64.7238
G01 X3.8198Y64.7210
G01 X3.8100Y64.7200
G01 X3.8002Y64.7210
G01 X3.7909Y64.7238
G01 X3.7822Y64.7284
G01 X3.7746Y64.7346
G01 X3.7684Y64.7422
G01 X3.7638Y64.7509
G01 X3.7610Y64.7602
G01 X3.7600Y64.7700
G01 X3.7610Y64.7798
G01 X3.7638Y64.7891
G01 X3.7684Y64.7978
G01 X3.7746Y64.8054
G01 X3.7822Y64.8116
G01 X3.7909Y64.8162
G01 X3.8002Y64.8190
G01 X3.8100Y64.8200
G01 X3.8198Y64.8190
G01 X3.8291Y64.8162
G01 X3.8378Y64.8116
G01 X3.8454Y64.8054
G01 X3.8516Y64.7978
G01 X3.8562Y64.7891
G01 X3.8590Y64.7798
G01 X3.8600Y64.7700
G00 X3.8600Y64.7700
G01 Z-1.7500
G01 X3.8590Y64.7602
G01 X3.8562Y64.7509
G01 X3.8516Y64.7422
G01 X3.8454Y64.7346
G01 X3.8378Y64.7284
G01 X3.8291Y64.7238
G01 X3.8198Y64.7210
G01 X3.8100Y64.7200
G01 X3.8002Y64.7210
G01 X3.7909Y64.7238
G01 X3.7822Y64.7284
G01 X3.7746Y64.7346
G01 X3.7684Y64.7422
G01 X3.7638Y64.7509
G01 X3.7610Y64.7602
G01 X3.7600Y64.7700
G01 X3.7610Y64.7798
G01 X3.7638Y64.7891
G01 X3.7684Y64.7978
G01 X3.7746Y64.8054
G01 X3.7822Y64.8116
G01 X3.7909Y64.8162
G01 X3.8002Y64.8190
G01 X3.8100Y64.8200
G01 X3.8198Y64.8190
G01 X3.8291Y64.8162
G01 X3.8378Y64.8116
G01 X3.8454Y64.8054
G01 X3.8516Y64.7978
G01 X3.8562Y64.7891
G01 X3.8590Y64.7798
G01 X3.8600Y64.7700
G00 X3.8600Y64.7700
G01 Z-2.0000
G01 X3.8590Y64.7602
G01 X3.8562Y64.7509
G01 X3.8516Y64.7422
G01 X3.8454Y64.7346
G01 X3.8378Y64.7284
G01 X3.8291Y64.7238
G01 X3.8198Y64.7210
G01 X3.8100Y64.7200
G01 X3.8002Y64.7210
G01 X3.7909Y64.7238
G01 X3.7822Y64.7284
G01 X3.7746Y64.7346
G01 X3.7684Y64.7422
G01 X3.7638Y64.7509
G01 X3.7610Y64.7602
G01 X3.7600Y64.7700
G01 X3.7610Y64.7798
G01 X3.7638Y64.7891
G01 X3.7684Y64.7978
G01 X3.7746Y64.8054
G01 X3.7822Y64.8116
G01 X3.7909Y64.8162
G01 X3.8002Y64.8190
G01 X3.8100Y64.8200
G01 X3.8198Y64.8190
G01 X3.8291Y64.8162
G01 X3.8378Y64.8116
G01 X3.8454Y64.8054
G01 X3.8516Y64.7978
G01 X3.8562Y64.7891
G01 X3.8590Y64.7798
G01 X3.8600Y64.7700
G00 Z3.0000
G00 Z3.0000
G00 X0Y0
M05
G0 Z20
G0 X0 Y100