G0 Z20
G21
G90
G94
F80.00
M03 S45
G4 P1

G0 X57.8540Y6.7535
G00 Z3.0000
G01 Z-0.2000
G01 X57.8540Y6.7535
G01 X57.8767Y6.7258
G01 X58.0213Y6.6071
G01 X58.1864Y6.5189
G01 X58.3655Y6.4646
G01 X58.5517Y6.4462
G01 X58.5874Y6.4497
G01 X58.6094Y6.4508
G01 X68.3250Y6.4508
G01 X68.3519Y6.4491
G01 X68.3737Y6.4454
G01 X68.3900Y6.4412
G01 X68.4065Y6.4354
G01 X68.4286Y6.4255
G01 X68.4499Y6.4129
G01 X68.4715Y6.3965
G01 X68.4841Y6.3849
G01 X68.4957Y6.3723
G01 X68.5121Y6.3507
G01 X68.5247Y6.3295
G01 X68.5319Y6.3143
G01 X68.5388Y6.2958
G01 X68.5452Y6.2719
G01 X68.5489Y6.2480
G01 X68.5500Y6.2220
G01 X68.6000Y5.9708
G01 X68.6980Y5.7342
G01 X68.8402Y5.5213
G01 X69.0213Y5.3402
G01 X69.2342Y5.1980
G01 X69.4708Y5.1000
G01 X69.7220Y5.0500
G01 X69.9780Y5.0500
G01 X70.2292Y5.1000
G01 X70.4658Y5.1980
G01 X70.6787Y5.3402
G01 X70.8598Y5.5213
G01 X70.9313Y5.6282
G01 X70.9430Y5.6436
G01 X70.9531Y5.6547
G01 X70.9712Y5.6717
G01 X70.9907Y5.6863
G01 X71.0053Y5.6952
G01 X71.0341Y5.7088
G01 X71.0506Y5.7146
G01 X71.0695Y5.7194
G01 X71.0934Y5.7231
G01 X71.1156Y5.7242
G01 X71.1378Y5.7231
G01 X71.1617Y5.7194
G01 X71.1807Y5.7146
G01 X71.1972Y5.7088
G01 X71.2260Y5.6951
G01 X71.2406Y5.6863
G01 X71.2600Y5.6717
G01 X71.2747Y5.6582
G01 X71.2882Y5.6435
G01 X71.3376Y5.5832
G01 X71.3507Y5.5655
G01 X71.3802Y5.5213
G01 X71.4212Y5.4802
G01 X71.4326Y5.4674
G01 X71.4663Y5.4263
G01 X71.5074Y5.3926
G01 X71.5202Y5.3812
G01 X71.5613Y5.3402
G01 X71.6095Y5.3079
G01 X71.6232Y5.2976
G01 X71.6643Y5.2639
G01 X71.7111Y5.2388
G01 X71.7259Y5.2301
G01 X71.7742Y5.1980
G01 X71.8278Y5.1756
G01 X71.8433Y5.1682
G01 X71.8901Y5.1431
G01 X71.9409Y5.1277
G01 X71.9571Y5.1221
G01 X72.0108Y5.1000
G01 X72.0677Y5.0885
G01 X72.0843Y5.0842
G01 X72.1352Y5.0688
G01 X72.1880Y5.0636
G01 X72.2050Y5.0612
G01 X72.2620Y5.0500
G01 X72.3200Y5.0499
G01 X72.3371Y5.0489
G01 X72.3900Y5.0437
G01 X72.4429Y5.0489
G01 X72.4600Y5.0499
G01 X72.5180Y5.0500
G01 X72.5750Y5.0612
G01 X72.5920Y5.0636
G01 X72.6448Y5.0688
G01 X72.6957Y5.0842
G01 X72.7123Y5.0885
G01 X72.7692Y5.1000
G01 X72.8229Y5.1221
G01 X72.8391Y5.1277
G01 X72.8899Y5.1431
G01 X72.9367Y5.1682
G01 X72.9522Y5.1756
G01 X73.0058Y5.1980
G01 X73.0541Y5.2301
G01 X73.0689Y5.2388
G01 X73.1157Y5.2639
G01 X73.1568Y5.2976
G01 X73.1705Y5.3079
G01 X73.2187Y5.3402
G01 X73.2598Y5.3812
G01 X73.2726Y5.3926
G01 X73.3137Y5.4263
G01 X73.3474Y5.4674
G01 X73.3588Y5.4802
G01 X73.3998Y5.5213
G01 X73.4293Y5.5655
G01 X73.4394Y5.5793
G01 X73.4861Y5.6364
G01 X73.5009Y5.6527
G01 X73.5211Y5.6706
G01 X73.5351Y5.6808
G01 X73.5564Y5.6933
G01 X73.5716Y5.7005
G01 X73.5900Y5.7074
G01 X73.6209Y5.7151
G01 X73.6378Y5.7175
G01 X73.6600Y5.7186
G01 X73.6822Y5.7175
G01 X73.6991Y5.7151
G01 X73.7300Y5.7074
G01 X73.7485Y5.7005
G01 X73.7636Y5.6933
G01 X73.7849Y5.6808
G01 X73.7989Y5.6706
G01 X73.8191Y5.6527
G01 X73.8339Y5.6364
G01 X73.8806Y5.5793
G01 X73.8907Y5.5655
G01 X73.9202Y5.5213
G01 X73.9612Y5.4802
G01 X73.9726Y5.4674
G01 X74.0063Y5.4263
G01 X74.0474Y5.3926
G01 X74.0602Y5.3812
G01 X74.1013Y5.3402
G01 X74.1495Y5.3079
G01 X74.1632Y5.2976
G01 X74.2043Y5.2639
G01 X74.2511Y5.2388
G01 X74.2659Y5.2301
G01 X74.3142Y5.1980
G01 X74.3678Y5.1756
G01 X74.3833Y5.1682
G01 X74.4301Y5.1431
G01 X74.4809Y5.1277
G01 X74.4971Y5.1221
G01 X74.5508Y5.1000
G01 X74.6077Y5.0885
G01 X74.6243Y5.0842
G01 X74.6752Y5.0688
G01 X74.7280Y5.0636
G01 X74.7450Y5.0612
G01 X74.8020Y5.0500
G01 X74.8600Y5.0499
G01 X74.8771Y5.0489
G01 X74.9300Y5.0437
G01 X74.9829Y5.0489
G01 X75.0000Y5.0499
G01 X75.0580Y5.0500
G01 X75.1150Y5.0612
G01 X75.1320Y5.0636
G01 X75.1848Y5.0688
G01 X75.2357Y5.0842
G01 X75.2523Y5.0885
G01 X75.3092Y5.1000
G01 X75.3629Y5.1221
G01 X75.3791Y5.1277
G01 X75.4299Y5.1431
G01 X75.4767Y5.1682
G01 X75.4922Y5.1756
G01 X75.5458Y5.1980
G01 X75.5941Y5.2301
G01 X75.6089Y5.2388
G01 X75.6557Y5.2639
G01 X75.6968Y5.2976
G01 X75.7105Y5.3079
G01 X75.7587Y5.3402
G01 X75.7998Y5.3812
G01 X75.8126Y5.3926
G01 X75.8537Y5.4263
G01 X75.8874Y5.4674
G01 X75.8988Y5.4802
G01 X75.9398Y5.5213
G01 X75.9693Y5.5655
G01 X75.9794Y5.5793
G01 X76.0261Y5.6364
G01 X76.0409Y5.6527
G01 X76.0611Y5.6706
G01 X76.0751Y5.6808
G01 X76.0964Y5.6933
G01 X76.1116Y5.7005
G01 X76.1300Y5.7074
G01 X76.1609Y5.7151
G01 X76.1778Y5.7175
G01 X76.2000Y5.7186
G01 X76.2222Y5.7175
G01 X76.2391Y5.7151
G01 X76.2700Y5.7074
G01 X76.2885Y5.7005
G01 X76.3036Y5.6933
G01 X76.3249Y5.6808
G01 X76.3389Y5.6706
G01 X76.3591Y5.6527
G01 X76.3739Y5.6364
G01 X76.4206Y5.5793
G01 X76.4307Y5.5655
G01 X76.4602Y5.5213
G01 X76.5012Y5.4802
G01 X76.5126Y5.4674
G01 X76.5463Y5.4263
G01 X76.5874Y5.3926
G01 X76.6002Y5.3812
G01 X76.6413Y5.3402
G01 X76.6895Y5.3079
G01 X76.7032Y5.2976
G01 X76.7443Y5.2639
G01 X76.7911Y5.2388
G01 X76.8059Y5.2301
G01 X76.8542Y5.1980
G01 X76.9078Y5.1756
G01 X76.9233Y5.1682
G01 X76.9701Y5.1431
G01 X77.0209Y5.1277
G01 X77.0371Y5.1221
G01 X77.0908Y5.1000
G01 X77.1477Y5.0885
G01 X77.1643Y5.0842
G01 X77.2152Y5.0688
G01 X77.2680Y5.0636
G01 X77.2850Y5.0612
G01 X77.3420Y5.0500
G01 X77.4000Y5.0499
G01 X77.4171Y5.0489
G01 X77.4700Y5.0437
G01 X77.5229Y5.0489
G01 X77.5400Y5.0499
G01 X77.5980Y5.0500
G01 X77.6550Y5.0612
G01 X77.6720Y5.0636
G01 X77.7248Y5.0688
G01 X77.7757Y5.0842
G01 X77.7923Y5.0885
G01 X77.8492Y5.1000
G01 X77.9029Y5.1221
G01 X77.9191Y5.1277
G01 X77.9699Y5.1431
G01 X78.0167Y5.1682
G01 X78.0322Y5.1756
G01 X78.0858Y5.1980
G01 X78.1341Y5.2301
G01 X78.1489Y5.2388
G01 X78.1957Y5.2639
G01 X78.2368Y5.2976
G01 X78.2505Y5.3079
G01 X78.2987Y5.3402
G01 X78.3398Y5.3812
G01 X78.3526Y5.3926
G01 X78.3937Y5.4263
G01 X78.4274Y5.4674
G01 X78.4388Y5.4802
G01 X78.4798Y5.5213
G01 X78.5093Y5.5655
G01 X78.5194Y5.5793
G01 X78.5661Y5.6364
G01 X78.5809Y5.6527
G01 X78.6011Y5.6706
G01 X78.6151Y5.6808
G01 X78.6364Y5.6933
G01 X78.6516Y5.7005
G01 X78.6700Y5.7074
G01 X78.7009Y5.7151
G01 X78.7178Y5.7175
G01 X78.7400Y5.7186
G01 X78.7622Y5.7175
G01 X78.7791Y5.7151
G01 X78.8100Y5.7074
G01 X78.8285Y5.7005
G01 X78.8436Y5.6933
G01 X78.8649Y5.6808
G01 X78.8789Y5.6706
G01 X78.8991Y5.6527
G01 X78.9139Y5.6364
G01 X78.9606Y5.5793
G01 X78.9707Y5.5655
G01 X79.0002Y5.5213
G01 X79.0412Y5.4802
G01 X79.0526Y5.4674
G01 X79.0863Y5.4263
G01 X79.1274Y5.3926
G01 X79.1402Y5.3812
G01 X79.1813Y5.3402
G01 X79.2295Y5.3079
G01 X79.2432Y5.2976
G01 X79.2843Y5.2639
G01 X79.3311Y5.2388
G01 X79.3459Y5.2301
G01 X79.3942Y5.1980
G01 X79.4478Y5.1756
G01 X79.4633Y5.1682
G01 X79.5101Y5.1431
G01 X79.5609Y5.1277
G01 X79.5771Y5.1221
G01 X79.6308Y5.1000
G01 X79.6877Y5.0885
G01 X79.7043Y5.0842
G01 X79.7552Y5.0688
G01 X79.8080Y5.0636
G01 X79.8250Y5.0612
G01 X79.8820Y5.0500
G01 X79.9400Y5.0499
G01 X79.9571Y5.0489
G01 X80.0100Y5.0437
G01 X80.0629Y5.0489
G01 X80.0800Y5.0499
G01 X80.1380Y5.0500
G01 X80.1950Y5.0612
G01 X80.2120Y5.0636
G01 X80.2648Y5.0688
G01 X80.3157Y5.0842
G01 X80.3323Y5.0885
G01 X80.3892Y5.1000
G01 X80.4429Y5.1221
G01 X80.4591Y5.1277
G01 X80.5099Y5.1431
G01 X80.5567Y5.1682
G01 X80.5722Y5.1756
G01 X80.6258Y5.1980
G01 X80.6741Y5.2301
G01 X80.6889Y5.2388
G01 X80.7357Y5.2639
G01 X80.7768Y5.2976
G01 X80.7905Y5.3079
G01 X80.8387Y5.3402
G01 X80.8798Y5.3812
G01 X80.8926Y5.3926
G01 X80.9337Y5.4263
G01 X80.9674Y5.4674
G01 X80.9788Y5.4802
G01 X81.0198Y5.5213
G01 X81.0493Y5.5655
G01 X81.0594Y5.5793
G01 X81.1061Y5.6364
G01 X81.1209Y5.6527
G01 X81.1411Y5.6706
G01 X81.1551Y5.6808
G01 X81.1764Y5.6933
G01 X81.1916Y5.7005
G01 X81.2100Y5.7074
G01 X81.2409Y5.7151
G01 X81.2578Y5.7175
G01 X81.2800Y5.7186
G01 X81.3022Y5.7175
G01 X81.3191Y5.7151
G01 X81.3500Y5.7074
G01 X81.3685Y5.7005
G01 X81.3836Y5.6933
G01 X81.4049Y5.6808
G01 X81.4189Y5.6706
G01 X81.4391Y5.6527
G01 X81.4539Y5.6364
G01 X81.5006Y5.5793
G01 X81.5107Y5.5655
G01 X81.5402Y5.5213
G01 X81.5812Y5.4802
G01 X81.5926Y5.4674
G01 X81.6263Y5.4263
G01 X81.6674Y5.3926
G01 X81.6802Y5.3812
G01 X81.7213Y5.3402
G01 X81.7695Y5.3079
G01 X81.7832Y5.2976
G01 X81.8243Y5.2639
G01 X81.8711Y5.2388
G01 X81.8859Y5.2301
G01 X81.9342Y5.1980
G01 X81.9878Y5.1756
G01 X82.0033Y5.1682
G01 X82.0501Y5.1431
G01 X82.1009Y5.1277
G01 X82.1171Y5.1221
G01 X82.1708Y5.1000
G01 X82.2277Y5.0885
G01 X82.2443Y5.0842
G01 X82.2952Y5.0688
G01 X82.3480Y5.0636
G01 X82.3650Y5.0612
G01 X82.4220Y5.0500
G01 X82.4800Y5.0499
G01 X82.4971Y5.0489
G01 X82.5500Y5.0437
G01 X82.6029Y5.0489
G01 X82.6200Y5.0499
G01 X82.6780Y5.0500
G01 X82.7350Y5.0612
G01 X82.7520Y5.0636
G01 X82.8048Y5.0688
G01 X82.8557Y5.0842
G01 X82.8723Y5.0885
G01 X82.9292Y5.1000
G01 X82.9829Y5.1221
G01 X82.9991Y5.1277
G01 X83.0499Y5.1431
G01 X83.0967Y5.1682
G01 X83.1122Y5.1756
G01 X83.1658Y5.1980
G01 X83.2141Y5.2301
G01 X83.2289Y5.2388
G01 X83.2757Y5.2639
G01 X83.3168Y5.2976
G01 X83.3305Y5.3079
G01 X83.3787Y5.3402
G01 X83.4198Y5.3812
G01 X83.4326Y5.3926
G01 X83.4737Y5.4263
G01 X83.5074Y5.4674
G01 X83.5188Y5.4802
G01 X83.5598Y5.5213
G01 X83.5893Y5.5655
G01 X83.5994Y5.5793
G01 X83.6461Y5.6364
G01 X83.6609Y5.6527
G01 X83.6811Y5.6706
G01 X83.6951Y5.6808
G01 X83.7164Y5.6933
G01 X83.7316Y5.7005
G01 X83.7500Y5.7074
G01 X83.7809Y5.7151
G01 X83.7978Y5.7175
G01 X83.8200Y5.7186
G01 X83.8422Y5.7175
G01 X83.8591Y5.7151
G01 X83.8900Y5.7074
G01 X83.9085Y5.7005
G01 X83.9236Y5.6933
G01 X83.9449Y5.6808
G01 X83.9589Y5.6706
G01 X83.9791Y5.6527
G01 X83.9939Y5.6364
G01 X84.0406Y5.5793
G01 X84.0507Y5.5655
G01 X84.0802Y5.5213
G01 X84.1212Y5.4802
G01 X84.1326Y5.4674
G01 X84.1663Y5.4263
G01 X84.2074Y5.3926
G01 X84.2202Y5.3812
G01 X84.2613Y5.3402
G01 X84.3095Y5.3079
G01 X84.3232Y5.2976
G01 X84.3643Y5.2639
G01 X84.4111Y5.2388
G01 X84.4259Y5.2301
G01 X84.4742Y5.1980
G01 X84.5278Y5.1756
G01 X84.5433Y5.1682
G01 X84.5901Y5.1431
G01 X84.6409Y5.1277
G01 X84.6571Y5.1221
G01 X84.7108Y5.1000
G01 X84.7677Y5.0885
G01 X84.7843Y5.0842
G01 X84.8352Y5.0688
G01 X84.8880Y5.0636
G01 X84.9050Y5.0612
G01 X84.9620Y5.0500
G01 X85.0200Y5.0499
G01 X85.0371Y5.0489
G01 X85.0900Y5.0437
G01 X85.1429Y5.0489
G01 X85.1600Y5.0499
G01 X85.2180Y5.0500
G01 X85.2750Y5.0612
G01 X85.2920Y5.0636
G01 X85.3448Y5.0688
G01 X85.3957Y5.0842
G01 X85.4123Y5.0885
G01 X85.4692Y5.1000
G01 X85.5229Y5.1221
G01 X85.5391Y5.1277
G01 X85.5899Y5.1431
G01 X85.6367Y5.1682
G01 X85.6522Y5.1756
G01 X85.7058Y5.1980
G01 X85.7541Y5.2301
G01 X85.7689Y5.2388
G01 X85.8157Y5.2639
G01 X85.8568Y5.2976
G01 X85.8705Y5.3079
G01 X85.9187Y5.3402
G01 X85.9598Y5.3812
G01 X85.9726Y5.3926
G01 X86.0137Y5.4263
G01 X86.0474Y5.4674
G01 X86.0588Y5.4802
G01 X86.0998Y5.5213
G01 X86.1321Y5.5695
G01 X86.1424Y5.5832
G01 X86.1761Y5.6243
G01 X86.2012Y5.6711
G01 X86.2099Y5.6859
G01 X86.2420Y5.7342
G01 X86.2644Y5.7878
G01 X86.2718Y5.8033
G01 X86.2969Y5.8501
G01 X86.3123Y5.9009
G01 X86.3179Y5.9171
G01 X86.3400Y5.9708
G01 X86.3515Y6.0277
G01 X86.3558Y6.0443
G01 X86.3712Y6.0952
G01 X86.3764Y6.1480
G01 X86.3788Y6.1650
G01 X86.3900Y6.2220
G01 X86.3900Y12.4450
G01 X86.3911Y12.4672
G01 X86.3948Y12.4911
G01 X86.3996Y12.5100
G01 X86.4054Y12.5265
G01 X86.4190Y12.5553
G01 X86.4279Y12.5699
G01 X86.4424Y12.5894
G01 X86.4559Y12.6041
G01 X86.4761Y12.6219
G01 X86.4941Y12.6347
G01 X86.5114Y12.6447
G01 X86.5244Y12.6509
G01 X86.5500Y12.6604
G01 X86.5689Y12.6652
G01 X86.5928Y12.6689
G01 X86.6150Y12.6700
G01 X90.9492Y12.6700
G01 X90.9713Y12.6689
G01 X91.0241Y12.6637
G01 X91.2790Y12.6888
G01 X91.5240Y12.7631
G01 X91.7499Y12.8839
G01 X91.9478Y13.0463
G01 X91.9815Y13.0874
G01 X91.9963Y13.1037
G01 X93.5763Y14.6837
G01 X93.5926Y14.6985
G01 X93.6337Y14.7322
G01 X93.7961Y14.9301
G01 X93.9169Y15.1560
G01 X93.9912Y15.4010
G01 X94.0163Y15.6559
G01 X94.0111Y15.7087
G01 X94.0100Y15.7308
G01 X94.0100Y16.5739
G0 Z3


G0 X82.1913Y77.6400
G01 Z-0.2000
G01 X82.1913Y77.6400
G01 X82.3040Y77.6459
G01 X82.4081Y77.6616
G01 X82.5103Y77.6873
G01 X82.6167Y77.7257
G01 X82.7074Y77.7686
G01 X82.8023Y77.8253
G01 X82.8907Y77.8911
G01 X82.9691Y77.9622
G01 X84.2612Y79.2545
G01 X84.3333Y79.3348
G01 X84.3947Y79.4177
G01 X84.4477Y79.5059
G01 X84.4953Y79.6054
G01 X84.5327Y79.7097
G01 X84.5584Y79.8120
G01 X84.5741Y79.9160
G01 X84.5800Y80.0287
G01 X84.5800Y84.2944
G01 X85.5300Y85.2443
G01 X85.5516Y85.2524
G01 X85.6533Y85.3004
G01 X85.7566Y85.3622
G01 X85.8529Y85.4338
G01 X85.9419Y85.5150
G01 X86.0162Y85.5971
G01 X86.0849Y85.6893
G01 X86.1496Y85.7967
G01 X86.1977Y85.8984
G01 X86.2368Y86.0070
G01 X86.2678Y86.1307
G01 X86.2842Y86.2422
G01 X86.2899Y86.3551
G01 X86.2842Y86.4778
G01 X86.2665Y86.5963
G01 X86.2396Y86.7036
G01 X86.1977Y86.8216
G01 X86.1496Y86.9233
G01 X86.0904Y87.0225
G01 X86.0162Y87.1229
G01 X85.9385Y87.2085
G01 X85.8550Y87.2844
G01 X85.7566Y87.3578
G01 X85.6533Y87.4196
G01 X85.5537Y87.4667
G01 X85.4380Y87.5084
G01 X85.3263Y87.5365
G01 X85.2125Y87.5536
G01 X85.0900Y87.5600
G01 X84.9675Y87.5536
G01 X84.8537Y87.5365
G01 X84.7420Y87.5084
G01 X84.6263Y87.4667
G01 X84.5267Y87.4196
G01 X84.4234Y87.3578
G01 X84.3250Y87.2844
G01 X84.2415Y87.2085
G01 X84.1638Y87.1229
G01 X84.0922Y87.0266
G01 X84.0341Y86.9299
G01 X83.9833Y86.8237
G01 X83.9743Y86.8000
G01 X82.7022Y85.5278
G01 X82.6311Y85.4495
G01 X82.5682Y85.3652
G01 X82.5086Y85.2661
G01 X82.4647Y85.1733
G01 X82.4261Y85.0646
G01 X82.4016Y84.9668
G01 X82.3859Y84.8627
G01 X82.3801Y84.7549
G01 X82.3800Y80.4844
G01 X81.7356Y79.8400
G01 X70.8100Y79.8400
G0 Z3

G0 X78.6700Y86.3600
G01 Z-0.2000
G01 X78.6700Y86.3600
G01 X78.6636Y86.4825
G01 X78.6465Y86.5963
G01 X78.6184Y86.7080
G01 X78.5776Y86.8216
G01 X78.5296Y86.9233
G01 X78.4678Y87.0266
G01 X78.3962Y87.1229
G01 X78.3185Y87.2085
G01 X78.2329Y87.2862
G01 X78.1366Y87.3578
G01 X78.0333Y87.4196
G01 X77.9316Y87.4676
G01 X77.8180Y87.5084
G01 X77.7063Y87.5365
G01 X77.5878Y87.5542
G01 X77.4700Y87.5600
G01 X77.3522Y87.5542
G01 X77.2337Y87.5365
G01 X77.1220Y87.5084
G01 X77.0063Y87.4667
G01 X76.9067Y87.4196
G01 X76.8075Y87.3604
G01 X76.7071Y87.2862
G01 X76.6181Y87.2050
G01 X76.5438Y87.1229
G01 X76.4751Y87.0307
G01 X76.4104Y86.9233
G01 X76.3624Y86.8216
G01 X76.3232Y86.7130
G01 X76.2935Y86.5963
G01 X76.2758Y86.4778
G01 X76.2700Y86.3600
G01 X76.2700Y83.7500
G01 X74.9300Y83.7500
G01 X74.8122Y83.7442
G01 X74.6937Y83.7265
G01 X74.5770Y83.6968
G01 X74.4663Y83.6567
G01 X74.3667Y83.6096
G01 X74.2675Y83.5504
G01 X74.1650Y83.4744
G01 X74.0815Y83.3985
G01 X74.0038Y83.3129
G01 X73.9322Y83.2166
G01 X73.8741Y83.1199
G00 Z3



G00 X82.3800Y85.8822
G01 Z-0.2000
G01 X82.3800Y85.8822
G01 X82.3904Y85.9054
G01 X82.4296Y86.0164
G01 X82.4565Y86.1237
G01 X82.4742Y86.2422
G01 X82.4800Y86.3600
G01 X82.4746Y86.4727
G01 X82.4565Y86.5963
G01 X82.4284Y86.7080
G01 X82.3877Y86.8216
G01 X82.3396Y86.9233
G01 X82.2778Y87.0266
G01 X82.2062Y87.1229
G01 X82.1285Y87.2085
G01 X82.0429Y87.2862
G01 X81.9466Y87.3578
G01 X81.8433Y87.4196
G01 X81.7416Y87.4676
G01 X81.6280Y87.5084
G01 X81.5163Y87.5365
G01 X81.3978Y87.5542
G01 X81.2800Y87.5600
G01 X81.1622Y87.5542
G01 X81.0437Y87.5365
G01 X80.9320Y87.5084
G01 X80.8254Y87.4704
G01 X80.7101Y87.4159
G01 X80.6134Y87.3578
G01 X80.5171Y87.2862
G01 X80.4315Y87.2085
G01 X80.3556Y87.1250
G01 X80.2796Y87.0225
G01 X80.2204Y86.9233
G01 X80.1724Y86.8216
G01 X80.1304Y86.7036
G01 X80.1035Y86.5963
G01 X80.0858Y86.4778
G01 X80.0801Y86.3551
G01 X80.0858Y86.2422
G01 X80.1022Y86.1307
G01 X80.1316Y86.0120
G01 X80.1696Y85.9054
G01 X80.1800Y85.8822
G01 X80.1800Y80.9400
G01 X80.1853Y80.8320
G01 X80.2016Y80.7232
G01 X80.2273Y80.6210
G01 X80.2647Y80.5167
G01 X80.3086Y80.4239
G01 X80.3653Y80.3290
G01 X80.4311Y80.2405
G01 X80.5022Y80.1622
G01 X80.5805Y80.0911
G01 X80.6649Y80.0282
G01 X80.7639Y79.9686
G01 X80.8546Y79.9257
G01 X80.9654Y79.8861
G01 X81.0632Y79.8616
G01 X81.1720Y79.8453
G01 X81.2800Y79.8400
G01 X81.3880Y79.8453
G01 X81.4968Y79.8616
G01 X81.5990Y79.8873
G01 X81.7033Y79.9247
G01 X81.7942Y79.9677
G01 X81.8910Y80.0253
G01 X81.9740Y80.0867
G01 X82.0612Y80.1657
G01 X82.1289Y80.2405
G01 X82.1947Y80.3290
G01 X82.2514Y80.4239
G01 X82.2953Y80.5167
G01 X82.3327Y80.6210
G01 X82.3584Y80.7232
G01 X82.3747Y80.8320
G01 X82.3799Y80.9351
G00 Z3.0000

G0 Z20
G00 X0Y0
M05
G0 X0 Y100