G0 Z20
G21
G90
G94
F80.00
M03 S45
G4 P1



G0 X90.8327Y76.5300
G00 Z3.0000
G01 Z-0.2000
G01 X90.8327Y76.5300
G01 X89.4900Y77.8727
G01 X89.4900Y82.5500
G01 X89.4823Y82.7070
G01 X89.4588Y82.8643
G01 X89.4212Y83.0142
G01 X89.3700Y83.1577
G01 X89.2987Y83.3085
G01 X89.2204Y83.4388
G01 X89.1255Y83.5667
G01 X89.0178Y83.6848
G01 X88.9067Y83.7854
G01 X88.7829Y83.8775
G01 X88.6418Y83.9623
G01 X88.4977Y84.0300
G01 X88.3542Y84.0812
G01 X88.2069Y84.1182
G01 X88.0419Y84.1427
G01 X87.8900Y84.1500
G01 X87.7330Y84.1423
G01 X87.5757Y84.1188
G01 X87.4259Y84.0812
G01 X87.2754Y84.0272
G01 X87.1382Y83.9623
G01 X87.0012Y83.8804
G01 X86.8789Y83.7898
G01 X86.7553Y83.6778
G01 X86.6546Y83.5667
G01 X86.5570Y83.4348
G01 X86.4777Y83.3018
G01 X86.4128Y83.1646
G01 X86.3588Y83.0142
G01 X86.3199Y82.8573
G01 X86.2977Y82.7070
G01 X86.2900Y82.5500
G01 X86.2900Y77.2100
G00 Z3.0000


G0 X67.1868Y86.7130
G01 Z-0.2000
G01 X67.1868Y86.7130
G01 X67.1476Y86.8216
G01 X67.0996Y86.9233
G01 X67.0378Y87.0266
G01 X66.9644Y87.1250
G01 X66.8885Y87.2085
G01 X66.8050Y87.2844
G01 X66.7107Y87.3549
G01 X66.6033Y87.4196
G01 X66.5016Y87.4676
G01 X66.3880Y87.5084
G01 X66.2763Y87.5365
G01 X66.1578Y87.5542
G01 X66.0400Y87.5600
G01 X65.9222Y87.5542
G01 X65.8037Y87.5365
G01 X65.6920Y87.5084
G01 X65.5784Y87.4676
G01 X65.4767Y87.4196
G01 X65.3734Y87.3578
G01 X65.2771Y87.2862
G01 X65.1915Y87.2085
G01 X65.1138Y87.1229
G01 X65.0422Y87.0266
G01 X64.9804Y86.9233
G01 X64.9333Y86.8237
G01 X64.8916Y86.7080
G01 X64.8635Y86.5963
G01 X64.8464Y86.4825
G01 X64.8400Y86.3600
G01 X64.8401Y85.7978
G01 X64.8458Y85.6851
G01 X64.8622Y85.5734
G01 X64.8916Y85.4547
G00 Z3.0000


G0 X57.7575Y87.3604
G01 Z-0.2000
G01 X57.7575Y87.3604
G01 X57.6571Y87.2862
G01 X57.5681Y87.2050
G01 X57.4938Y87.1229
G01 X57.4251Y87.0307
G01 X57.3604Y86.9233
G01 X57.3124Y86.8216
G01 X57.2732Y86.7130
G01 X57.2435Y86.5963
G01 X57.2258Y86.4778
G01 X57.2200Y86.3600
G01 X57.2200Y83.7500
G01 X55.8800Y83.7500
G01 X55.7622Y83.7442
G01 X55.6437Y83.7265
G01 X55.5270Y83.6968
G01 X55.4163Y83.6567
G01 X55.3167Y83.6096
G01 X55.2175Y83.5504
G01 X55.1150Y83.4744
G01 X55.0315Y83.3985
G01 X54.9538Y83.3129
G01 X54.8822Y83.2166
G01 X54.8241Y83.1199
G01 X54.7696Y83.0046
G01 X54.7316Y82.8980
G01 X54.7035Y82.7863
G01 X54.6858Y82.6678
G00 Z3.0000


G0 X63.3457Y86.8000
G01 Z-0.2000
G01 X63.3457Y86.8000
G01 X63.3367Y86.8237
G01 X63.2859Y86.9299
G01 X63.2278Y87.0266
G01 X63.1562Y87.1229
G01 X63.0750Y87.2119
G01 X62.9929Y87.2862
G01 X62.9007Y87.3549
G01 X62.7933Y87.4196
G01 X62.6916Y87.4676
G01 X62.5780Y87.5084
G01 X62.4663Y87.5365
G01 X62.3478Y87.5542
G01 X62.2300Y87.5600
G01 X62.1122Y87.5542
G01 X61.9937Y87.5365
G01 X61.8820Y87.5084
G01 X61.7684Y87.4676
G01 X61.6667Y87.4196
G01 X61.5634Y87.3578
G01 X61.4671Y87.2862
G01 X61.3815Y87.2085
G01 X61.3038Y87.1229
G01 X61.2351Y87.0307
G01 X61.1695Y86.9213
G01 X61.1224Y86.8216
G01 X61.0816Y86.7080
G01 X61.0535Y86.5963
G01 X61.0364Y86.4825
G01 X61.0301Y86.3551
G01 X61.0358Y86.2422
G01 X61.0535Y86.1237
G01 X61.0816Y86.0120
G01 X61.1196Y85.9054
G01 X61.1741Y85.7901
G01 X61.2322Y85.6934
G01 X61.3038Y85.5971
G01 X61.3850Y85.5081
G01 X61.4671Y85.4338
G01 X61.5593Y85.3651
G01 X61.6667Y85.3004
G01 X61.7684Y85.2524
G01 X61.7900Y85.2443
G0 Z20
G00 X0Y0
M05
G0 X0 Y100