G0 Z20
G21
G90
G94
F50.00
G00 Z3.0000
M03 S45
G4 P1
G00 X41.9100Y12.7000
G01 Z-2.0000
G01 Z0
G00 Z3.0000
G00 X38.0800Y12.7000
G01 Z-2.0000
G01 Z0
G00 Z3.0000
G00 X35.5800Y12.7000
G01 Z-2.0000
G01 Z0
G00 Z3.0000
G00 X31.7500Y12.7000
G01 Z-2.0000
G01 Z0
G00 Z3.0000
G00 X24.1300Y12.7000
G01 Z-2.0000
G01 Z0
G00 Z3.0000
G00 X92.7100Y16.5100
G01 Z-2.0000
G01 Z0
G00 Z3.0000
G00 X54.6100Y17.7800
G01 Z-2.0000
G01 Z0
G00 Z3.0000
G00 X52.0700Y17.7800
G01 Z-2.0000
G01 Z0
G00 Z3.0000
G00 X49.5300Y17.7800
G01 Z-2.0000
G01 Z0
G00 Z3.0000
G00 X47.2300Y17.7800
G01 Z-2.0000
G01 Z0
G00 Z3.0000
G00 X90.1700Y17.7800
G01 Z-2.0000
G01 Z0
G00 Z3.0000
G00 X87.6300Y17.7800
G01 Z-2.0000
G01 Z0
G00 Z3.0000
G00 X85.0900Y17.7800
G01 Z-2.0000
G01 Z0
G00 Z3.0000
G00 X82.5500Y17.7800
G01 Z-2.0000
G01 Z0
G00 Z3.0000
G00 X80.0100Y17.7800
G01 Z-2.0000
G01 Z0
G00 Z3.0000
G00 X77.4700Y17.7800
G01 Z-2.0000
G01 Z0
G00 Z3.0000
G00 X74.9300Y17.7800
G01 Z-2.0000
G01 Z0
G00 Z3.0000
G00 X72.3900Y17.7800
G01 Z-2.0000
G01 Z0
G00 Z3.0000
G00 X69.8500Y17.7800
G01 Z-2.0000
G01 Z0
G00 Z3.0000
G00 X67.3100Y17.7800
G01 Z-2.0000
G01 Z0
G00 Z3.0000
G00 X64.7700Y17.7800
G01 Z-2.0000
G01 Z0
G00 Z3.0000
G00 X62.2300Y17.7800
G01 Z-2.0000
G01 Z0
G00 Z3.0000
G00 X59.6900Y17.7800
G01 Z-2.0000
G01 Z0
G00 Z3.0000
G00 X57.1500Y17.7800
G01 Z-2.0000
G01 Z0
G00 Z3.0000
G00 X42.1640Y21.0820
G01 Z-2.0000
G01 Z0
G00 Z3.0000
G00 X17.5510Y21.9960
G01 Z-2.0000
G01 Z0
G00 Z3.0000
G00 X26.6700Y23.8760
G01 Z-2.0000
G01 Z0
G00 Z3.0000
G00 X36.8300Y23.8760
G01 Z-2.0000
G01 Z0
G00 Z3.0000
G00 X24.1300Y23.8760
G01 Z-2.0000
G01 Z0
G00 Z3.0000
G00 X39.3700Y23.8760
G01 Z-2.0000
G01 Z0
G00 Z3.0000
G00 X39.3700Y31.4960
G01 Z-2.0000
G01 Z0
G00 Z3.0000
G00 X24.1300Y31.4960
G01 Z-2.0000
G01 Z0
G00 Z3.0000
G00 X36.8300Y31.4960
G01 Z-2.0000
G01 Z0
G00 Z3.0000
G00 X26.6700Y31.4960
G01 Z-2.0000
G01 Z0
G00 Z3.0000
G00 X57.1500Y33.0200
G01 Z-2.0000
G01 Z0
G00 Z3.0000
G00 X59.6900Y33.0200
G01 Z-2.0000
G01 Z0
G00 Z3.0000
G00 X62.2300Y33.0200
G01 Z-2.0000
G01 Z0
G00 Z3.0000
G00 X64.7700Y33.0200
G01 Z-2.0000
G01 Z0
G00 Z3.0000
G00 X67.3100Y33.0200
G01 Z-2.0000
G01 Z0
G00 Z3.0000
G00 X69.8500Y33.0200
G01 Z-2.0000
G01 Z0
G00 Z3.0000
G00 X72.3900Y33.0200
G01 Z-2.0000
G01 Z0
G00 Z3.0000
G00 X74.9300Y33.0200
G01 Z-2.0000
G01 Z0
G00 Z3.0000
G00 X77.4700Y33.0200
G01 Z-2.0000
G01 Z0
G00 Z3.0000
G00 X80.0100Y33.0200
G01 Z-2.0000
G01 Z0
G00 Z3.0000
G00 X82.5500Y33.0200
G01 Z-2.0000
G01 Z0
G00 Z3.0000
G00 X85.0900Y33.0200
G01 Z-2.0000
G01 Z0
G00 Z3.0000
G00 X87.6300Y33.0200
G01 Z-2.0000
G01 Z0
G00 Z3.0000
G00 X90.1700Y33.0200
G01 Z-2.0000
G01 Z0
G00 Z3.0000
G00 X47.1300Y33.0200
G01 Z-2.0000
G01 Z0
G00 Z3.0000
G00 X49.5300Y33.0200
G01 Z-2.0000
G01 Z0
G00 Z3.0000
G00 X52.0700Y33.0200
G01 Z-2.0000
G01 Z0
G00 Z3.0000
G00 X54.6100Y33.0200
G01 Z-2.0000
G01 Z0
G00 Z3.0000
G00 X92.7100Y33.0200
G01 Z-2.0000
G01 Z0
G00 Z3.0000
G00 X41.9100Y35.3060
G01 Z-2.0000
G01 Z0
G00 Z3.0000
G00 X39.3700Y35.3060
G01 Z-2.0000
G01 Z0
G00 Z3.0000
G00 X29.2100Y35.3060
G01 Z-2.0000
G01 Z0
G00 Z3.0000
G00 X26.6700Y35.3060
G01 Z-2.0000
G01 Z0
G00 Z3.0000
G00 X35.5600Y35.3060
G01 Z-2.0000
G01 Z0
G00 Z3.0000
G00 X33.0200Y35.3060
G01 Z-2.0000
G01 Z0
G00 Z3.0000
G00 X22.8600Y35.3060
G01 Z-2.0000
G01 Z0
G00 Z3.0000
G00 X20.3200Y35.3060
G01 Z-2.0000
G01 Z0
G00 Z3.0000
G00 X74.9300Y35.5600
G01 Z-2.0000
G01 Z0
G00 Z3.0000
G00 X77.4700Y35.5600
G01 Z-2.0000
G01 Z0
G00 Z3.0000
G00 X72.3900Y36.8300
G01 Z-2.0000
G01 Z0
G00 Z3.0000
G00 X49.5300Y36.8300
G01 Z-2.0000
G01 Z0
G00 Z3.0000
G00 X52.0700Y39.3700
G01 Z-2.0000
G01 Z0
G00 Z3.0000
G00 X69.8500Y39.3700
G01 Z-2.0000
G01 Z0
G00 Z3.0000
G00 X41.9100Y42.9260
G01 Z-2.0000
G01 Z0
G00 Z3.0000
G00 X39.3700Y42.9260
G01 Z-2.0000
G01 Z0
G00 Z3.0000
G00 X29.2100Y42.9260
G01 Z-2.0000
G01 Z0
G00 Z3.0000
G00 X26.6700Y42.9260
G01 Z-2.0000
G01 Z0
G00 Z3.0000
G00 X35.5600Y42.9260
G01 Z-2.0000
G01 Z0
G00 Z3.0000
G00 X33.0200Y42.9260
G01 Z-2.0000
G01 Z0
G00 Z3.0000
G00 X22.8600Y42.9260
G01 Z-2.0000
G01 Z0
G00 Z3.0000
G00 X20.3200Y42.9260
G01 Z-2.0000
G01 Z0
G00 Z3.0000
G00 X90.1700Y43.1800
G01 Z-2.0000
G01 Z0
G00 Z3.0000
G00 X93.9700Y43.1800
G01 Z-2.0000
G01 Z0
G00 Z3.0000
G00 X85.0900Y44.4500
G01 Z-2.0000
G01 Z0
G00 Z3.0000
G00 X77.4700Y44.4500
G01 Z-2.0000
G01 Z0
G00 Z3.0000
G00 X26.6700Y45.4660
G01 Z-2.0000
G01 Z0
G00 Z3.0000
G00 X38.1000Y45.4660
G01 Z-2.0000
G01 Z0
G00 Z3.0000
G00 X83.0580Y47.7520
G01 Z-2.0000
G01 Z0
G00 Z3.0000
G00 X48.8950Y47.8790
G01 Z-2.0000
G01 Z0
G00 Z3.0000
G00 X19.5580Y48.0060
G01 Z-2.0000
G01 Z0
G00 Z3.0000
G00 X17.5260Y48.0060
G01 Z-2.0000
G01 Z0
G00 Z3.0000
G00 X40.6400Y48.0060
G01 Z-2.0000
G01 Z0
G00 Z3.0000
G00 X33.0200Y48.0060
G01 Z-2.0000
G01 Z0
G00 Z3.0000
G00 X29.2100Y48.0060
G01 Z-2.0000
G01 Z0
G00 Z3.0000
G00 X21.5900Y48.0060
G01 Z-2.0000
G01 Z0
G00 Z3.0000
G00 X86.1310Y50.8000
G01 Z-2.0000
G01 Z0
G00 Z3.0000
G00 X91.4400Y52.0700
G01 Z-2.0000
G01 Z0
G00 Z3.0000
G00 X91.4400Y54.6100
G01 Z-2.0000
G01 Z0
G00 Z3.0000
G00 X19.5830Y55.3210
G01 Z-2.0000
G01 Z0
G00 Z3.0000
G00 X10.1600Y57.7850
G01 Z-2.0000
G01 Z0
G00 Z3.0000
G00 X19.5070Y57.7850
G01 Z-2.0000
G01 Z0
G00 Z3.0000
G00 X30.4800Y60.3250
G01 Z-2.0000
G01 Z0
G00 Z3.0000
G00 X38.1280Y60.3530
G01 Z-2.0000
G01 Z0
G00 Z3.0000
G00 X55.3230Y60.9090
G01 Z-2.0000
G01 Z0
G00 Z3.0000
G00 X49.5300Y60.9600
G01 Z-2.0000
G01 Z0
G00 Z3.0000
G00 X86.3600Y60.9600
G01 Z-2.0000
G01 Z0
G00 Z3.0000
G00 X80.0100Y64.7700
G01 Z-2.0000
G01 Z0
G00 Z3.0000
G00 X77.4700Y64.7700
G01 Z-2.0000
G01 Z0
G00 Z3.0000
G00 X74.9300Y64.7700
G01 Z-2.0000
G01 Z0
G00 Z3.0000
G00 X72.3900Y64.7700
G01 Z-2.0000
G01 Z0
G00 Z3.0000
G00 X69.8500Y64.7700
G01 Z-2.0000
G01 Z0
G00 Z3.0000
G00 X67.3100Y64.7700
G01 Z-2.0000
G01 Z0
G00 Z3.0000
G00 X53.3400Y64.7700
G01 Z-2.0000
G01 Z0
G00 Z3.0000
G00 X50.8000Y64.7700
G01 Z-2.0000
G01 Z0
G00 Z3.0000
G00 X48.2600Y64.7700
G01 Z-2.0000
G01 Z0
G00 Z3.0000
G00 X45.7200Y64.7700
G01 Z-2.0000
G01 Z0
G00 Z3.0000
G00 X43.1800Y64.7700
G01 Z-2.0000
G01 Z0
G00 Z3.0000
G00 X40.6400Y64.7700
G01 Z-2.0000
G01 Z0
G00 Z3.0000
G00 X38.1000Y64.7700
G01 Z-2.0000
G01 Z0
G00 Z3.0000
G00 X35.5600Y64.7700
G01 Z-2.0000
G01 Z0
G00 Z3.0000
G00 X33.0200Y64.7700
G01 Z-2.0000
G01 Z0
G00 Z3.0000
G00 X30.4800Y64.7700
G01 Z-2.0000
G01 Z0
G00 Z3.0000
G00 X62.2300Y64.7700
G01 Z-2.0000
G01 Z0
G00 Z3.0000
G00 X86.3600Y69.8500
G01 Z-2.0000
G01 Z0
G00 Z3.0000
G00 X86.3600Y72.3900
G01 Z-2.0000
G01 Z0
G00 Z3.0000
G00 X62.2300Y72.3900
G01 Z-2.0000
G01 Z0
G00 Z3.0000
G00 X24.1300Y78.7400
G01 Z-2.0000
G01 Z0
G00 Z3.0000
G00 X38.1000Y78.7400
G01 Z-2.0000
G01 Z0
G00 Z3.0000
G00 X64.7700Y78.7400
G01 Z-2.0000
G01 Z0
G00 Z3.0000
G00 X69.6600Y78.7400
G01 Z-2.0000
G01 Z0
G00 Z3.0000
G00 X67.3100Y80.6450
G01 Z-2.0000
G01 Z0
G00 Z3.0000
G00 X43.1800Y80.6450
G01 Z-2.0000
G01 Z0
G00 Z3.0000
G00 X30.6200Y80.6450
G01 Z-2.0000
G01 Z0
G00 Z3.0000
G00 X81.2800Y80.9400
G01 Z-2.0000
G01 Z0
G00 Z3.0000
G00 X87.8900Y82.5500
G01 Z-2.0000
G01 Z0
G00 Z3.0000
G00 X77.4700Y82.5500
G01 Z-2.0000
G01 Z0
G00 Z3.0000
G00 X74.9300Y82.5500
G01 Z-2.0000
G01 Z0
G00 Z3.0000
G00 X58.4200Y82.5500
G01 Z-2.0000
G01 Z0
G00 Z3.0000
G00 X55.8800Y82.5500
G01 Z-2.0000
G01 Z0
G00 Z3.0000
G00 X13.9700Y82.5500
G01 Z-2.0000
G01 Z0
G00 Z3.0000
G00 X0.0000Y0.0000
M05
G0 Z20
G0 X0 Y100