G0 Z20
G21
G90
G94
F50.00
G00 Z3.0000
M03 S45
G4 P1
G00 X69.8500Y6.3500
G01 Z-2.0000
G01 Z0
G00 Z3.0000
G00 X72.3900Y6.3500
G01 Z-2.0000
G01 Z0
G00 Z3.0000
G00 X74.9300Y6.3500
G01 Z-2.0000
G01 Z0
G00 Z3.0000
G00 X77.4700Y6.3500
G01 Z-2.0000
G01 Z0
G00 Z3.0000
G00 X80.0100Y6.3500
G01 Z-2.0000
G01 Z0
G00 Z3.0000
G00 X82.5500Y6.3500
G01 Z-2.0000
G01 Z0
G00 Z3.0000
G00 X85.0900Y6.3500
G01 Z-2.0000
G01 Z0
G00 Z3.0000
G00 X87.6300Y6.3500
G01 Z-2.0000
G01 Z0
G00 Z3.0000
G00 X12.7000Y11.4300
G01 Z-2.0000
G01 Z0
G00 Z3.0000
G00 X10.1600Y11.4300
G01 Z-2.0000
G01 Z0
G00 Z3.0000
G00 X7.6200Y11.4300
G01 Z-2.0000
G01 Z0
G00 Z3.0000
G00 X7.6200Y22.8600
G01 Z-2.0000
G01 Z0
G00 Z3.0000
G00 X10.1600Y22.8600
G01 Z-2.0000
G01 Z0
G00 Z3.0000
G00 X12.7000Y22.8600
G01 Z-2.0000
G01 Z0
G00 Z3.0000
G00 X12.7000Y33.0200
G01 Z-2.0000
G01 Z0
G00 Z3.0000
G00 X10.1600Y33.0200
G01 Z-2.0000
G01 Z0
G00 Z3.0000
G00 X7.6200Y33.0200
G01 Z-2.0000
G01 Z0
G00 Z3.0000
G00 X7.6200Y43.1800
G01 Z-2.0000
G01 Z0
G00 Z3.0000
G00 X10.1600Y43.1800
G01 Z-2.0000
G01 Z0
G00 Z3.0000
G00 X12.7000Y43.1800
G01 Z-2.0000
G01 Z0
G00 Z3.0000
G00 X82.5500Y50.8000
G01 Z-2.0000
G01 Z0
G00 Z3.0000
G00 X67.3100Y50.8000
G01 Z-2.0000
G01 Z0
G00 Z3.0000
G00 X7.6200Y53.3400
G01 Z-2.0000
G01 Z0
G00 Z3.0000
G00 X10.1600Y53.3400
G01 Z-2.0000
G01 Z0
G00 Z3.0000
G00 X12.7000Y53.3400
G01 Z-2.0000
G01 Z0
G00 Z3.0000
G00 X23.1140Y55.2450
G01 Z-2.0000
G01 Z0
G00 Z3.0000
G00 X23.1140Y57.7850
G01 Z-2.0000
G01 Z0
G00 Z3.0000
G00 X38.7350Y57.7850
G01 Z-2.0000
G01 Z0
G00 Z3.0000
G00 X41.2750Y57.7850
G01 Z-2.0000
G01 Z0
G00 Z3.0000
G00 X33.0200Y57.7850
G01 Z-2.0000
G01 Z0
G00 Z3.0000
G00 X35.5600Y57.7850
G01 Z-2.0000
G01 Z0
G00 Z3.0000
G00 X82.5500Y59.6900
G01 Z-2.0000
G01 Z0
G00 Z3.0000
G00 X67.3100Y59.6900
G01 Z-2.0000
G01 Z0
G00 Z3.0000
G00 X91.4400Y60.9600
G01 Z-2.0000
G01 Z0
G00 Z3.0000
G00 X12.7000Y63.5000
G01 Z-2.0000
G01 Z0
G00 Z3.0000
G00 X10.1600Y63.5000
G01 Z-2.0000
G01 Z0
G00 Z3.0000
G00 X7.6200Y63.5000
G01 Z-2.0000
G01 Z0
G00 Z3.0000
G00 X91.4400Y63.5000
G01 Z-2.0000
G01 Z0
G00 Z3.0000
G00 X95.2500Y71.1200
G01 Z-2.0000
G01 Z0
G00 Z3.0000
G00 X12.7000Y73.6600
G01 Z-2.0000
G01 Z0
G00 Z3.0000
G00 X10.1600Y73.6600
G01 Z-2.0000
G01 Z0
G00 Z3.0000
G00 X7.6200Y73.6600
G01 Z-2.0000
G01 Z0
G00 Z3.0000
G00 X95.2500Y74.9300
G01 Z-2.0000
G01 Z0
G00 Z3.0000
G00 X62.2300Y76.2000
G01 Z-2.0000
G01 Z0
G00 Z3.0000
G00 X62.2300Y78.7400
G01 Z-2.0000
G01 Z0
G00 Z3.0000
G00 X46.9900Y86.3600
G01 Z-2.0000
G01 Z0
G00 Z3.0000
G00 X43.1800Y86.3600
G01 Z-2.0000
G01 Z0
G00 Z3.0000
G00 X39.3700Y86.3600
G01 Z-2.0000
G01 Z0
G00 Z3.0000
G00 X31.7500Y86.3600
G01 Z-2.0000
G01 Z0
G00 Z3.0000
G00 X27.9400Y86.3600
G01 Z-2.0000
G01 Z0
G00 Z3.0000
G00 X24.1300Y86.3600
G01 Z-2.0000
G01 Z0
G00 Z3.0000
G00 X69.8500Y86.3600
G01 Z-2.0000
G01 Z0
G00 Z3.0000
G00 X66.0400Y86.3600
G01 Z-2.0000
G01 Z0
G00 Z3.0000
G00 X62.2300Y86.3600
G01 Z-2.0000
G01 Z0
G00 Z3.0000
G00 X58.4200Y86.3600
G01 Z-2.0000
G01 Z0
G00 Z3.0000
G00 X13.9700Y86.3600
G01 Z-2.0000
G01 Z0
G00 Z3.0000
G00 X10.1600Y86.3600
G01 Z-2.0000
G01 Z0
G00 Z3.0000
G00 X6.3500Y86.3600
G01 Z-2.0000
G01 Z0
G00 Z3.0000
G00 X88.9000Y86.3600
G01 Z-2.0000
G01 Z0
G00 Z3.0000
G00 X85.0900Y86.3600
G01 Z-2.0000
G01 Z0
G00 Z3.0000
G00 X81.2800Y86.3600
G01 Z-2.0000
G01 Z0
G00 Z3.0000
G00 X77.4700Y86.3600
G01 Z-2.0000
G01 Z0
G00 Z3.0000
G00 X0.0000Y0.0000
M05
G0 Z20
G0 X0 Y100