G0 Z20
G21
G90
G94
F50.00
G00 Z3.0000
M03 S45
G4 P1
G00 X4.4600Y3.8100
G01 Z-0.2500
G01 X4.4569Y3.7463
G01 X4.4475Y3.6832
G01 X4.4320Y3.6213
G01 X4.4105Y3.5613
G01 X4.3832Y3.5036
G01 X4.3505Y3.4489
G01 X4.3125Y3.3976
G01 X4.2696Y3.3504
G01 X4.2224Y3.3075
G01 X4.1711Y3.2695
G01 X4.1164Y3.2368
G01 X4.0587Y3.2095
G01 X3.9987Y3.1880
G01 X3.9368Y3.1725
G01 X3.8737Y3.1631
G01 X3.8100Y3.1600
G01 X3.7463Y3.1631
G01 X3.6832Y3.1725
G01 X3.6213Y3.1880
G01 X3.5613Y3.2095
G01 X3.5036Y3.2368
G01 X3.4489Y3.2695
G01 X3.3976Y3.3075
G01 X3.3504Y3.3504
G01 X3.3075Y3.3976
G01 X3.2695Y3.4489
G01 X3.2368Y3.5036
G01 X3.2095Y3.5613
G01 X3.1880Y3.6213
G01 X3.1725Y3.6832
G01 X3.1631Y3.7463
G01 X3.1600Y3.8100
G01 X3.1631Y3.8737
G01 X3.1725Y3.9368
G01 X3.1880Y3.9987
G01 X3.2095Y4.0587
G01 X3.2368Y4.1164
G01 X3.2695Y4.1711
G01 X3.3075Y4.2224
G01 X3.3504Y4.2696
G01 X3.3976Y4.3125
G01 X3.4489Y4.3505
G01 X3.5036Y4.3832
G01 X3.5613Y4.4105
G01 X3.6213Y4.4320
G01 X3.6832Y4.4475
G01 X3.7463Y4.4569
G01 X3.8100Y4.4600
G01 X3.8737Y4.4569
G01 X3.9368Y4.4475
G01 X3.9987Y4.4320
G01 X4.0587Y4.4105
G01 X4.1164Y4.3832
G01 X4.1711Y4.3505
G01 X4.2224Y4.3125
G01 X4.2696Y4.2696
G01 X4.3125Y4.2224
G01 X4.3505Y4.1711
G01 X4.3832Y4.1164
G01 X4.4105Y4.0587
G01 X4.4320Y3.9987
G01 X4.4475Y3.9368
G01 X4.4569Y3.8737
G01 X4.4600Y3.8100
G00 X4.4600Y3.8100
G01 Z-0.5000
G01 X4.4569Y3.7463
G01 X4.4475Y3.6832
G01 X4.4320Y3.6213
G01 X4.4105Y3.5613
G01 X4.3832Y3.5036
G01 X4.3505Y3.4489
G01 X4.3125Y3.3976
G01 X4.2696Y3.3504
G01 X4.2224Y3.3075
G01 X4.1711Y3.2695
G01 X4.1164Y3.2368
G01 X4.0587Y3.2095
G01 X3.9987Y3.1880
G01 X3.9368Y3.1725
G01 X3.8737Y3.1631
G01 X3.8100Y3.1600
G01 X3.7463Y3.1631
G01 X3.6832Y3.1725
G01 X3.6213Y3.1880
G01 X3.5613Y3.2095
G01 X3.5036Y3.2368
G01 X3.4489Y3.2695
G01 X3.3976Y3.3075
G01 X3.3504Y3.3504
G01 X3.3075Y3.3976
G01 X3.2695Y3.4489
G01 X3.2368Y3.5036
G01 X3.2095Y3.5613
G01 X3.1880Y3.6213
G01 X3.1725Y3.6832
G01 X3.1631Y3.7463
G01 X3.1600Y3.8100
G01 X3.1631Y3.8737
G01 X3.1725Y3.9368
G01 X3.1880Y3.9987
G01 X3.2095Y4.0587
G01 X3.2368Y4.1164
G01 X3.2695Y4.1711
G01 X3.3075Y4.2224
G01 X3.3504Y4.2696
G01 X3.3976Y4.3125
G01 X3.4489Y4.3505
G01 X3.5036Y4.3832
G01 X3.5613Y4.4105
G01 X3.6213Y4.4320
G01 X3.6832Y4.4475
G01 X3.7463Y4.4569
G01 X3.8100Y4.4600
G01 X3.8737Y4.4569
G01 X3.9368Y4.4475
G01 X3.9987Y4.4320
G01 X4.0587Y4.4105
G01 X4.1164Y4.3832
G01 X4.1711Y4.3505
G01 X4.2224Y4.3125
G01 X4.2696Y4.2696
G01 X4.3125Y4.2224
G01 X4.3505Y4.1711
G01 X4.3832Y4.1164
G01 X4.4105Y4.0587
G01 X4.4320Y3.9987
G01 X4.4475Y3.9368
G01 X4.4569Y3.8737
G01 X4.4600Y3.8100
G00 X4.4600Y3.8100
G01 Z-0.7500
G01 X4.4569Y3.7463
G01 X4.4475Y3.6832
G01 X4.4320Y3.6213
G01 X4.4105Y3.5613
G01 X4.3832Y3.5036
G01 X4.3505Y3.4489
G01 X4.3125Y3.3976
G01 X4.2696Y3.3504
G01 X4.2224Y3.3075
G01 X4.1711Y3.2695
G01 X4.1164Y3.2368
G01 X4.0587Y3.2095
G01 X3.9987Y3.1880
G01 X3.9368Y3.1725
G01 X3.8737Y3.1631
G01 X3.8100Y3.1600
G01 X3.7463Y3.1631
G01 X3.6832Y3.1725
G01 X3.6213Y3.1880
G01 X3.5613Y3.2095
G01 X3.5036Y3.2368
G01 X3.4489Y3.2695
G01 X3.3976Y3.3075
G01 X3.3504Y3.3504
G01 X3.3075Y3.3976
G01 X3.2695Y3.4489
G01 X3.2368Y3.5036
G01 X3.2095Y3.5613
G01 X3.1880Y3.6213
G01 X3.1725Y3.6832
G01 X3.1631Y3.7463
G01 X3.1600Y3.8100
G01 X3.1631Y3.8737
G01 X3.1725Y3.9368
G01 X3.1880Y3.9987
G01 X3.2095Y4.0587
G01 X3.2368Y4.1164
G01 X3.2695Y4.1711
G01 X3.3075Y4.2224
G01 X3.3504Y4.2696
G01 X3.3976Y4.3125
G01 X3.4489Y4.3505
G01 X3.5036Y4.3832
G01 X3.5613Y4.4105
G01 X3.6213Y4.4320
G01 X3.6832Y4.4475
G01 X3.7463Y4.4569
G01 X3.8100Y4.4600
G01 X3.8737Y4.4569
G01 X3.9368Y4.4475
G01 X3.9987Y4.4320
G01 X4.0587Y4.4105
G01 X4.1164Y4.3832
G01 X4.1711Y4.3505
G01 X4.2224Y4.3125
G01 X4.2696Y4.2696
G01 X4.3125Y4.2224
G01 X4.3505Y4.1711
G01 X4.3832Y4.1164
G01 X4.4105Y4.0587
G01 X4.4320Y3.9987
G01 X4.4475Y3.9368
G01 X4.4569Y3.8737
G01 X4.4600Y3.8100
G00 X4.4600Y3.8100
G01 Z-1.0000
G01 X4.4569Y3.7463
G01 X4.4475Y3.6832
G01 X4.4320Y3.6213
G01 X4.4105Y3.5613
G01 X4.3832Y3.5036
G01 X4.3505Y3.4489
G01 X4.3125Y3.3976
G01 X4.2696Y3.3504
G01 X4.2224Y3.3075
G01 X4.1711Y3.2695
G01 X4.1164Y3.2368
G01 X4.0587Y3.2095
G01 X3.9987Y3.1880
G01 X3.9368Y3.1725
G01 X3.8737Y3.1631
G01 X3.8100Y3.1600
G01 X3.7463Y3.1631
G01 X3.6832Y3.1725
G01 X3.6213Y3.1880
G01 X3.5613Y3.2095
G01 X3.5036Y3.2368
G01 X3.4489Y3.2695
G01 X3.3976Y3.3075
G01 X3.3504Y3.3504
G01 X3.3075Y3.3976
G01 X3.2695Y3.4489
G01 X3.2368Y3.5036
G01 X3.2095Y3.5613
G01 X3.1880Y3.6213
G01 X3.1725Y3.6832
G01 X3.1631Y3.7463
G01 X3.1600Y3.8100
G01 X3.1631Y3.8737
G01 X3.1725Y3.9368
G01 X3.1880Y3.9987
G01 X3.2095Y4.0587
G01 X3.2368Y4.1164
G01 X3.2695Y4.1711
G01 X3.3075Y4.2224
G01 X3.3504Y4.2696
G01 X3.3976Y4.3125
G01 X3.4489Y4.3505
G01 X3.5036Y4.3832
G01 X3.5613Y4.4105
G01 X3.6213Y4.4320
G01 X3.6832Y4.4475
G01 X3.7463Y4.4569
G01 X3.8100Y4.4600
G01 X3.8737Y4.4569
G01 X3.9368Y4.4475
G01 X3.9987Y4.4320
G01 X4.0587Y4.4105
G01 X4.1164Y4.3832
G01 X4.1711Y4.3505
G01 X4.2224Y4.3125
G01 X4.2696Y4.2696
G01 X4.3125Y4.2224
G01 X4.3505Y4.1711
G01 X4.3832Y4.1164
G01 X4.4105Y4.0587
G01 X4.4320Y3.9987
G01 X4.4475Y3.9368
G01 X4.4569Y3.8737
G01 X4.4600Y3.8100
G00 X4.4600Y3.8100
G01 Z-1.2500
G01 X4.4569Y3.7463
G01 X4.4475Y3.6832
G01 X4.4320Y3.6213
G01 X4.4105Y3.5613
G01 X4.3832Y3.5036
G01 X4.3505Y3.4489
G01 X4.3125Y3.3976
G01 X4.2696Y3.3504
G01 X4.2224Y3.3075
G01 X4.1711Y3.2695
G01 X4.1164Y3.2368
G01 X4.0587Y3.2095
G01 X3.9987Y3.1880
G01 X3.9368Y3.1725
G01 X3.8737Y3.1631
G01 X3.8100Y3.1600
G01 X3.7463Y3.1631
G01 X3.6832Y3.1725
G01 X3.6213Y3.1880
G01 X3.5613Y3.2095
G01 X3.5036Y3.2368
G01 X3.4489Y3.2695
G01 X3.3976Y3.3075
G01 X3.3504Y3.3504
G01 X3.3075Y3.3976
G01 X3.2695Y3.4489
G01 X3.2368Y3.5036
G01 X3.2095Y3.5613
G01 X3.1880Y3.6213
G01 X3.1725Y3.6832
G01 X3.1631Y3.7463
G01 X3.1600Y3.8100
G01 X3.1631Y3.8737
G01 X3.1725Y3.9368
G01 X3.1880Y3.9987
G01 X3.2095Y4.0587
G01 X3.2368Y4.1164
G01 X3.2695Y4.1711
G01 X3.3075Y4.2224
G01 X3.3504Y4.2696
G01 X3.3976Y4.3125
G01 X3.4489Y4.3505
G01 X3.5036Y4.3832
G01 X3.5613Y4.4105
G01 X3.6213Y4.4320
G01 X3.6832Y4.4475
G01 X3.7463Y4.4569
G01 X3.8100Y4.4600
G01 X3.8737Y4.4569
G01 X3.9368Y4.4475
G01 X3.9987Y4.4320
G01 X4.0587Y4.4105
G01 X4.1164Y4.3832
G01 X4.1711Y4.3505
G01 X4.2224Y4.3125
G01 X4.2696Y4.2696
G01 X4.3125Y4.2224
G01 X4.3505Y4.1711
G01 X4.3832Y4.1164
G01 X4.4105Y4.0587
G01 X4.4320Y3.9987
G01 X4.4475Y3.9368
G01 X4.4569Y3.8737
G01 X4.4600Y3.8100
G00 X4.4600Y3.8100
G01 Z-1.5000
G01 X4.4569Y3.7463
G01 X4.4475Y3.6832
G01 X4.4320Y3.6213
G01 X4.4105Y3.5613
G01 X4.3832Y3.5036
G01 X4.3505Y3.4489
G01 X4.3125Y3.3976
G01 X4.2696Y3.3504
G01 X4.2224Y3.3075
G01 X4.1711Y3.2695
G01 X4.1164Y3.2368
G01 X4.0587Y3.2095
G01 X3.9987Y3.1880
G01 X3.9368Y3.1725
G01 X3.8737Y3.1631
G01 X3.8100Y3.1600
G01 X3.7463Y3.1631
G01 X3.6832Y3.1725
G01 X3.6213Y3.1880
G01 X3.5613Y3.2095
G01 X3.5036Y3.2368
G01 X3.4489Y3.2695
G01 X3.3976Y3.3075
G01 X3.3504Y3.3504
G01 X3.3075Y3.3976
G01 X3.2695Y3.4489
G01 X3.2368Y3.5036
G01 X3.2095Y3.5613
G01 X3.1880Y3.6213
G01 X3.1725Y3.6832
G01 X3.1631Y3.7463
G01 X3.1600Y3.8100
G01 X3.1631Y3.8737
G01 X3.1725Y3.9368
G01 X3.1880Y3.9987
G01 X3.2095Y4.0587
G01 X3.2368Y4.1164
G01 X3.2695Y4.1711
G01 X3.3075Y4.2224
G01 X3.3504Y4.2696
G01 X3.3976Y4.3125
G01 X3.4489Y4.3505
G01 X3.5036Y4.3832
G01 X3.5613Y4.4105
G01 X3.6213Y4.4320
G01 X3.6832Y4.4475
G01 X3.7463Y4.4569
G01 X3.8100Y4.4600
G01 X3.8737Y4.4569
G01 X3.9368Y4.4475
G01 X3.9987Y4.4320
G01 X4.0587Y4.4105
G01 X4.1164Y4.3832
G01 X4.1711Y4.3505
G01 X4.2224Y4.3125
G01 X4.2696Y4.2696
G01 X4.3125Y4.2224
G01 X4.3505Y4.1711
G01 X4.3832Y4.1164
G01 X4.4105Y4.0587
G01 X4.4320Y3.9987
G01 X4.4475Y3.9368
G01 X4.4569Y3.8737
G01 X4.4600Y3.8100
G00 X4.4600Y3.8100
G01 Z-1.7500
G01 X4.4569Y3.7463
G01 X4.4475Y3.6832
G01 X4.4320Y3.6213
G01 X4.4105Y3.5613
G01 X4.3832Y3.5036
G01 X4.3505Y3.4489
G01 X4.3125Y3.3976
G01 X4.2696Y3.3504
G01 X4.2224Y3.3075
G01 X4.1711Y3.2695
G01 X4.1164Y3.2368
G01 X4.0587Y3.2095
G01 X3.9987Y3.1880
G01 X3.9368Y3.1725
G01 X3.8737Y3.1631
G01 X3.8100Y3.1600
G01 X3.7463Y3.1631
G01 X3.6832Y3.1725
G01 X3.6213Y3.1880
G01 X3.5613Y3.2095
G01 X3.5036Y3.2368
G01 X3.4489Y3.2695
G01 X3.3976Y3.3075
G01 X3.3504Y3.3504
G01 X3.3075Y3.3976
G01 X3.2695Y3.4489
G01 X3.2368Y3.5036
G01 X3.2095Y3.5613
G01 X3.1880Y3.6213
G01 X3.1725Y3.6832
G01 X3.1631Y3.7463
G01 X3.1600Y3.8100
G01 X3.1631Y3.8737
G01 X3.1725Y3.9368
G01 X3.1880Y3.9987
G01 X3.2095Y4.0587
G01 X3.2368Y4.1164
G01 X3.2695Y4.1711
G01 X3.3075Y4.2224
G01 X3.3504Y4.2696
G01 X3.3976Y4.3125
G01 X3.4489Y4.3505
G01 X3.5036Y4.3832
G01 X3.5613Y4.4105
G01 X3.6213Y4.4320
G01 X3.6832Y4.4475
G01 X3.7463Y4.4569
G01 X3.8100Y4.4600
G01 X3.8737Y4.4569
G01 X3.9368Y4.4475
G01 X3.9987Y4.4320
G01 X4.0587Y4.4105
G01 X4.1164Y4.3832
G01 X4.1711Y4.3505
G01 X4.2224Y4.3125
G01 X4.2696Y4.2696
G01 X4.3125Y4.2224
G01 X4.3505Y4.1711
G01 X4.3832Y4.1164
G01 X4.4105Y4.0587
G01 X4.4320Y3.9987
G01 X4.4475Y3.9368
G01 X4.4569Y3.8737
G01 X4.4600Y3.8100
G00 X4.4600Y3.8100
G01 Z-2.0000
G01 X4.4569Y3.7463
G01 X4.4475Y3.6832
G01 X4.4320Y3.6213
G01 X4.4105Y3.5613
G01 X4.3832Y3.5036
G01 X4.3505Y3.4489
G01 X4.3125Y3.3976
G01 X4.2696Y3.3504
G01 X4.2224Y3.3075
G01 X4.1711Y3.2695
G01 X4.1164Y3.2368
G01 X4.0587Y3.2095
G01 X3.9987Y3.1880
G01 X3.9368Y3.1725
G01 X3.8737Y3.1631
G01 X3.8100Y3.1600
G01 X3.7463Y3.1631
G01 X3.6832Y3.1725
G01 X3.6213Y3.1880
G01 X3.5613Y3.2095
G01 X3.5036Y3.2368
G01 X3.4489Y3.2695
G01 X3.3976Y3.3075
G01 X3.3504Y3.3504
G01 X3.3075Y3.3976
G01 X3.2695Y3.4489
G01 X3.2368Y3.5036
G01 X3.2095Y3.5613
G01 X3.1880Y3.6213
G01 X3.1725Y3.6832
G01 X3.1631Y3.7463
G01 X3.1600Y3.8100
G01 X3.1631Y3.8737
G01 X3.1725Y3.9368
G01 X3.1880Y3.9987
G01 X3.2095Y4.0587
G01 X3.2368Y4.1164
G01 X3.2695Y4.1711
G01 X3.3075Y4.2224
G01 X3.3504Y4.2696
G01 X3.3976Y4.3125
G01 X3.4489Y4.3505
G01 X3.5036Y4.3832
G01 X3.5613Y4.4105
G01 X3.6213Y4.4320
G01 X3.6832Y4.4475
G01 X3.7463Y4.4569
G01 X3.8100Y4.4600
G01 X3.8737Y4.4569
G01 X3.9368Y4.4475
G01 X3.9987Y4.4320
G01 X4.0587Y4.4105
G01 X4.1164Y4.3832
G01 X4.1711Y4.3505
G01 X4.2224Y4.3125
G01 X4.2696Y4.2696
G01 X4.3125Y4.2224
G01 X4.3505Y4.1711
G01 X4.3832Y4.1164
G01 X4.4105Y4.0587
G01 X4.4320Y3.9987
G01 X4.4475Y3.9368
G01 X4.4569Y3.8737
G01 X4.4600Y3.8100
G00 Z3.0000
G00 X4.4600Y80.0100
G01 Z-0.2500
G01 X4.4569Y79.9463
G01 X4.4475Y79.8832
G01 X4.4320Y79.8213
G01 X4.4105Y79.7613
G01 X4.3832Y79.7036
G01 X4.3505Y79.6489
G01 X4.3125Y79.5976
G01 X4.2696Y79.5504
G01 X4.2224Y79.5075
G01 X4.1711Y79.4695
G01 X4.1164Y79.4368
G01 X4.0587Y79.4095
G01 X3.9987Y79.3880
G01 X3.9368Y79.3725
G01 X3.8737Y79.3631
G01 X3.8100Y79.3600
G01 X3.7463Y79.3631
G01 X3.6832Y79.3725
G01 X3.6213Y79.3880
G01 X3.5613Y79.4095
G01 X3.5036Y79.4368
G01 X3.4489Y79.4695
G01 X3.3976Y79.5075
G01 X3.3504Y79.5504
G01 X3.3075Y79.5976
G01 X3.2695Y79.6489
G01 X3.2368Y79.7036
G01 X3.2095Y79.7613
G01 X3.1880Y79.8213
G01 X3.1725Y79.8832
G01 X3.1631Y79.9463
G01 X3.1600Y80.0100
G01 X3.1631Y80.0737
G01 X3.1725Y80.1368
G01 X3.1880Y80.1987
G01 X3.2095Y80.2587
G01 X3.2368Y80.3164
G01 X3.2695Y80.3711
G01 X3.3075Y80.4224
G01 X3.3504Y80.4696
G01 X3.3976Y80.5125
G01 X3.4489Y80.5505
G01 X3.5036Y80.5832
G01 X3.5613Y80.6105
G01 X3.6213Y80.6320
G01 X3.6832Y80.6475
G01 X3.7463Y80.6569
G01 X3.8100Y80.6600
G01 X3.8737Y80.6569
G01 X3.9368Y80.6475
G01 X3.9987Y80.6320
G01 X4.0587Y80.6105
G01 X4.1164Y80.5832
G01 X4.1711Y80.5505
G01 X4.2224Y80.5125
G01 X4.2696Y80.4696
G01 X4.3125Y80.4224
G01 X4.3505Y80.3711
G01 X4.3832Y80.3164
G01 X4.4105Y80.2587
G01 X4.4320Y80.1987
G01 X4.4475Y80.1368
G01 X4.4569Y80.0737
G01 X4.4600Y80.0100
G00 X4.4600Y80.0100
G01 Z-0.5000
G01 X4.4569Y79.9463
G01 X4.4475Y79.8832
G01 X4.4320Y79.8213
G01 X4.4105Y79.7613
G01 X4.3832Y79.7036
G01 X4.3505Y79.6489
G01 X4.3125Y79.5976
G01 X4.2696Y79.5504
G01 X4.2224Y79.5075
G01 X4.1711Y79.4695
G01 X4.1164Y79.4368
G01 X4.0587Y79.4095
G01 X3.9987Y79.3880
G01 X3.9368Y79.3725
G01 X3.8737Y79.3631
G01 X3.8100Y79.3600
G01 X3.7463Y79.3631
G01 X3.6832Y79.3725
G01 X3.6213Y79.3880
G01 X3.5613Y79.4095
G01 X3.5036Y79.4368
G01 X3.4489Y79.4695
G01 X3.3976Y79.5075
G01 X3.3504Y79.5504
G01 X3.3075Y79.5976
G01 X3.2695Y79.6489
G01 X3.2368Y79.7036
G01 X3.2095Y79.7613
G01 X3.1880Y79.8213
G01 X3.1725Y79.8832
G01 X3.1631Y79.9463
G01 X3.1600Y80.0100
G01 X3.1631Y80.0737
G01 X3.1725Y80.1368
G01 X3.1880Y80.1987
G01 X3.2095Y80.2587
G01 X3.2368Y80.3164
G01 X3.2695Y80.3711
G01 X3.3075Y80.4224
G01 X3.3504Y80.4696
G01 X3.3976Y80.5125
G01 X3.4489Y80.5505
G01 X3.5036Y80.5832
G01 X3.5613Y80.6105
G01 X3.6213Y80.6320
G01 X3.6832Y80.6475
G01 X3.7463Y80.6569
G01 X3.8100Y80.6600
G01 X3.8737Y80.6569
G01 X3.9368Y80.6475
G01 X3.9987Y80.6320
G01 X4.0587Y80.6105
G01 X4.1164Y80.5832
G01 X4.1711Y80.5505
G01 X4.2224Y80.5125
G01 X4.2696Y80.4696
G01 X4.3125Y80.4224
G01 X4.3505Y80.3711
G01 X4.3832Y80.3164
G01 X4.4105Y80.2587
G01 X4.4320Y80.1987
G01 X4.4475Y80.1368
G01 X4.4569Y80.0737
G01 X4.4600Y80.0100
G00 X4.4600Y80.0100
G01 Z-0.7500
G01 X4.4569Y79.9463
G01 X4.4475Y79.8832
G01 X4.4320Y79.8213
G01 X4.4105Y79.7613
G01 X4.3832Y79.7036
G01 X4.3505Y79.6489
G01 X4.3125Y79.5976
G01 X4.2696Y79.5504
G01 X4.2224Y79.5075
G01 X4.1711Y79.4695
G01 X4.1164Y79.4368
G01 X4.0587Y79.4095
G01 X3.9987Y79.3880
G01 X3.9368Y79.3725
G01 X3.8737Y79.3631
G01 X3.8100Y79.3600
G01 X3.7463Y79.3631
G01 X3.6832Y79.3725
G01 X3.6213Y79.3880
G01 X3.5613Y79.4095
G01 X3.5036Y79.4368
G01 X3.4489Y79.4695
G01 X3.3976Y79.5075
G01 X3.3504Y79.5504
G01 X3.3075Y79.5976
G01 X3.2695Y79.6489
G01 X3.2368Y79.7036
G01 X3.2095Y79.7613
G01 X3.1880Y79.8213
G01 X3.1725Y79.8832
G01 X3.1631Y79.9463
G01 X3.1600Y80.0100
G01 X3.1631Y80.0737
G01 X3.1725Y80.1368
G01 X3.1880Y80.1987
G01 X3.2095Y80.2587
G01 X3.2368Y80.3164
G01 X3.2695Y80.3711
G01 X3.3075Y80.4224
G01 X3.3504Y80.4696
G01 X3.3976Y80.5125
G01 X3.4489Y80.5505
G01 X3.5036Y80.5832
G01 X3.5613Y80.6105
G01 X3.6213Y80.6320
G01 X3.6832Y80.6475
G01 X3.7463Y80.6569
G01 X3.8100Y80.6600
G01 X3.8737Y80.6569
G01 X3.9368Y80.6475
G01 X3.9987Y80.6320
G01 X4.0587Y80.6105
G01 X4.1164Y80.5832
G01 X4.1711Y80.5505
G01 X4.2224Y80.5125
G01 X4.2696Y80.4696
G01 X4.3125Y80.4224
G01 X4.3505Y80.3711
G01 X4.3832Y80.3164
G01 X4.4105Y80.2587
G01 X4.4320Y80.1987
G01 X4.4475Y80.1368
G01 X4.4569Y80.0737
G01 X4.4600Y80.0100
G00 X4.4600Y80.0100
G01 Z-1.0000
G01 X4.4569Y79.9463
G01 X4.4475Y79.8832
G01 X4.4320Y79.8213
G01 X4.4105Y79.7613
G01 X4.3832Y79.7036
G01 X4.3505Y79.6489
G01 X4.3125Y79.5976
G01 X4.2696Y79.5504
G01 X4.2224Y79.5075
G01 X4.1711Y79.4695
G01 X4.1164Y79.4368
G01 X4.0587Y79.4095
G01 X3.9987Y79.3880
G01 X3.9368Y79.3725
G01 X3.8737Y79.3631
G01 X3.8100Y79.3600
G01 X3.7463Y79.3631
G01 X3.6832Y79.3725
G01 X3.6213Y79.3880
G01 X3.5613Y79.4095
G01 X3.5036Y79.4368
G01 X3.4489Y79.4695
G01 X3.3976Y79.5075
G01 X3.3504Y79.5504
G01 X3.3075Y79.5976
G01 X3.2695Y79.6489
G01 X3.2368Y79.7036
G01 X3.2095Y79.7613
G01 X3.1880Y79.8213
G01 X3.1725Y79.8832
G01 X3.1631Y79.9463
G01 X3.1600Y80.0100
G01 X3.1631Y80.0737
G01 X3.1725Y80.1368
G01 X3.1880Y80.1987
G01 X3.2095Y80.2587
G01 X3.2368Y80.3164
G01 X3.2695Y80.3711
G01 X3.3075Y80.4224
G01 X3.3504Y80.4696
G01 X3.3976Y80.5125
G01 X3.4489Y80.5505
G01 X3.5036Y80.5832
G01 X3.5613Y80.6105
G01 X3.6213Y80.6320
G01 X3.6832Y80.6475
G01 X3.7463Y80.6569
G01 X3.8100Y80.6600
G01 X3.8737Y80.6569
G01 X3.9368Y80.6475
G01 X3.9987Y80.6320
G01 X4.0587Y80.6105
G01 X4.1164Y80.5832
G01 X4.1711Y80.5505
G01 X4.2224Y80.5125
G01 X4.2696Y80.4696
G01 X4.3125Y80.4224
G01 X4.3505Y80.3711
G01 X4.3832Y80.3164
G01 X4.4105Y80.2587
G01 X4.4320Y80.1987
G01 X4.4475Y80.1368
G01 X4.4569Y80.0737
G01 X4.4600Y80.0100
G00 X4.4600Y80.0100
G01 Z-1.2500
G01 X4.4569Y79.9463
G01 X4.4475Y79.8832
G01 X4.4320Y79.8213
G01 X4.4105Y79.7613
G01 X4.3832Y79.7036
G01 X4.3505Y79.6489
G01 X4.3125Y79.5976
G01 X4.2696Y79.5504
G01 X4.2224Y79.5075
G01 X4.1711Y79.4695
G01 X4.1164Y79.4368
G01 X4.0587Y79.4095
G01 X3.9987Y79.3880
G01 X3.9368Y79.3725
G01 X3.8737Y79.3631
G01 X3.8100Y79.3600
G01 X3.7463Y79.3631
G01 X3.6832Y79.3725
G01 X3.6213Y79.3880
G01 X3.5613Y79.4095
G01 X3.5036Y79.4368
G01 X3.4489Y79.4695
G01 X3.3976Y79.5075
G01 X3.3504Y79.5504
G01 X3.3075Y79.5976
G01 X3.2695Y79.6489
G01 X3.2368Y79.7036
G01 X3.2095Y79.7613
G01 X3.1880Y79.8213
G01 X3.1725Y79.8832
G01 X3.1631Y79.9463
G01 X3.1600Y80.0100
G01 X3.1631Y80.0737
G01 X3.1725Y80.1368
G01 X3.1880Y80.1987
G01 X3.2095Y80.2587
G01 X3.2368Y80.3164
G01 X3.2695Y80.3711
G01 X3.3075Y80.4224
G01 X3.3504Y80.4696
G01 X3.3976Y80.5125
G01 X3.4489Y80.5505
G01 X3.5036Y80.5832
G01 X3.5613Y80.6105
G01 X3.6213Y80.6320
G01 X3.6832Y80.6475
G01 X3.7463Y80.6569
G01 X3.8100Y80.6600
G01 X3.8737Y80.6569
G01 X3.9368Y80.6475
G01 X3.9987Y80.6320
G01 X4.0587Y80.6105
G01 X4.1164Y80.5832
G01 X4.1711Y80.5505
G01 X4.2224Y80.5125
G01 X4.2696Y80.4696
G01 X4.3125Y80.4224
G01 X4.3505Y80.3711
G01 X4.3832Y80.3164
G01 X4.4105Y80.2587
G01 X4.4320Y80.1987
G01 X4.4475Y80.1368
G01 X4.4569Y80.0737
G01 X4.4600Y80.0100
G00 X4.4600Y80.0100
G01 Z-1.5000
G01 X4.4569Y79.9463
G01 X4.4475Y79.8832
G01 X4.4320Y79.8213
G01 X4.4105Y79.7613
G01 X4.3832Y79.7036
G01 X4.3505Y79.6489
G01 X4.3125Y79.5976
G01 X4.2696Y79.5504
G01 X4.2224Y79.5075
G01 X4.1711Y79.4695
G01 X4.1164Y79.4368
G01 X4.0587Y79.4095
G01 X3.9987Y79.3880
G01 X3.9368Y79.3725
G01 X3.8737Y79.3631
G01 X3.8100Y79.3600
G01 X3.7463Y79.3631
G01 X3.6832Y79.3725
G01 X3.6213Y79.3880
G01 X3.5613Y79.4095
G01 X3.5036Y79.4368
G01 X3.4489Y79.4695
G01 X3.3976Y79.5075
G01 X3.3504Y79.5504
G01 X3.3075Y79.5976
G01 X3.2695Y79.6489
G01 X3.2368Y79.7036
G01 X3.2095Y79.7613
G01 X3.1880Y79.8213
G01 X3.1725Y79.8832
G01 X3.1631Y79.9463
G01 X3.1600Y80.0100
G01 X3.1631Y80.0737
G01 X3.1725Y80.1368
G01 X3.1880Y80.1987
G01 X3.2095Y80.2587
G01 X3.2368Y80.3164
G01 X3.2695Y80.3711
G01 X3.3075Y80.4224
G01 X3.3504Y80.4696
G01 X3.3976Y80.5125
G01 X3.4489Y80.5505
G01 X3.5036Y80.5832
G01 X3.5613Y80.6105
G01 X3.6213Y80.6320
G01 X3.6832Y80.6475
G01 X3.7463Y80.6569
G01 X3.8100Y80.6600
G01 X3.8737Y80.6569
G01 X3.9368Y80.6475
G01 X3.9987Y80.6320
G01 X4.0587Y80.6105
G01 X4.1164Y80.5832
G01 X4.1711Y80.5505
G01 X4.2224Y80.5125
G01 X4.2696Y80.4696
G01 X4.3125Y80.4224
G01 X4.3505Y80.3711
G01 X4.3832Y80.3164
G01 X4.4105Y80.2587
G01 X4.4320Y80.1987
G01 X4.4475Y80.1368
G01 X4.4569Y80.0737
G01 X4.4600Y80.0100
G00 X4.4600Y80.0100
G01 Z-1.7500
G01 X4.4569Y79.9463
G01 X4.4475Y79.8832
G01 X4.4320Y79.8213
G01 X4.4105Y79.7613
G01 X4.3832Y79.7036
G01 X4.3505Y79.6489
G01 X4.3125Y79.5976
G01 X4.2696Y79.5504
G01 X4.2224Y79.5075
G01 X4.1711Y79.4695
G01 X4.1164Y79.4368
G01 X4.0587Y79.4095
G01 X3.9987Y79.3880
G01 X3.9368Y79.3725
G01 X3.8737Y79.3631
G01 X3.8100Y79.3600
G01 X3.7463Y79.3631
G01 X3.6832Y79.3725
G01 X3.6213Y79.3880
G01 X3.5613Y79.4095
G01 X3.5036Y79.4368
G01 X3.4489Y79.4695
G01 X3.3976Y79.5075
G01 X3.3504Y79.5504
G01 X3.3075Y79.5976
G01 X3.2695Y79.6489
G01 X3.2368Y79.7036
G01 X3.2095Y79.7613
G01 X3.1880Y79.8213
G01 X3.1725Y79.8832
G01 X3.1631Y79.9463
G01 X3.1600Y80.0100
G01 X3.1631Y80.0737
G01 X3.1725Y80.1368
G01 X3.1880Y80.1987
G01 X3.2095Y80.2587
G01 X3.2368Y80.3164
G01 X3.2695Y80.3711
G01 X3.3075Y80.4224
G01 X3.3504Y80.4696
G01 X3.3976Y80.5125
G01 X3.4489Y80.5505
G01 X3.5036Y80.5832
G01 X3.5613Y80.6105
G01 X3.6213Y80.6320
G01 X3.6832Y80.6475
G01 X3.7463Y80.6569
G01 X3.8100Y80.6600
G01 X3.8737Y80.6569
G01 X3.9368Y80.6475
G01 X3.9987Y80.6320
G01 X4.0587Y80.6105
G01 X4.1164Y80.5832
G01 X4.1711Y80.5505
G01 X4.2224Y80.5125
G01 X4.2696Y80.4696
G01 X4.3125Y80.4224
G01 X4.3505Y80.3711
G01 X4.3832Y80.3164
G01 X4.4105Y80.2587
G01 X4.4320Y80.1987
G01 X4.4475Y80.1368
G01 X4.4569Y80.0737
G01 X4.4600Y80.0100
G00 X4.4600Y80.0100
G01 Z-2.0000
G01 X4.4569Y79.9463
G01 X4.4475Y79.8832
G01 X4.4320Y79.8213
G01 X4.4105Y79.7613
G01 X4.3832Y79.7036
G01 X4.3505Y79.6489
G01 X4.3125Y79.5976
G01 X4.2696Y79.5504
G01 X4.2224Y79.5075
G01 X4.1711Y79.4695
G01 X4.1164Y79.4368
G01 X4.0587Y79.4095
G01 X3.9987Y79.3880
G01 X3.9368Y79.3725
G01 X3.8737Y79.3631
G01 X3.8100Y79.3600
G01 X3.7463Y79.3631
G01 X3.6832Y79.3725
G01 X3.6213Y79.3880
G01 X3.5613Y79.4095
G01 X3.5036Y79.4368
G01 X3.4489Y79.4695
G01 X3.3976Y79.5075
G01 X3.3504Y79.5504
G01 X3.3075Y79.5976
G01 X3.2695Y79.6489
G01 X3.2368Y79.7036
G01 X3.2095Y79.7613
G01 X3.1880Y79.8213
G01 X3.1725Y79.8832
G01 X3.1631Y79.9463
G01 X3.1600Y80.0100
G01 X3.1631Y80.0737
G01 X3.1725Y80.1368
G01 X3.1880Y80.1987
G01 X3.2095Y80.2587
G01 X3.2368Y80.3164
G01 X3.2695Y80.3711
G01 X3.3075Y80.4224
G01 X3.3504Y80.4696
G01 X3.3976Y80.5125
G01 X3.4489Y80.5505
G01 X3.5036Y80.5832
G01 X3.5613Y80.6105
G01 X3.6213Y80.6320
G01 X3.6832Y80.6475
G01 X3.7463Y80.6569
G01 X3.8100Y80.6600
G01 X3.8737Y80.6569
G01 X3.9368Y80.6475
G01 X3.9987Y80.6320
G01 X4.0587Y80.6105
G01 X4.1164Y80.5832
G01 X4.1711Y80.5505
G01 X4.2224Y80.5125
G01 X4.2696Y80.4696
G01 X4.3125Y80.4224
G01 X4.3505Y80.3711
G01 X4.3832Y80.3164
G01 X4.4105Y80.2587
G01 X4.4320Y80.1987
G01 X4.4475Y80.1368
G01 X4.4569Y80.0737
G01 X4.4600Y80.0100
G00 Z3.0000
G00 X97.1700Y87.6300
G01 Z-0.2500
G01 X97.1669Y87.5663
G01 X97.1575Y87.5032
G01 X97.1420Y87.4413
G01 X97.1205Y87.3813
G01 X97.0932Y87.3236
G01 X97.0605Y87.2689
G01 X97.0225Y87.2176
G01 X96.9796Y87.1704
G01 X96.9324Y87.1275
G01 X96.8811Y87.0895
G01 X96.8264Y87.0568
G01 X96.7687Y87.0295
G01 X96.7087Y87.0080
G01 X96.6468Y86.9925
G01 X96.5837Y86.9831
G01 X96.5200Y86.9800
G01 X96.4563Y86.9831
G01 X96.3932Y86.9925
G01 X96.3313Y87.0080
G01 X96.2713Y87.0295
G01 X96.2136Y87.0568
G01 X96.1589Y87.0895
G01 X96.1076Y87.1275
G01 X96.0604Y87.1704
G01 X96.0175Y87.2176
G01 X95.9795Y87.2689
G01 X95.9468Y87.3236
G01 X95.9195Y87.3813
G01 X95.8980Y87.4413
G01 X95.8825Y87.5032
G01 X95.8731Y87.5663
G01 X95.8700Y87.6300
G01 X95.8731Y87.6937
G01 X95.8825Y87.7568
G01 X95.8980Y87.8187
G01 X95.9195Y87.8787
G01 X95.9468Y87.9364
G01 X95.9795Y87.9911
G01 X96.0175Y88.0424
G01 X96.0604Y88.0896
G01 X96.1076Y88.1325
G01 X96.1589Y88.1705
G01 X96.2136Y88.2032
G01 X96.2713Y88.2305
G01 X96.3313Y88.2520
G01 X96.3932Y88.2675
G01 X96.4563Y88.2769
G01 X96.5200Y88.2800
G01 X96.5837Y88.2769
G01 X96.6468Y88.2675
G01 X96.7087Y88.2520
G01 X96.7687Y88.2305
G01 X96.8264Y88.2032
G01 X96.8811Y88.1705
G01 X96.9324Y88.1325
G01 X96.9796Y88.0896
G01 X97.0225Y88.0424
G01 X97.0605Y87.9911
G01 X97.0932Y87.9364
G01 X97.1205Y87.8787
G01 X97.1420Y87.8187
G01 X97.1575Y87.7568
G01 X97.1669Y87.6937
G01 X97.1700Y87.6300
G00 X97.1700Y87.6300
G01 Z-0.5000
G01 X97.1669Y87.5663
G01 X97.1575Y87.5032
G01 X97.1420Y87.4413
G01 X97.1205Y87.3813
G01 X97.0932Y87.3236
G01 X97.0605Y87.2689
G01 X97.0225Y87.2176
G01 X96.9796Y87.1704
G01 X96.9324Y87.1275
G01 X96.8811Y87.0895
G01 X96.8264Y87.0568
G01 X96.7687Y87.0295
G01 X96.7087Y87.0080
G01 X96.6468Y86.9925
G01 X96.5837Y86.9831
G01 X96.5200Y86.9800
G01 X96.4563Y86.9831
G01 X96.3932Y86.9925
G01 X96.3313Y87.0080
G01 X96.2713Y87.0295
G01 X96.2136Y87.0568
G01 X96.1589Y87.0895
G01 X96.1076Y87.1275
G01 X96.0604Y87.1704
G01 X96.0175Y87.2176
G01 X95.9795Y87.2689
G01 X95.9468Y87.3236
G01 X95.9195Y87.3813
G01 X95.8980Y87.4413
G01 X95.8825Y87.5032
G01 X95.8731Y87.5663
G01 X95.8700Y87.6300
G01 X95.8731Y87.6937
G01 X95.8825Y87.7568
G01 X95.8980Y87.8187
G01 X95.9195Y87.8787
G01 X95.9468Y87.9364
G01 X95.9795Y87.9911
G01 X96.0175Y88.0424
G01 X96.0604Y88.0896
G01 X96.1076Y88.1325
G01 X96.1589Y88.1705
G01 X96.2136Y88.2032
G01 X96.2713Y88.2305
G01 X96.3313Y88.2520
G01 X96.3932Y88.2675
G01 X96.4563Y88.2769
G01 X96.5200Y88.2800
G01 X96.5837Y88.2769
G01 X96.6468Y88.2675
G01 X96.7087Y88.2520
G01 X96.7687Y88.2305
G01 X96.8264Y88.2032
G01 X96.8811Y88.1705
G01 X96.9324Y88.1325
G01 X96.9796Y88.0896
G01 X97.0225Y88.0424
G01 X97.0605Y87.9911
G01 X97.0932Y87.9364
G01 X97.1205Y87.8787
G01 X97.1420Y87.8187
G01 X97.1575Y87.7568
G01 X97.1669Y87.6937
G01 X97.1700Y87.6300
G00 X97.1700Y87.6300
G01 Z-0.7500
G01 X97.1669Y87.5663
G01 X97.1575Y87.5032
G01 X97.1420Y87.4413
G01 X97.1205Y87.3813
G01 X97.0932Y87.3236
G01 X97.0605Y87.2689
G01 X97.0225Y87.2176
G01 X96.9796Y87.1704
G01 X96.9324Y87.1275
G01 X96.8811Y87.0895
G01 X96.8264Y87.0568
G01 X96.7687Y87.0295
G01 X96.7087Y87.0080
G01 X96.6468Y86.9925
G01 X96.5837Y86.9831
G01 X96.5200Y86.9800
G01 X96.4563Y86.9831
G01 X96.3932Y86.9925
G01 X96.3313Y87.0080
G01 X96.2713Y87.0295
G01 X96.2136Y87.0568
G01 X96.1589Y87.0895
G01 X96.1076Y87.1275
G01 X96.0604Y87.1704
G01 X96.0175Y87.2176
G01 X95.9795Y87.2689
G01 X95.9468Y87.3236
G01 X95.9195Y87.3813
G01 X95.8980Y87.4413
G01 X95.8825Y87.5032
G01 X95.8731Y87.5663
G01 X95.8700Y87.6300
G01 X95.8731Y87.6937
G01 X95.8825Y87.7568
G01 X95.8980Y87.8187
G01 X95.9195Y87.8787
G01 X95.9468Y87.9364
G01 X95.9795Y87.9911
G01 X96.0175Y88.0424
G01 X96.0604Y88.0896
G01 X96.1076Y88.1325
G01 X96.1589Y88.1705
G01 X96.2136Y88.2032
G01 X96.2713Y88.2305
G01 X96.3313Y88.2520
G01 X96.3932Y88.2675
G01 X96.4563Y88.2769
G01 X96.5200Y88.2800
G01 X96.5837Y88.2769
G01 X96.6468Y88.2675
G01 X96.7087Y88.2520
G01 X96.7687Y88.2305
G01 X96.8264Y88.2032
G01 X96.8811Y88.1705
G01 X96.9324Y88.1325
G01 X96.9796Y88.0896
G01 X97.0225Y88.0424
G01 X97.0605Y87.9911
G01 X97.0932Y87.9364
G01 X97.1205Y87.8787
G01 X97.1420Y87.8187
G01 X97.1575Y87.7568
G01 X97.1669Y87.6937
G01 X97.1700Y87.6300
G00 X97.1700Y87.6300
G01 Z-1.0000
G01 X97.1669Y87.5663
G01 X97.1575Y87.5032
G01 X97.1420Y87.4413
G01 X97.1205Y87.3813
G01 X97.0932Y87.3236
G01 X97.0605Y87.2689
G01 X97.0225Y87.2176
G01 X96.9796Y87.1704
G01 X96.9324Y87.1275
G01 X96.8811Y87.0895
G01 X96.8264Y87.0568
G01 X96.7687Y87.0295
G01 X96.7087Y87.0080
G01 X96.6468Y86.9925
G01 X96.5837Y86.9831
G01 X96.5200Y86.9800
G01 X96.4563Y86.9831
G01 X96.3932Y86.9925
G01 X96.3313Y87.0080
G01 X96.2713Y87.0295
G01 X96.2136Y87.0568
G01 X96.1589Y87.0895
G01 X96.1076Y87.1275
G01 X96.0604Y87.1704
G01 X96.0175Y87.2176
G01 X95.9795Y87.2689
G01 X95.9468Y87.3236
G01 X95.9195Y87.3813
G01 X95.8980Y87.4413
G01 X95.8825Y87.5032
G01 X95.8731Y87.5663
G01 X95.8700Y87.6300
G01 X95.8731Y87.6937
G01 X95.8825Y87.7568
G01 X95.8980Y87.8187
G01 X95.9195Y87.8787
G01 X95.9468Y87.9364
G01 X95.9795Y87.9911
G01 X96.0175Y88.0424
G01 X96.0604Y88.0896
G01 X96.1076Y88.1325
G01 X96.1589Y88.1705
G01 X96.2136Y88.2032
G01 X96.2713Y88.2305
G01 X96.3313Y88.2520
G01 X96.3932Y88.2675
G01 X96.4563Y88.2769
G01 X96.5200Y88.2800
G01 X96.5837Y88.2769
G01 X96.6468Y88.2675
G01 X96.7087Y88.2520
G01 X96.7687Y88.2305
G01 X96.8264Y88.2032
G01 X96.8811Y88.1705
G01 X96.9324Y88.1325
G01 X96.9796Y88.0896
G01 X97.0225Y88.0424
G01 X97.0605Y87.9911
G01 X97.0932Y87.9364
G01 X97.1205Y87.8787
G01 X97.1420Y87.8187
G01 X97.1575Y87.7568
G01 X97.1669Y87.6937
G01 X97.1700Y87.6300
G00 X97.1700Y87.6300
G01 Z-1.2500
G01 X97.1669Y87.5663
G01 X97.1575Y87.5032
G01 X97.1420Y87.4413
G01 X97.1205Y87.3813
G01 X97.0932Y87.3236
G01 X97.0605Y87.2689
G01 X97.0225Y87.2176
G01 X96.9796Y87.1704
G01 X96.9324Y87.1275
G01 X96.8811Y87.0895
G01 X96.8264Y87.0568
G01 X96.7687Y87.0295
G01 X96.7087Y87.0080
G01 X96.6468Y86.9925
G01 X96.5837Y86.9831
G01 X96.5200Y86.9800
G01 X96.4563Y86.9831
G01 X96.3932Y86.9925
G01 X96.3313Y87.0080
G01 X96.2713Y87.0295
G01 X96.2136Y87.0568
G01 X96.1589Y87.0895
G01 X96.1076Y87.1275
G01 X96.0604Y87.1704
G01 X96.0175Y87.2176
G01 X95.9795Y87.2689
G01 X95.9468Y87.3236
G01 X95.9195Y87.3813
G01 X95.8980Y87.4413
G01 X95.8825Y87.5032
G01 X95.8731Y87.5663
G01 X95.8700Y87.6300
G01 X95.8731Y87.6937
G01 X95.8825Y87.7568
G01 X95.8980Y87.8187
G01 X95.9195Y87.8787
G01 X95.9468Y87.9364
G01 X95.9795Y87.9911
G01 X96.0175Y88.0424
G01 X96.0604Y88.0896
G01 X96.1076Y88.1325
G01 X96.1589Y88.1705
G01 X96.2136Y88.2032
G01 X96.2713Y88.2305
G01 X96.3313Y88.2520
G01 X96.3932Y88.2675
G01 X96.4563Y88.2769
G01 X96.5200Y88.2800
G01 X96.5837Y88.2769
G01 X96.6468Y88.2675
G01 X96.7087Y88.2520
G01 X96.7687Y88.2305
G01 X96.8264Y88.2032
G01 X96.8811Y88.1705
G01 X96.9324Y88.1325
G01 X96.9796Y88.0896
G01 X97.0225Y88.0424
G01 X97.0605Y87.9911
G01 X97.0932Y87.9364
G01 X97.1205Y87.8787
G01 X97.1420Y87.8187
G01 X97.1575Y87.7568
G01 X97.1669Y87.6937
G01 X97.1700Y87.6300
G00 X97.1700Y87.6300
G01 Z-1.5000
G01 X97.1669Y87.5663
G01 X97.1575Y87.5032
G01 X97.1420Y87.4413
G01 X97.1205Y87.3813
G01 X97.0932Y87.3236
G01 X97.0605Y87.2689
G01 X97.0225Y87.2176
G01 X96.9796Y87.1704
G01 X96.9324Y87.1275
G01 X96.8811Y87.0895
G01 X96.8264Y87.0568
G01 X96.7687Y87.0295
G01 X96.7087Y87.0080
G01 X96.6468Y86.9925
G01 X96.5837Y86.9831
G01 X96.5200Y86.9800
G01 X96.4563Y86.9831
G01 X96.3932Y86.9925
G01 X96.3313Y87.0080
G01 X96.2713Y87.0295
G01 X96.2136Y87.0568
G01 X96.1589Y87.0895
G01 X96.1076Y87.1275
G01 X96.0604Y87.1704
G01 X96.0175Y87.2176
G01 X95.9795Y87.2689
G01 X95.9468Y87.3236
G01 X95.9195Y87.3813
G01 X95.8980Y87.4413
G01 X95.8825Y87.5032
G01 X95.8731Y87.5663
G01 X95.8700Y87.6300
G01 X95.8731Y87.6937
G01 X95.8825Y87.7568
G01 X95.8980Y87.8187
G01 X95.9195Y87.8787
G01 X95.9468Y87.9364
G01 X95.9795Y87.9911
G01 X96.0175Y88.0424
G01 X96.0604Y88.0896
G01 X96.1076Y88.1325
G01 X96.1589Y88.1705
G01 X96.2136Y88.2032
G01 X96.2713Y88.2305
G01 X96.3313Y88.2520
G01 X96.3932Y88.2675
G01 X96.4563Y88.2769
G01 X96.5200Y88.2800
G01 X96.5837Y88.2769
G01 X96.6468Y88.2675
G01 X96.7087Y88.2520
G01 X96.7687Y88.2305
G01 X96.8264Y88.2032
G01 X96.8811Y88.1705
G01 X96.9324Y88.1325
G01 X96.9796Y88.0896
G01 X97.0225Y88.0424
G01 X97.0605Y87.9911
G01 X97.0932Y87.9364
G01 X97.1205Y87.8787
G01 X97.1420Y87.8187
G01 X97.1575Y87.7568
G01 X97.1669Y87.6937
G01 X97.1700Y87.6300
G00 X97.1700Y87.6300
G01 Z-1.7500
G01 X97.1669Y87.5663
G01 X97.1575Y87.5032
G01 X97.1420Y87.4413
G01 X97.1205Y87.3813
G01 X97.0932Y87.3236
G01 X97.0605Y87.2689
G01 X97.0225Y87.2176
G01 X96.9796Y87.1704
G01 X96.9324Y87.1275
G01 X96.8811Y87.0895
G01 X96.8264Y87.0568
G01 X96.7687Y87.0295
G01 X96.7087Y87.0080
G01 X96.6468Y86.9925
G01 X96.5837Y86.9831
G01 X96.5200Y86.9800
G01 X96.4563Y86.9831
G01 X96.3932Y86.9925
G01 X96.3313Y87.0080
G01 X96.2713Y87.0295
G01 X96.2136Y87.0568
G01 X96.1589Y87.0895
G01 X96.1076Y87.1275
G01 X96.0604Y87.1704
G01 X96.0175Y87.2176
G01 X95.9795Y87.2689
G01 X95.9468Y87.3236
G01 X95.9195Y87.3813
G01 X95.8980Y87.4413
G01 X95.8825Y87.5032
G01 X95.8731Y87.5663
G01 X95.8700Y87.6300
G01 X95.8731Y87.6937
G01 X95.8825Y87.7568
G01 X95.8980Y87.8187
G01 X95.9195Y87.8787
G01 X95.9468Y87.9364
G01 X95.9795Y87.9911
G01 X96.0175Y88.0424
G01 X96.0604Y88.0896
G01 X96.1076Y88.1325
G01 X96.1589Y88.1705
G01 X96.2136Y88.2032
G01 X96.2713Y88.2305
G01 X96.3313Y88.2520
G01 X96.3932Y88.2675
G01 X96.4563Y88.2769
G01 X96.5200Y88.2800
G01 X96.5837Y88.2769
G01 X96.6468Y88.2675
G01 X96.7087Y88.2520
G01 X96.7687Y88.2305
G01 X96.8264Y88.2032
G01 X96.8811Y88.1705
G01 X96.9324Y88.1325
G01 X96.9796Y88.0896
G01 X97.0225Y88.0424
G01 X97.0605Y87.9911
G01 X97.0932Y87.9364
G01 X97.1205Y87.8787
G01 X97.1420Y87.8187
G01 X97.1575Y87.7568
G01 X97.1669Y87.6937
G01 X97.1700Y87.6300
G00 X97.1700Y87.6300
G01 Z-2.0000
G01 X97.1669Y87.5663
G01 X97.1575Y87.5032
G01 X97.1420Y87.4413
G01 X97.1205Y87.3813
G01 X97.0932Y87.3236
G01 X97.0605Y87.2689
G01 X97.0225Y87.2176
G01 X96.9796Y87.1704
G01 X96.9324Y87.1275
G01 X96.8811Y87.0895
G01 X96.8264Y87.0568
G01 X96.7687Y87.0295
G01 X96.7087Y87.0080
G01 X96.6468Y86.9925
G01 X96.5837Y86.9831
G01 X96.5200Y86.9800
G01 X96.4563Y86.9831
G01 X96.3932Y86.9925
G01 X96.3313Y87.0080
G01 X96.2713Y87.0295
G01 X96.2136Y87.0568
G01 X96.1589Y87.0895
G01 X96.1076Y87.1275
G01 X96.0604Y87.1704
G01 X96.0175Y87.2176
G01 X95.9795Y87.2689
G01 X95.9468Y87.3236
G01 X95.9195Y87.3813
G01 X95.8980Y87.4413
G01 X95.8825Y87.5032
G01 X95.8731Y87.5663
G01 X95.8700Y87.6300
G01 X95.8731Y87.6937
G01 X95.8825Y87.7568
G01 X95.8980Y87.8187
G01 X95.9195Y87.8787
G01 X95.9468Y87.9364
G01 X95.9795Y87.9911
G01 X96.0175Y88.0424
G01 X96.0604Y88.0896
G01 X96.1076Y88.1325
G01 X96.1589Y88.1705
G01 X96.2136Y88.2032
G01 X96.2713Y88.2305
G01 X96.3313Y88.2520
G01 X96.3932Y88.2675
G01 X96.4563Y88.2769
G01 X96.5200Y88.2800
G01 X96.5837Y88.2769
G01 X96.6468Y88.2675
G01 X96.7087Y88.2520
G01 X96.7687Y88.2305
G01 X96.8264Y88.2032
G01 X96.8811Y88.1705
G01 X96.9324Y88.1325
G01 X96.9796Y88.0896
G01 X97.0225Y88.0424
G01 X97.0605Y87.9911
G01 X97.0932Y87.9364
G01 X97.1205Y87.8787
G01 X97.1420Y87.8187
G01 X97.1575Y87.7568
G01 X97.1669Y87.6937
G01 X97.1700Y87.6300
G00 Z3.0000
G00 X97.1700Y3.8100
G01 Z-0.2500
G01 X97.1669Y3.7463
G01 X97.1575Y3.6832
G01 X97.1420Y3.6213
G01 X97.1205Y3.5613
G01 X97.0932Y3.5036
G01 X97.0605Y3.4489
G01 X97.0225Y3.3976
G01 X96.9796Y3.3504
G01 X96.9324Y3.3075
G01 X96.8811Y3.2695
G01 X96.8264Y3.2368
G01 X96.7687Y3.2095
G01 X96.7087Y3.1880
G01 X96.6468Y3.1725
G01 X96.5837Y3.1631
G01 X96.5200Y3.1600
G01 X96.4563Y3.1631
G01 X96.3932Y3.1725
G01 X96.3313Y3.1880
G01 X96.2713Y3.2095
G01 X96.2136Y3.2368
G01 X96.1589Y3.2695
G01 X96.1076Y3.3075
G01 X96.0604Y3.3504
G01 X96.0175Y3.3976
G01 X95.9795Y3.4489
G01 X95.9468Y3.5036
G01 X95.9195Y3.5613
G01 X95.8980Y3.6213
G01 X95.8825Y3.6832
G01 X95.8731Y3.7463
G01 X95.8700Y3.8100
G01 X95.8731Y3.8737
G01 X95.8825Y3.9368
G01 X95.8980Y3.9987
G01 X95.9195Y4.0587
G01 X95.9468Y4.1164
G01 X95.9795Y4.1711
G01 X96.0175Y4.2224
G01 X96.0604Y4.2696
G01 X96.1076Y4.3125
G01 X96.1589Y4.3505
G01 X96.2136Y4.3832
G01 X96.2713Y4.4105
G01 X96.3313Y4.4320
G01 X96.3932Y4.4475
G01 X96.4563Y4.4569
G01 X96.5200Y4.4600
G01 X96.5837Y4.4569
G01 X96.6468Y4.4475
G01 X96.7087Y4.4320
G01 X96.7687Y4.4105
G01 X96.8264Y4.3832
G01 X96.8811Y4.3505
G01 X96.9324Y4.3125
G01 X96.9796Y4.2696
G01 X97.0225Y4.2224
G01 X97.0605Y4.1711
G01 X97.0932Y4.1164
G01 X97.1205Y4.0587
G01 X97.1420Y3.9987
G01 X97.1575Y3.9368
G01 X97.1669Y3.8737
G01 X97.1700Y3.8100
G00 X97.1700Y3.8100
G01 Z-0.5000
G01 X97.1669Y3.7463
G01 X97.1575Y3.6832
G01 X97.1420Y3.6213
G01 X97.1205Y3.5613
G01 X97.0932Y3.5036
G01 X97.0605Y3.4489
G01 X97.0225Y3.3976
G01 X96.9796Y3.3504
G01 X96.9324Y3.3075
G01 X96.8811Y3.2695
G01 X96.8264Y3.2368
G01 X96.7687Y3.2095
G01 X96.7087Y3.1880
G01 X96.6468Y3.1725
G01 X96.5837Y3.1631
G01 X96.5200Y3.1600
G01 X96.4563Y3.1631
G01 X96.3932Y3.1725
G01 X96.3313Y3.1880
G01 X96.2713Y3.2095
G01 X96.2136Y3.2368
G01 X96.1589Y3.2695
G01 X96.1076Y3.3075
G01 X96.0604Y3.3504
G01 X96.0175Y3.3976
G01 X95.9795Y3.4489
G01 X95.9468Y3.5036
G01 X95.9195Y3.5613
G01 X95.8980Y3.6213
G01 X95.8825Y3.6832
G01 X95.8731Y3.7463
G01 X95.8700Y3.8100
G01 X95.8731Y3.8737
G01 X95.8825Y3.9368
G01 X95.8980Y3.9987
G01 X95.9195Y4.0587
G01 X95.9468Y4.1164
G01 X95.9795Y4.1711
G01 X96.0175Y4.2224
G01 X96.0604Y4.2696
G01 X96.1076Y4.3125
G01 X96.1589Y4.3505
G01 X96.2136Y4.3832
G01 X96.2713Y4.4105
G01 X96.3313Y4.4320
G01 X96.3932Y4.4475
G01 X96.4563Y4.4569
G01 X96.5200Y4.4600
G01 X96.5837Y4.4569
G01 X96.6468Y4.4475
G01 X96.7087Y4.4320
G01 X96.7687Y4.4105
G01 X96.8264Y4.3832
G01 X96.8811Y4.3505
G01 X96.9324Y4.3125
G01 X96.9796Y4.2696
G01 X97.0225Y4.2224
G01 X97.0605Y4.1711
G01 X97.0932Y4.1164
G01 X97.1205Y4.0587
G01 X97.1420Y3.9987
G01 X97.1575Y3.9368
G01 X97.1669Y3.8737
G01 X97.1700Y3.8100
G00 X97.1700Y3.8100
G01 Z-0.7500
G01 X97.1669Y3.7463
G01 X97.1575Y3.6832
G01 X97.1420Y3.6213
G01 X97.1205Y3.5613
G01 X97.0932Y3.5036
G01 X97.0605Y3.4489
G01 X97.0225Y3.3976
G01 X96.9796Y3.3504
G01 X96.9324Y3.3075
G01 X96.8811Y3.2695
G01 X96.8264Y3.2368
G01 X96.7687Y3.2095
G01 X96.7087Y3.1880
G01 X96.6468Y3.1725
G01 X96.5837Y3.1631
G01 X96.5200Y3.1600
G01 X96.4563Y3.1631
G01 X96.3932Y3.1725
G01 X96.3313Y3.1880
G01 X96.2713Y3.2095
G01 X96.2136Y3.2368
G01 X96.1589Y3.2695
G01 X96.1076Y3.3075
G01 X96.0604Y3.3504
G01 X96.0175Y3.3976
G01 X95.9795Y3.4489
G01 X95.9468Y3.5036
G01 X95.9195Y3.5613
G01 X95.8980Y3.6213
G01 X95.8825Y3.6832
G01 X95.8731Y3.7463
G01 X95.8700Y3.8100
G01 X95.8731Y3.8737
G01 X95.8825Y3.9368
G01 X95.8980Y3.9987
G01 X95.9195Y4.0587
G01 X95.9468Y4.1164
G01 X95.9795Y4.1711
G01 X96.0175Y4.2224
G01 X96.0604Y4.2696
G01 X96.1076Y4.3125
G01 X96.1589Y4.3505
G01 X96.2136Y4.3832
G01 X96.2713Y4.4105
G01 X96.3313Y4.4320
G01 X96.3932Y4.4475
G01 X96.4563Y4.4569
G01 X96.5200Y4.4600
G01 X96.5837Y4.4569
G01 X96.6468Y4.4475
G01 X96.7087Y4.4320
G01 X96.7687Y4.4105
G01 X96.8264Y4.3832
G01 X96.8811Y4.3505
G01 X96.9324Y4.3125
G01 X96.9796Y4.2696
G01 X97.0225Y4.2224
G01 X97.0605Y4.1711
G01 X97.0932Y4.1164
G01 X97.1205Y4.0587
G01 X97.1420Y3.9987
G01 X97.1575Y3.9368
G01 X97.1669Y3.8737
G01 X97.1700Y3.8100
G00 X97.1700Y3.8100
G01 Z-1.0000
G01 X97.1669Y3.7463
G01 X97.1575Y3.6832
G01 X97.1420Y3.6213
G01 X97.1205Y3.5613
G01 X97.0932Y3.5036
G01 X97.0605Y3.4489
G01 X97.0225Y3.3976
G01 X96.9796Y3.3504
G01 X96.9324Y3.3075
G01 X96.8811Y3.2695
G01 X96.8264Y3.2368
G01 X96.7687Y3.2095
G01 X96.7087Y3.1880
G01 X96.6468Y3.1725
G01 X96.5837Y3.1631
G01 X96.5200Y3.1600
G01 X96.4563Y3.1631
G01 X96.3932Y3.1725
G01 X96.3313Y3.1880
G01 X96.2713Y3.2095
G01 X96.2136Y3.2368
G01 X96.1589Y3.2695
G01 X96.1076Y3.3075
G01 X96.0604Y3.3504
G01 X96.0175Y3.3976
G01 X95.9795Y3.4489
G01 X95.9468Y3.5036
G01 X95.9195Y3.5613
G01 X95.8980Y3.6213
G01 X95.8825Y3.6832
G01 X95.8731Y3.7463
G01 X95.8700Y3.8100
G01 X95.8731Y3.8737
G01 X95.8825Y3.9368
G01 X95.8980Y3.9987
G01 X95.9195Y4.0587
G01 X95.9468Y4.1164
G01 X95.9795Y4.1711
G01 X96.0175Y4.2224
G01 X96.0604Y4.2696
G01 X96.1076Y4.3125
G01 X96.1589Y4.3505
G01 X96.2136Y4.3832
G01 X96.2713Y4.4105
G01 X96.3313Y4.4320
G01 X96.3932Y4.4475
G01 X96.4563Y4.4569
G01 X96.5200Y4.4600
G01 X96.5837Y4.4569
G01 X96.6468Y4.4475
G01 X96.7087Y4.4320
G01 X96.7687Y4.4105
G01 X96.8264Y4.3832
G01 X96.8811Y4.3505
G01 X96.9324Y4.3125
G01 X96.9796Y4.2696
G01 X97.0225Y4.2224
G01 X97.0605Y4.1711
G01 X97.0932Y4.1164
G01 X97.1205Y4.0587
G01 X97.1420Y3.9987
G01 X97.1575Y3.9368
G01 X97.1669Y3.8737
G01 X97.1700Y3.8100
G00 X97.1700Y3.8100
G01 Z-1.2500
G01 X97.1669Y3.7463
G01 X97.1575Y3.6832
G01 X97.1420Y3.6213
G01 X97.1205Y3.5613
G01 X97.0932Y3.5036
G01 X97.0605Y3.4489
G01 X97.0225Y3.3976
G01 X96.9796Y3.3504
G01 X96.9324Y3.3075
G01 X96.8811Y3.2695
G01 X96.8264Y3.2368
G01 X96.7687Y3.2095
G01 X96.7087Y3.1880
G01 X96.6468Y3.1725
G01 X96.5837Y3.1631
G01 X96.5200Y3.1600
G01 X96.4563Y3.1631
G01 X96.3932Y3.1725
G01 X96.3313Y3.1880
G01 X96.2713Y3.2095
G01 X96.2136Y3.2368
G01 X96.1589Y3.2695
G01 X96.1076Y3.3075
G01 X96.0604Y3.3504
G01 X96.0175Y3.3976
G01 X95.9795Y3.4489
G01 X95.9468Y3.5036
G01 X95.9195Y3.5613
G01 X95.8980Y3.6213
G01 X95.8825Y3.6832
G01 X95.8731Y3.7463
G01 X95.8700Y3.8100
G01 X95.8731Y3.8737
G01 X95.8825Y3.9368
G01 X95.8980Y3.9987
G01 X95.9195Y4.0587
G01 X95.9468Y4.1164
G01 X95.9795Y4.1711
G01 X96.0175Y4.2224
G01 X96.0604Y4.2696
G01 X96.1076Y4.3125
G01 X96.1589Y4.3505
G01 X96.2136Y4.3832
G01 X96.2713Y4.4105
G01 X96.3313Y4.4320
G01 X96.3932Y4.4475
G01 X96.4563Y4.4569
G01 X96.5200Y4.4600
G01 X96.5837Y4.4569
G01 X96.6468Y4.4475
G01 X96.7087Y4.4320
G01 X96.7687Y4.4105
G01 X96.8264Y4.3832
G01 X96.8811Y4.3505
G01 X96.9324Y4.3125
G01 X96.9796Y4.2696
G01 X97.0225Y4.2224
G01 X97.0605Y4.1711
G01 X97.0932Y4.1164
G01 X97.1205Y4.0587
G01 X97.1420Y3.9987
G01 X97.1575Y3.9368
G01 X97.1669Y3.8737
G01 X97.1700Y3.8100
G00 X97.1700Y3.8100
G01 Z-1.5000
G01 X97.1669Y3.7463
G01 X97.1575Y3.6832
G01 X97.1420Y3.6213
G01 X97.1205Y3.5613
G01 X97.0932Y3.5036
G01 X97.0605Y3.4489
G01 X97.0225Y3.3976
G01 X96.9796Y3.3504
G01 X96.9324Y3.3075
G01 X96.8811Y3.2695
G01 X96.8264Y3.2368
G01 X96.7687Y3.2095
G01 X96.7087Y3.1880
G01 X96.6468Y3.1725
G01 X96.5837Y3.1631
G01 X96.5200Y3.1600
G01 X96.4563Y3.1631
G01 X96.3932Y3.1725
G01 X96.3313Y3.1880
G01 X96.2713Y3.2095
G01 X96.2136Y3.2368
G01 X96.1589Y3.2695
G01 X96.1076Y3.3075
G01 X96.0604Y3.3504
G01 X96.0175Y3.3976
G01 X95.9795Y3.4489
G01 X95.9468Y3.5036
G01 X95.9195Y3.5613
G01 X95.8980Y3.6213
G01 X95.8825Y3.6832
G01 X95.8731Y3.7463
G01 X95.8700Y3.8100
G01 X95.8731Y3.8737
G01 X95.8825Y3.9368
G01 X95.8980Y3.9987
G01 X95.9195Y4.0587
G01 X95.9468Y4.1164
G01 X95.9795Y4.1711
G01 X96.0175Y4.2224
G01 X96.0604Y4.2696
G01 X96.1076Y4.3125
G01 X96.1589Y4.3505
G01 X96.2136Y4.3832
G01 X96.2713Y4.4105
G01 X96.3313Y4.4320
G01 X96.3932Y4.4475
G01 X96.4563Y4.4569
G01 X96.5200Y4.4600
G01 X96.5837Y4.4569
G01 X96.6468Y4.4475
G01 X96.7087Y4.4320
G01 X96.7687Y4.4105
G01 X96.8264Y4.3832
G01 X96.8811Y4.3505
G01 X96.9324Y4.3125
G01 X96.9796Y4.2696
G01 X97.0225Y4.2224
G01 X97.0605Y4.1711
G01 X97.0932Y4.1164
G01 X97.1205Y4.0587
G01 X97.1420Y3.9987
G01 X97.1575Y3.9368
G01 X97.1669Y3.8737
G01 X97.1700Y3.8100
G00 X97.1700Y3.8100
G01 Z-1.7500
G01 X97.1669Y3.7463
G01 X97.1575Y3.6832
G01 X97.1420Y3.6213
G01 X97.1205Y3.5613
G01 X97.0932Y3.5036
G01 X97.0605Y3.4489
G01 X97.0225Y3.3976
G01 X96.9796Y3.3504
G01 X96.9324Y3.3075
G01 X96.8811Y3.2695
G01 X96.8264Y3.2368
G01 X96.7687Y3.2095
G01 X96.7087Y3.1880
G01 X96.6468Y3.1725
G01 X96.5837Y3.1631
G01 X96.5200Y3.1600
G01 X96.4563Y3.1631
G01 X96.3932Y3.1725
G01 X96.3313Y3.1880
G01 X96.2713Y3.2095
G01 X96.2136Y3.2368
G01 X96.1589Y3.2695
G01 X96.1076Y3.3075
G01 X96.0604Y3.3504
G01 X96.0175Y3.3976
G01 X95.9795Y3.4489
G01 X95.9468Y3.5036
G01 X95.9195Y3.5613
G01 X95.8980Y3.6213
G01 X95.8825Y3.6832
G01 X95.8731Y3.7463
G01 X95.8700Y3.8100
G01 X95.8731Y3.8737
G01 X95.8825Y3.9368
G01 X95.8980Y3.9987
G01 X95.9195Y4.0587
G01 X95.9468Y4.1164
G01 X95.9795Y4.1711
G01 X96.0175Y4.2224
G01 X96.0604Y4.2696
G01 X96.1076Y4.3125
G01 X96.1589Y4.3505
G01 X96.2136Y4.3832
G01 X96.2713Y4.4105
G01 X96.3313Y4.4320
G01 X96.3932Y4.4475
G01 X96.4563Y4.4569
G01 X96.5200Y4.4600
G01 X96.5837Y4.4569
G01 X96.6468Y4.4475
G01 X96.7087Y4.4320
G01 X96.7687Y4.4105
G01 X96.8264Y4.3832
G01 X96.8811Y4.3505
G01 X96.9324Y4.3125
G01 X96.9796Y4.2696
G01 X97.0225Y4.2224
G01 X97.0605Y4.1711
G01 X97.0932Y4.1164
G01 X97.1205Y4.0587
G01 X97.1420Y3.9987
G01 X97.1575Y3.9368
G01 X97.1669Y3.8737
G01 X97.1700Y3.8100
G00 X97.1700Y3.8100
G01 Z-2.0000
G01 X97.1669Y3.7463
G01 X97.1575Y3.6832
G01 X97.1420Y3.6213
G01 X97.1205Y3.5613
G01 X97.0932Y3.5036
G01 X97.0605Y3.4489
G01 X97.0225Y3.3976
G01 X96.9796Y3.3504
G01 X96.9324Y3.3075
G01 X96.8811Y3.2695
G01 X96.8264Y3.2368
G01 X96.7687Y3.2095
G01 X96.7087Y3.1880
G01 X96.6468Y3.1725
G01 X96.5837Y3.1631
G01 X96.5200Y3.1600
G01 X96.4563Y3.1631
G01 X96.3932Y3.1725
G01 X96.3313Y3.1880
G01 X96.2713Y3.2095
G01 X96.2136Y3.2368
G01 X96.1589Y3.2695
G01 X96.1076Y3.3075
G01 X96.0604Y3.3504
G01 X96.0175Y3.3976
G01 X95.9795Y3.4489
G01 X95.9468Y3.5036
G01 X95.9195Y3.5613
G01 X95.8980Y3.6213
G01 X95.8825Y3.6832
G01 X95.8731Y3.7463
G01 X95.8700Y3.8100
G01 X95.8731Y3.8737
G01 X95.8825Y3.9368
G01 X95.8980Y3.9987
G01 X95.9195Y4.0587
G01 X95.9468Y4.1164
G01 X95.9795Y4.1711
G01 X96.0175Y4.2224
G01 X96.0604Y4.2696
G01 X96.1076Y4.3125
G01 X96.1589Y4.3505
G01 X96.2136Y4.3832
G01 X96.2713Y4.4105
G01 X96.3313Y4.4320
G01 X96.3932Y4.4475
G01 X96.4563Y4.4569
G01 X96.5200Y4.4600
G01 X96.5837Y4.4569
G01 X96.6468Y4.4475
G01 X96.7087Y4.4320
G01 X96.7687Y4.4105
G01 X96.8264Y4.3832
G01 X96.8811Y4.3505
G01 X96.9324Y4.3125
G01 X96.9796Y4.2696
G01 X97.0225Y4.2224
G01 X97.0605Y4.1711
G01 X97.0932Y4.1164
G01 X97.1205Y4.0587
G01 X97.1420Y3.9987
G01 X97.1575Y3.9368
G01 X97.1669Y3.8737
G01 X97.1700Y3.8100
G00 Z3.0000
G00 Z3.0000
G00 X0Y0
M05
G0 Z20
G0 X0 Y100