G0 Z20
G21
G90
G94
F100.00
G00 Z3.0000
M03 S45
G4 P1
G00 X-0.9989Y-0.0466
G01 Z-0.2500
G01 X-0.9895Y-0.1443
G01 X-0.9706Y-0.2406
G01 X-0.9423Y-0.3346
G01 X-0.9050Y-0.4253
G01 X-0.8589Y-0.5120
G01 X-0.8046Y-0.5937
G01 X-0.7426Y-0.6697
G01 X-0.6733Y-0.7393
G01 X-0.5976Y-0.8017
G01 X-0.5162Y-0.8564
G01 X-0.4297Y-0.9029
G01 X-0.3392Y-0.9407
G01 X-0.2453Y-0.9694
G01 X-0.1491Y-0.9888
G01 X-0.0515Y-0.9986
G01 X0.0000Y-1.0000
G01 X100.3300Y-1.0000
G01 X100.3815Y-0.9986
G01 X100.4791Y-0.9888
G01 X100.5753Y-0.9694
G01 X100.6692Y-0.9407
G01 X100.7597Y-0.9029
G01 X100.8462Y-0.8564
G01 X100.9237Y-0.8046
G01 X100.9997Y-0.7426
G01 X101.0726Y-0.6697
G01 X101.1346Y-0.5937
G01 X101.1889Y-0.5120
G01 X101.2350Y-0.4253
G01 X101.2723Y-0.3346
G01 X101.3006Y-0.2406
G01 X101.3195Y-0.1443
G01 X101.3286Y-0.0515
G01 X101.3300Y0.0000
G01 X101.3300Y91.4400
G01 X101.3286Y91.4915
G01 X101.3188Y91.5891
G01 X101.2994Y91.6853
G01 X101.2707Y91.7792
G01 X101.2329Y91.8697
G01 X101.1864Y91.9562
G01 X101.1346Y92.0337
G01 X101.0726Y92.1097
G01 X100.9997Y92.1826
G01 X100.9237Y92.2446
G01 X100.8420Y92.2989
G01 X100.7553Y92.3450
G01 X100.6646Y92.3823
G01 X100.5706Y92.4106
G01 X100.4743Y92.4295
G01 X100.3815Y92.4386
G01 X100.3300Y92.4400
G01 X0.0000Y92.4400
G01 X-0.0515Y92.4386
G01 X-0.1491Y92.4288
G01 X-0.2453Y92.4094
G01 X-0.3392Y92.3807
G01 X-0.4297Y92.3429
G01 X-0.5162Y92.2964
G01 X-0.5937Y92.2446
G01 X-0.6697Y92.1826
G01 X-0.7426Y92.1097
G01 X-0.8046Y92.0337
G01 X-0.8589Y91.9520
G01 X-0.9050Y91.8653
G01 X-0.9423Y91.7746
G01 X-0.9706Y91.6806
G01 X-0.9895Y91.5843
G01 X-0.9986Y91.4915
G01 X-1.0000Y91.4400
G01 X-1.0000Y0.0000
G01 X-0.9989Y-0.0466
G00 X-0.9989Y-0.0466
G01 Z-0.5000
G01 X-0.9895Y-0.1443
G01 X-0.9706Y-0.2406
G01 X-0.9423Y-0.3346
G01 X-0.9050Y-0.4253
G01 X-0.8589Y-0.5120
G01 X-0.8046Y-0.5937
G01 X-0.7426Y-0.6697
G01 X-0.6733Y-0.7393
G01 X-0.5976Y-0.8017
G01 X-0.5162Y-0.8564
G01 X-0.4297Y-0.9029
G01 X-0.3392Y-0.9407
G01 X-0.2453Y-0.9694
G01 X-0.1491Y-0.9888
G01 X-0.0515Y-0.9986
G01 X0.0000Y-1.0000
G01 X100.3300Y-1.0000
G01 X100.3815Y-0.9986
G01 X100.4791Y-0.9888
G01 X100.5753Y-0.9694
G01 X100.6692Y-0.9407
G01 X100.7597Y-0.9029
G01 X100.8462Y-0.8564
G01 X100.9237Y-0.8046
G01 X100.9997Y-0.7426
G01 X101.0726Y-0.6697
G01 X101.1346Y-0.5937
G01 X101.1889Y-0.5120
G01 X101.2350Y-0.4253
G01 X101.2723Y-0.3346
G01 X101.3006Y-0.2406
G01 X101.3195Y-0.1443
G01 X101.3286Y-0.0515
G01 X101.3300Y0.0000
G01 X101.3300Y91.4400
G01 X101.3286Y91.4915
G01 X101.3188Y91.5891
G01 X101.2994Y91.6853
G01 X101.2707Y91.7792
G01 X101.2329Y91.8697
G01 X101.1864Y91.9562
G01 X101.1346Y92.0337
G01 X101.0726Y92.1097
G01 X100.9997Y92.1826
G01 X100.9237Y92.2446
G01 X100.8420Y92.2989
G01 X100.7553Y92.3450
G01 X100.6646Y92.3823
G01 X100.5706Y92.4106
G01 X100.4743Y92.4295
G01 X100.3815Y92.4386
G01 X100.3300Y92.4400
G01 X0.0000Y92.4400
G01 X-0.0515Y92.4386
G01 X-0.1491Y92.4288
G01 X-0.2453Y92.4094
G01 X-0.3392Y92.3807
G01 X-0.4297Y92.3429
G01 X-0.5162Y92.2964
G01 X-0.5937Y92.2446
G01 X-0.6697Y92.1826
G01 X-0.7426Y92.1097
G01 X-0.8046Y92.0337
G01 X-0.8589Y91.9520
G01 X-0.9050Y91.8653
G01 X-0.9423Y91.7746
G01 X-0.9706Y91.6806
G01 X-0.9895Y91.5843
G01 X-0.9986Y91.4915
G01 X-1.0000Y91.4400
G01 X-1.0000Y0.0000
G01 X-0.9989Y-0.0466
G00 X-0.9989Y-0.0466
G01 Z-0.7500
G01 X-0.9895Y-0.1443
G01 X-0.9706Y-0.2406
G01 X-0.9423Y-0.3346
G01 X-0.9050Y-0.4253
G01 X-0.8589Y-0.5120
G01 X-0.8046Y-0.5937
G01 X-0.7426Y-0.6697
G01 X-0.6733Y-0.7393
G01 X-0.5976Y-0.8017
G01 X-0.5162Y-0.8564
G01 X-0.4297Y-0.9029
G01 X-0.3392Y-0.9407
G01 X-0.2453Y-0.9694
G01 X-0.1491Y-0.9888
G01 X-0.0515Y-0.9986
G01 X0.0000Y-1.0000
G01 X100.3300Y-1.0000
G01 X100.3815Y-0.9986
G01 X100.4791Y-0.9888
G01 X100.5753Y-0.9694
G01 X100.6692Y-0.9407
G01 X100.7597Y-0.9029
G01 X100.8462Y-0.8564
G01 X100.9237Y-0.8046
G01 X100.9997Y-0.7426
G01 X101.0726Y-0.6697
G01 X101.1346Y-0.5937
G01 X101.1889Y-0.5120
G01 X101.2350Y-0.4253
G01 X101.2723Y-0.3346
G01 X101.3006Y-0.2406
G01 X101.3195Y-0.1443
G01 X101.3286Y-0.0515
G01 X101.3300Y0.0000
G01 X101.3300Y91.4400
G01 X101.3286Y91.4915
G01 X101.3188Y91.5891
G01 X101.2994Y91.6853
G01 X101.2707Y91.7792
G01 X101.2329Y91.8697
G01 X101.1864Y91.9562
G01 X101.1346Y92.0337
G01 X101.0726Y92.1097
G01 X100.9997Y92.1826
G01 X100.9237Y92.2446
G01 X100.8420Y92.2989
G01 X100.7553Y92.3450
G01 X100.6646Y92.3823
G01 X100.5706Y92.4106
G01 X100.4743Y92.4295
G01 X100.3815Y92.4386
G01 X100.3300Y92.4400
G01 X0.0000Y92.4400
G01 X-0.0515Y92.4386
G01 X-0.1491Y92.4288
G01 X-0.2453Y92.4094
G01 X-0.3392Y92.3807
G01 X-0.4297Y92.3429
G01 X-0.5162Y92.2964
G01 X-0.5937Y92.2446
G01 X-0.6697Y92.1826
G01 X-0.7426Y92.1097
G01 X-0.8046Y92.0337
G01 X-0.8589Y91.9520
G01 X-0.9050Y91.8653
G01 X-0.9423Y91.7746
G01 X-0.9706Y91.6806
G01 X-0.9895Y91.5843
G01 X-0.9986Y91.4915
G01 X-1.0000Y91.4400
G01 X-1.0000Y0.0000
G01 X-0.9989Y-0.0466
G00 X-0.9989Y-0.0466
G01 Z-1.0000
G01 X-0.9895Y-0.1443
G01 X-0.9706Y-0.2406
G01 X-0.9423Y-0.3346
G01 X-0.9050Y-0.4253
G01 X-0.8589Y-0.5120
G01 X-0.8046Y-0.5937
G01 X-0.7426Y-0.6697
G01 X-0.6733Y-0.7393
G01 X-0.5976Y-0.8017
G01 X-0.5162Y-0.8564
G01 X-0.4297Y-0.9029
G01 X-0.3392Y-0.9407
G01 X-0.2453Y-0.9694
G01 X-0.1491Y-0.9888
G01 X-0.0515Y-0.9986
G01 X0.0000Y-1.0000
G01 X100.3300Y-1.0000
G01 X100.3815Y-0.9986
G01 X100.4791Y-0.9888
G01 X100.5753Y-0.9694
G01 X100.6692Y-0.9407
G01 X100.7597Y-0.9029
G01 X100.8462Y-0.8564
G01 X100.9237Y-0.8046
G01 X100.9997Y-0.7426
G01 X101.0726Y-0.6697
G01 X101.1346Y-0.5937
G01 X101.1889Y-0.5120
G01 X101.2350Y-0.4253
G01 X101.2723Y-0.3346
G01 X101.3006Y-0.2406
G01 X101.3195Y-0.1443
G01 X101.3286Y-0.0515
G01 X101.3300Y0.0000
G01 X101.3300Y91.4400
G01 X101.3286Y91.4915
G01 X101.3188Y91.5891
G01 X101.2994Y91.6853
G01 X101.2707Y91.7792
G01 X101.2329Y91.8697
G01 X101.1864Y91.9562
G01 X101.1346Y92.0337
G01 X101.0726Y92.1097
G01 X100.9997Y92.1826
G01 X100.9237Y92.2446
G01 X100.8420Y92.2989
G01 X100.7553Y92.3450
G01 X100.6646Y92.3823
G01 X100.5706Y92.4106
G01 X100.4743Y92.4295
G01 X100.3815Y92.4386
G01 X100.3300Y92.4400
G01 X0.0000Y92.4400
G01 X-0.0515Y92.4386
G01 X-0.1491Y92.4288
G01 X-0.2453Y92.4094
G01 X-0.3392Y92.3807
G01 X-0.4297Y92.3429
G01 X-0.5162Y92.2964
G01 X-0.5937Y92.2446
G01 X-0.6697Y92.1826
G01 X-0.7426Y92.1097
G01 X-0.8046Y92.0337
G01 X-0.8589Y91.9520
G01 X-0.9050Y91.8653
G01 X-0.9423Y91.7746
G01 X-0.9706Y91.6806
G01 X-0.9895Y91.5843
G01 X-0.9986Y91.4915
G01 X-1.0000Y91.4400
G01 X-1.0000Y0.0000
G01 X-0.9989Y-0.0466
G00 X-0.9989Y-0.0466
G01 Z-1.2500
G01 X-0.9895Y-0.1443
G01 X-0.9706Y-0.2406
G01 X-0.9423Y-0.3346
G01 X-0.9050Y-0.4253
G01 X-0.8589Y-0.5120
G01 X-0.8046Y-0.5937
G01 X-0.7426Y-0.6697
G01 X-0.6733Y-0.7393
G01 X-0.5976Y-0.8017
G01 X-0.5162Y-0.8564
G01 X-0.4297Y-0.9029
G01 X-0.3392Y-0.9407
G01 X-0.2453Y-0.9694
G01 X-0.1491Y-0.9888
G01 X-0.0515Y-0.9986
G01 X0.0000Y-1.0000
G01 X100.3300Y-1.0000
G01 X100.3815Y-0.9986
G01 X100.4791Y-0.9888
G01 X100.5753Y-0.9694
G01 X100.6692Y-0.9407
G01 X100.7597Y-0.9029
G01 X100.8462Y-0.8564
G01 X100.9237Y-0.8046
G01 X100.9997Y-0.7426
G01 X101.0726Y-0.6697
G01 X101.1346Y-0.5937
G01 X101.1889Y-0.5120
G01 X101.2350Y-0.4253
G01 X101.2723Y-0.3346
G01 X101.3006Y-0.2406
G01 X101.3195Y-0.1443
G01 X101.3286Y-0.0515
G01 X101.3300Y0.0000
G01 X101.3300Y91.4400
G01 X101.3286Y91.4915
G01 X101.3188Y91.5891
G01 X101.2994Y91.6853
G01 X101.2707Y91.7792
G01 X101.2329Y91.8697
G01 X101.1864Y91.9562
G01 X101.1346Y92.0337
G01 X101.0726Y92.1097
G01 X100.9997Y92.1826
G01 X100.9237Y92.2446
G01 X100.8420Y92.2989
G01 X100.7553Y92.3450
G01 X100.6646Y92.3823
G01 X100.5706Y92.4106
G01 X100.4743Y92.4295
G01 X100.3815Y92.4386
G01 X100.3300Y92.4400
G01 X0.0000Y92.4400
G01 X-0.0515Y92.4386
G01 X-0.1491Y92.4288
G01 X-0.2453Y92.4094
G01 X-0.3392Y92.3807
G01 X-0.4297Y92.3429
G01 X-0.5162Y92.2964
G01 X-0.5937Y92.2446
G01 X-0.6697Y92.1826
G01 X-0.7426Y92.1097
G01 X-0.8046Y92.0337
G01 X-0.8589Y91.9520
G01 X-0.9050Y91.8653
G01 X-0.9423Y91.7746
G01 X-0.9706Y91.6806
G01 X-0.9895Y91.5843
G01 X-0.9986Y91.4915
G01 X-1.0000Y91.4400
G01 X-1.0000Y0.0000
G01 X-0.9989Y-0.0466
G00 X-0.9989Y-0.0466
G01 Z-1.5000
G01 X-0.9895Y-0.1443
G01 X-0.9706Y-0.2406
G01 X-0.9423Y-0.3346
G01 X-0.9050Y-0.4253
G01 X-0.8589Y-0.5120
G01 X-0.8046Y-0.5937
G01 X-0.7426Y-0.6697
G01 X-0.6733Y-0.7393
G01 X-0.5976Y-0.8017
G01 X-0.5162Y-0.8564
G01 X-0.4297Y-0.9029
G01 X-0.3392Y-0.9407
G01 X-0.2453Y-0.9694
G01 X-0.1491Y-0.9888
G01 X-0.0515Y-0.9986
G01 X0.0000Y-1.0000
G01 X100.3300Y-1.0000
G01 X100.3815Y-0.9986
G01 X100.4791Y-0.9888
G01 X100.5753Y-0.9694
G01 X100.6692Y-0.9407
G01 X100.7597Y-0.9029
G01 X100.8462Y-0.8564
G01 X100.9237Y-0.8046
G01 X100.9997Y-0.7426
G01 X101.0726Y-0.6697
G01 X101.1346Y-0.5937
G01 X101.1889Y-0.5120
G01 X101.2350Y-0.4253
G01 X101.2723Y-0.3346
G01 X101.3006Y-0.2406
G01 X101.3195Y-0.1443
G01 X101.3286Y-0.0515
G01 X101.3300Y0.0000
G01 X101.3300Y91.4400
G01 X101.3286Y91.4915
G01 X101.3188Y91.5891
G01 X101.2994Y91.6853
G01 X101.2707Y91.7792
G01 X101.2329Y91.8697
G01 X101.1864Y91.9562
G01 X101.1346Y92.0337
G01 X101.0726Y92.1097
G01 X100.9997Y92.1826
G01 X100.9237Y92.2446
G01 X100.8420Y92.2989
G01 X100.7553Y92.3450
G01 X100.6646Y92.3823
G01 X100.5706Y92.4106
G01 X100.4743Y92.4295
G01 X100.3815Y92.4386
G01 X100.3300Y92.4400
G01 X0.0000Y92.4400
G01 X-0.0515Y92.4386
G01 X-0.1491Y92.4288
G01 X-0.2453Y92.4094
G01 X-0.3392Y92.3807
G01 X-0.4297Y92.3429
G01 X-0.5162Y92.2964
G01 X-0.5937Y92.2446
G01 X-0.6697Y92.1826
G01 X-0.7426Y92.1097
G01 X-0.8046Y92.0337
G01 X-0.8589Y91.9520
G01 X-0.9050Y91.8653
G01 X-0.9423Y91.7746
G01 X-0.9706Y91.6806
G01 X-0.9895Y91.5843
G01 X-0.9986Y91.4915
G01 X-1.0000Y91.4400
G01 X-1.0000Y0.0000
G01 X-0.9989Y-0.0466
G00 X-0.9989Y-0.0466
G01 Z-1.7500
G01 X-0.9895Y-0.1443
G01 X-0.9706Y-0.2406
G01 X-0.9423Y-0.3346
G01 X-0.9050Y-0.4253
G01 X-0.8589Y-0.5120
G01 X-0.8046Y-0.5937
G01 X-0.7426Y-0.6697
G01 X-0.6733Y-0.7393
G01 X-0.5976Y-0.8017
G01 X-0.5162Y-0.8564
G01 X-0.4297Y-0.9029
G01 X-0.3392Y-0.9407
G01 X-0.2453Y-0.9694
G01 X-0.1491Y-0.9888
G01 X-0.0515Y-0.9986
G01 X0.0000Y-1.0000
G01 X100.3300Y-1.0000
G01 X100.3815Y-0.9986
G01 X100.4791Y-0.9888
G01 X100.5753Y-0.9694
G01 X100.6692Y-0.9407
G01 X100.7597Y-0.9029
G01 X100.8462Y-0.8564
G01 X100.9237Y-0.8046
G01 X100.9997Y-0.7426
G01 X101.0726Y-0.6697
G01 X101.1346Y-0.5937
G01 X101.1889Y-0.5120
G01 X101.2350Y-0.4253
G01 X101.2723Y-0.3346
G01 X101.3006Y-0.2406
G01 X101.3195Y-0.1443
G01 X101.3286Y-0.0515
G01 X101.3300Y0.0000
G01 X101.3300Y91.4400
G01 X101.3286Y91.4915
G01 X101.3188Y91.5891
G01 X101.2994Y91.6853
G01 X101.2707Y91.7792
G01 X101.2329Y91.8697
G01 X101.1864Y91.9562
G01 X101.1346Y92.0337
G01 X101.0726Y92.1097
G01 X100.9997Y92.1826
G01 X100.9237Y92.2446
G01 X100.8420Y92.2989
G01 X100.7553Y92.3450
G01 X100.6646Y92.3823
G01 X100.5706Y92.4106
G01 X100.4743Y92.4295
G01 X100.3815Y92.4386
G01 X100.3300Y92.4400
G01 X0.0000Y92.4400
G01 X-0.0515Y92.4386
G01 X-0.1491Y92.4288
G01 X-0.2453Y92.4094
G01 X-0.3392Y92.3807
G01 X-0.4297Y92.3429
G01 X-0.5162Y92.2964
G01 X-0.5937Y92.2446
G01 X-0.6697Y92.1826
G01 X-0.7426Y92.1097
G01 X-0.8046Y92.0337
G01 X-0.8589Y91.9520
G01 X-0.9050Y91.8653
G01 X-0.9423Y91.7746
G01 X-0.9706Y91.6806
G01 X-0.9895Y91.5843
G01 X-0.9986Y91.4915
G01 X-1.0000Y91.4400
G01 X-1.0000Y0.0000
G01 X-0.9989Y-0.0466
G00 X-0.9989Y-0.0466
G01 Z-2.0000
G01 X-0.9895Y-0.1443
G01 X-0.9706Y-0.2406
G01 X-0.9423Y-0.3346
G01 X-0.9050Y-0.4253
G01 X-0.8589Y-0.5120
G01 X-0.8046Y-0.5937
G01 X-0.7426Y-0.6697
G01 X-0.6733Y-0.7393
G01 X-0.5976Y-0.8017
G01 X-0.5162Y-0.8564
G01 X-0.4297Y-0.9029
G01 X-0.3392Y-0.9407
G01 X-0.2453Y-0.9694
G01 X-0.1491Y-0.9888
G01 X-0.0515Y-0.9986
G01 X0.0000Y-1.0000
G01 X100.3300Y-1.0000
G01 X100.3815Y-0.9986
G01 X100.4791Y-0.9888
G01 X100.5753Y-0.9694
G01 X100.6692Y-0.9407
G01 X100.7597Y-0.9029
G01 X100.8462Y-0.8564
G01 X100.9237Y-0.8046
G01 X100.9997Y-0.7426
G01 X101.0726Y-0.6697
G01 X101.1346Y-0.5937
G01 X101.1889Y-0.5120
G01 X101.2350Y-0.4253
G01 X101.2723Y-0.3346
G01 X101.3006Y-0.2406
G01 X101.3195Y-0.1443
G01 X101.3286Y-0.0515
G01 X101.3300Y0.0000
G01 X101.3300Y91.4400
G01 X101.3286Y91.4915
G01 X101.3188Y91.5891
G01 X101.2994Y91.6853
G01 X101.2707Y91.7792
G01 X101.2329Y91.8697
G01 X101.1864Y91.9562
G01 X101.1346Y92.0337
G01 X101.0726Y92.1097
G01 X100.9997Y92.1826
G01 X100.9237Y92.2446
G01 X100.8420Y92.2989
G01 X100.7553Y92.3450
G01 X100.6646Y92.3823
G01 X100.5706Y92.4106
G01 X100.4743Y92.4295
G01 X100.3815Y92.4386
G01 X100.3300Y92.4400
G01 X0.0000Y92.4400
G01 X-0.0515Y92.4386
G01 X-0.1491Y92.4288
G01 X-0.2453Y92.4094
G01 X-0.3392Y92.3807
G01 X-0.4297Y92.3429
G01 X-0.5162Y92.2964
G01 X-0.5937Y92.2446
G01 X-0.6697Y92.1826
G01 X-0.7426Y92.1097
G01 X-0.8046Y92.0337
G01 X-0.8589Y91.9520
G01 X-0.9050Y91.8653
G01 X-0.9423Y91.7746
G01 X-0.9706Y91.6806
G01 X-0.9895Y91.5843
G01 X-0.9986Y91.4915
G01 X-1.0000Y91.4400
G01 X-1.0000Y0.0000
G01 X-0.9989Y-0.0466
G00 Z3.0000
G00 Z3.0000
G00 X0Y0
M05
G0 Z20
G0 X0 Y100