G0 Z20
G21
G90
G94
F50.00
G00 Z3.0000
M03 S45
G4 P1
G00 X17.7800Y6.3500
G01 Z-2.0000
G01 Z0
G00 Z3.0000
G00 X15.2400Y6.3500
G01 Z-2.0000
G01 Z0
G00 Z3.0000
G00 X12.7000Y6.3500
G01 Z-2.0000
G01 Z0
G00 Z3.0000
G00 X12.7000Y10.1600
G01 Z-2.0000
G01 Z0
G00 Z3.0000
G00 X43.1800Y10.1600
G01 Z-2.0000
G01 Z0
G00 Z3.0000
G00 X62.2300Y12.7000
G01 Z-2.0000
G01 Z0
G00 Z3.0000
G00 X39.3700Y12.7000
G01 Z-2.0000
G01 Z0
G00 Z3.0000
G00 X26.6700Y12.7000
G01 Z-2.0000
G01 Z0
G00 Z3.0000
G00 X24.1300Y12.7000
G01 Z-2.0000
G01 Z0
G00 Z3.0000
G00 X50.8000Y12.7000
G01 Z-2.0000
G01 Z0
G00 Z3.0000
G00 X43.1800Y12.7000
G01 Z-2.0000
G01 Z0
G00 Z3.0000
G00 X12.7000Y15.2400
G01 Z-2.0000
G01 Z0
G00 Z3.0000
G00 X15.2400Y15.2400
G01 Z-2.0000
G01 Z0
G00 Z3.0000
G00 X17.7800Y15.2400
G01 Z-2.0000
G01 Z0
G00 Z3.0000
G00 X26.6700Y15.2400
G01 Z-2.0000
G01 Z0
G00 Z3.0000
G00 X36.8300Y15.2400
G01 Z-2.0000
G01 Z0
G00 Z3.0000
G00 X59.6900Y19.0500
G01 Z-2.0000
G01 Z0
G00 Z3.0000
G00 X57.1500Y19.0500
G01 Z-2.0000
G01 Z0
G00 Z3.0000
G00 X54.6100Y19.0500
G01 Z-2.0000
G01 Z0
G00 Z3.0000
G00 X52.0700Y19.0500
G01 Z-2.0000
G01 Z0
G00 Z3.0000
G00 X49.5300Y19.0500
G01 Z-2.0000
G01 Z0
G00 Z3.0000
G00 X46.9900Y19.0500
G01 Z-2.0000
G01 Z0
G00 Z3.0000
G00 X44.4500Y19.0500
G01 Z-2.0000
G01 Z0
G00 Z3.0000
G00 X41.9100Y19.0500
G01 Z-2.0000
G01 Z0
G00 Z3.0000
G00 X39.3700Y19.0500
G01 Z-2.0000
G01 Z0
G00 Z3.0000
G00 X36.8300Y19.0500
G01 Z-2.0000
G01 Z0
G00 Z3.0000
G00 X34.2900Y19.0500
G01 Z-2.0000
G01 Z0
G00 Z3.0000
G00 X31.7500Y19.0500
G01 Z-2.0000
G01 Z0
G00 Z3.0000
G00 X29.2100Y19.0500
G01 Z-2.0000
G01 Z0
G00 Z3.0000
G00 X26.6700Y19.0500
G01 Z-2.0000
G01 Z0
G00 Z3.0000
G00 X36.8300Y22.8600
G01 Z-2.0000
G01 Z0
G00 Z3.0000
G00 X44.4500Y22.8600
G01 Z-2.0000
G01 Z0
G00 Z3.0000
G00 X17.7800Y24.1300
G01 Z-2.0000
G01 Z0
G00 Z3.0000
G00 X36.8300Y25.4000
G01 Z-2.0000
G01 Z0
G00 Z3.0000
G00 X44.4500Y25.4000
G01 Z-2.0000
G01 Z0
G00 Z3.0000
G00 X17.7800Y26.6700
G01 Z-2.0000
G01 Z0
G00 Z3.0000
G00 X21.5900Y27.3050
G01 Z-2.0000
G01 Z0
G00 Z3.0000
G00 X17.7800Y29.2100
G01 Z-2.0000
G01 Z0
G00 Z3.0000
G00 X17.7800Y31.7500
G01 Z-2.0000
G01 Z0
G00 Z3.0000
G00 X46.9900Y31.7500
G01 Z-2.0000
G01 Z0
G00 Z3.0000
G00 X52.0700Y31.7500
G01 Z-2.0000
G01 Z0
G00 Z3.0000
G00 X62.2300Y34.2900
G01 Z-2.0000
G01 Z0
G00 Z3.0000
G00 X24.1300Y34.2900
G01 Z-2.0000
G01 Z0
G00 Z3.0000
G00 X59.6900Y34.2900
G01 Z-2.0000
G01 Z0
G00 Z3.0000
G00 X57.1500Y34.2900
G01 Z-2.0000
G01 Z0
G00 Z3.0000
G00 X54.6100Y34.2900
G01 Z-2.0000
G01 Z0
G00 Z3.0000
G00 X52.0700Y34.2900
G01 Z-2.0000
G01 Z0
G00 Z3.0000
G00 X49.5300Y34.2900
G01 Z-2.0000
G01 Z0
G00 Z3.0000
G00 X46.9900Y34.2900
G01 Z-2.0000
G01 Z0
G00 Z3.0000
G00 X44.4500Y34.2900
G01 Z-2.0000
G01 Z0
G00 Z3.0000
G00 X41.9100Y34.2900
G01 Z-2.0000
G01 Z0
G00 Z3.0000
G00 X39.3700Y34.2900
G01 Z-2.0000
G01 Z0
G00 Z3.0000
G00 X36.8300Y34.2900
G01 Z-2.0000
G01 Z0
G00 Z3.0000
G00 X34.2900Y34.2900
G01 Z-2.0000
G01 Z0
G00 Z3.0000
G00 X31.7500Y34.2900
G01 Z-2.0000
G01 Z0
G00 Z3.0000
G00 X29.2100Y34.2900
G01 Z-2.0000
G01 Z0
G00 Z3.0000
G00 X26.6700Y34.2900
G01 Z-2.0000
G01 Z0
G00 Z3.0000
G00 X17.7800Y34.2900
G01 Z-2.0000
G01 Z0
G00 Z3.0000
G00 X17.7800Y36.8300
G01 Z-2.0000
G01 Z0
G00 Z3.0000
G00 X21.5900Y40.6400
G01 Z-2.0000
G01 Z0
G00 Z3.0000
G00 X26.6700Y41.9100
G01 Z-2.0000
G01 Z0
G00 Z3.0000
G00 X29.2100Y41.9100
G01 Z-2.0000
G01 Z0
G00 Z3.0000
G00 X31.7500Y41.9100
G01 Z-2.0000
G01 Z0
G00 Z3.0000
G00 X34.2900Y41.9100
G01 Z-2.0000
G01 Z0
G00 Z3.0000
G00 X59.6900Y46.9900
G01 Z-2.0000
G01 Z0
G00 Z3.0000
G00 X55.8900Y46.9900
G01 Z-2.0000
G01 Z0
G00 Z3.0000
G00 X51.8300Y46.9900
G01 Z-2.0000
G01 Z0
G00 Z3.0000
G00 X49.5300Y46.9900
G01 Z-2.0000
G01 Z0
G00 Z3.0000
G00 X38.7350Y51.4350
G01 Z-2.0000
G01 Z0
G00 Z3.0000
G00 X34.2900Y53.3400
G01 Z-2.0000
G01 Z0
G00 Z3.0000
G00 X26.6700Y53.3400
G01 Z-2.0000
G01 Z0
G00 Z3.0000
G00 X22.8600Y55.8800
G01 Z-2.0000
G01 Z0
G00 Z3.0000
G00 X26.6700Y55.8800
G01 Z-2.0000
G01 Z0
G00 Z3.0000
G00 X34.2900Y55.8800
G01 Z-2.0000
G01 Z0
G00 Z3.0000
G00 X48.2600Y55.8800
G01 Z-2.0000
G01 Z0
G00 Z3.0000
G00 X55.8800Y55.8800
G01 Z-2.0000
G01 Z0
G00 Z3.0000
G00 X38.7350Y60.9600
G01 Z-2.0000
G01 Z0
G00 Z3.0000
G00 X34.2900Y60.9600
G01 Z-2.0000
G01 Z0
G00 Z3.0000
G00 X26.6700Y60.9600
G01 Z-2.0000
G01 Z0
G00 Z3.0000
G00 X55.8800Y60.9600
G01 Z-2.0000
G01 Z0
G00 Z3.0000
G00 X48.2600Y60.9600
G01 Z-2.0000
G01 Z0
G00 Z3.0000
G00 X22.8600Y63.5000
G01 Z-2.0000
G01 Z0
G00 Z3.0000
G00 X26.6700Y63.5000
G01 Z-2.0000
G01 Z0
G00 Z3.0000
G00 X34.2900Y63.5000
G01 Z-2.0000
G01 Z0
G00 Z3.0000
G00 X0.0000Y0.0000
M05
G0 Z20
G0 X0 Y100