G0 Z20
G21
G90
G94
F100.00
G00 Z3.0000
M03 S45
G4 P1
G00 X-0.9989Y-0.0466
G01 Z-0.2500
G01 X-0.9950Y-0.0994
G01 X-0.9895Y-0.1443
G01 X-0.9764Y-0.2158
G01 X-0.9694Y-0.2453
G01 X-0.9578Y-0.2875
G01 X-0.9407Y-0.3392
G01 X-0.9143Y-0.4050
G01 X-0.8938Y-0.4484
G01 X-0.8589Y-0.5120
G01 X-0.8320Y-0.5547
G01 X-0.8017Y-0.5976
G01 X-0.7599Y-0.6500
G01 X-0.7393Y-0.6733
G01 X-0.7071Y-0.7071
G01 X-0.6733Y-0.7393
G01 X-0.6500Y-0.7599
G01 X-0.5976Y-0.8017
G01 X-0.5547Y-0.8320
G01 X-0.5120Y-0.8589
G01 X-0.4484Y-0.8938
G01 X-0.4050Y-0.9143
G01 X-0.3392Y-0.9407
G01 X-0.2875Y-0.9578
G01 X-0.2453Y-0.9694
G01 X-0.2158Y-0.9764
G01 X-0.1491Y-0.9888
G01 X-0.0994Y-0.9950
G01 X-0.0515Y-0.9986
G01 X-0.0000Y-1.0000
G01 X66.0400Y-1.0000
G01 X66.0915Y-0.9986
G01 X66.1394Y-0.9950
G01 X66.1891Y-0.9888
G01 X66.2558Y-0.9764
G01 X66.2853Y-0.9694
G01 X66.3275Y-0.9578
G01 X66.3792Y-0.9407
G01 X66.4450Y-0.9143
G01 X66.4884Y-0.8938
G01 X66.5520Y-0.8589
G01 X66.5947Y-0.8320
G01 X66.6376Y-0.8017
G01 X66.6900Y-0.7599
G01 X66.7133Y-0.7393
G01 X66.7471Y-0.7071
G01 X66.7793Y-0.6733
G01 X66.8000Y-0.6500
G01 X66.8417Y-0.5976
G01 X66.8720Y-0.5547
G01 X66.8989Y-0.5120
G01 X66.9338Y-0.4484
G01 X66.9543Y-0.4050
G01 X66.9807Y-0.3392
G01 X66.9978Y-0.2875
G01 X67.0094Y-0.2453
G01 X67.0164Y-0.2158
G01 X67.0288Y-0.1491
G01 X67.0350Y-0.0994
G01 X67.0386Y-0.0515
G01 X67.0400Y-0.0000
G01 X67.0400Y68.5800
G01 X67.0386Y68.6315
G01 X67.0350Y68.6794
G01 X67.0288Y68.7291
G01 X67.0164Y68.7958
G01 X67.0094Y68.8253
G01 X66.9978Y68.8675
G01 X66.9807Y68.9192
G01 X66.9543Y68.9850
G01 X66.9338Y69.0284
G01 X66.8989Y69.0920
G01 X66.8720Y69.1347
G01 X66.8417Y69.1776
G01 X66.7999Y69.2300
G01 X66.7793Y69.2533
G01 X66.7471Y69.2871
G01 X66.7133Y69.3193
G01 X66.6900Y69.3399
G01 X66.6376Y69.3817
G01 X66.5947Y69.4120
G01 X66.5520Y69.4389
G01 X66.4884Y69.4738
G01 X66.4450Y69.4943
G01 X66.3792Y69.5207
G01 X66.3275Y69.5378
G01 X66.2853Y69.5494
G01 X66.2558Y69.5564
G01 X66.1891Y69.5688
G01 X66.1394Y69.5750
G01 X66.0915Y69.5786
G01 X66.0400Y69.5800
G01 X-0.0000Y69.5800
G01 X-0.0515Y69.5786
G01 X-0.0994Y69.5750
G01 X-0.1491Y69.5688
G01 X-0.2158Y69.5564
G01 X-0.2453Y69.5494
G01 X-0.2875Y69.5378
G01 X-0.3392Y69.5207
G01 X-0.4050Y69.4943
G01 X-0.4484Y69.4738
G01 X-0.5120Y69.4389
G01 X-0.5547Y69.4120
G01 X-0.5976Y69.3817
G01 X-0.6500Y69.3400
G01 X-0.6733Y69.3193
G01 X-0.7071Y69.2871
G01 X-0.7393Y69.2533
G01 X-0.7599Y69.2300
G01 X-0.8017Y69.1776
G01 X-0.8320Y69.1347
G01 X-0.8589Y69.0920
G01 X-0.8938Y69.0284
G01 X-0.9143Y68.9850
G01 X-0.9407Y68.9192
G01 X-0.9578Y68.8675
G01 X-0.9694Y68.8253
G01 X-0.9764Y68.7958
G01 X-0.9888Y68.7291
G01 X-0.9950Y68.6794
G01 X-0.9986Y68.6315
G01 X-1.0000Y68.5800
G01 X-1.0000Y-0.0000
G01 X-0.9989Y-0.0466
G00 X-0.9989Y-0.0466
G01 Z-0.5000
G01 X-0.9950Y-0.0994
G01 X-0.9895Y-0.1443
G01 X-0.9764Y-0.2158
G01 X-0.9694Y-0.2453
G01 X-0.9578Y-0.2875
G01 X-0.9407Y-0.3392
G01 X-0.9143Y-0.4050
G01 X-0.8938Y-0.4484
G01 X-0.8589Y-0.5120
G01 X-0.8320Y-0.5547
G01 X-0.8017Y-0.5976
G01 X-0.7599Y-0.6500
G01 X-0.7393Y-0.6733
G01 X-0.7071Y-0.7071
G01 X-0.6733Y-0.7393
G01 X-0.6500Y-0.7599
G01 X-0.5976Y-0.8017
G01 X-0.5547Y-0.8320
G01 X-0.5120Y-0.8589
G01 X-0.4484Y-0.8938
G01 X-0.4050Y-0.9143
G01 X-0.3392Y-0.9407
G01 X-0.2875Y-0.9578
G01 X-0.2453Y-0.9694
G01 X-0.2158Y-0.9764
G01 X-0.1491Y-0.9888
G01 X-0.0994Y-0.9950
G01 X-0.0515Y-0.9986
G01 X-0.0000Y-1.0000
G01 X66.0400Y-1.0000
G01 X66.0915Y-0.9986
G01 X66.1394Y-0.9950
G01 X66.1891Y-0.9888
G01 X66.2558Y-0.9764
G01 X66.2853Y-0.9694
G01 X66.3275Y-0.9578
G01 X66.3792Y-0.9407
G01 X66.4450Y-0.9143
G01 X66.4884Y-0.8938
G01 X66.5520Y-0.8589
G01 X66.5947Y-0.8320
G01 X66.6376Y-0.8017
G01 X66.6900Y-0.7599
G01 X66.7133Y-0.7393
G01 X66.7471Y-0.7071
G01 X66.7793Y-0.6733
G01 X66.8000Y-0.6500
G01 X66.8417Y-0.5976
G01 X66.8720Y-0.5547
G01 X66.8989Y-0.5120
G01 X66.9338Y-0.4484
G01 X66.9543Y-0.4050
G01 X66.9807Y-0.3392
G01 X66.9978Y-0.2875
G01 X67.0094Y-0.2453
G01 X67.0164Y-0.2158
G01 X67.0288Y-0.1491
G01 X67.0350Y-0.0994
G01 X67.0386Y-0.0515
G01 X67.0400Y-0.0000
G01 X67.0400Y68.5800
G01 X67.0386Y68.6315
G01 X67.0350Y68.6794
G01 X67.0288Y68.7291
G01 X67.0164Y68.7958
G01 X67.0094Y68.8253
G01 X66.9978Y68.8675
G01 X66.9807Y68.9192
G01 X66.9543Y68.9850
G01 X66.9338Y69.0284
G01 X66.8989Y69.0920
G01 X66.8720Y69.1347
G01 X66.8417Y69.1776
G01 X66.7999Y69.2300
G01 X66.7793Y69.2533
G01 X66.7471Y69.2871
G01 X66.7133Y69.3193
G01 X66.6900Y69.3399
G01 X66.6376Y69.3817
G01 X66.5947Y69.4120
G01 X66.5520Y69.4389
G01 X66.4884Y69.4738
G01 X66.4450Y69.4943
G01 X66.3792Y69.5207
G01 X66.3275Y69.5378
G01 X66.2853Y69.5494
G01 X66.2558Y69.5564
G01 X66.1891Y69.5688
G01 X66.1394Y69.5750
G01 X66.0915Y69.5786
G01 X66.0400Y69.5800
G01 X-0.0000Y69.5800
G01 X-0.0515Y69.5786
G01 X-0.0994Y69.5750
G01 X-0.1491Y69.5688
G01 X-0.2158Y69.5564
G01 X-0.2453Y69.5494
G01 X-0.2875Y69.5378
G01 X-0.3392Y69.5207
G01 X-0.4050Y69.4943
G01 X-0.4484Y69.4738
G01 X-0.5120Y69.4389
G01 X-0.5547Y69.4120
G01 X-0.5976Y69.3817
G01 X-0.6500Y69.3400
G01 X-0.6733Y69.3193
G01 X-0.7071Y69.2871
G01 X-0.7393Y69.2533
G01 X-0.7599Y69.2300
G01 X-0.8017Y69.1776
G01 X-0.8320Y69.1347
G01 X-0.8589Y69.0920
G01 X-0.8938Y69.0284
G01 X-0.9143Y68.9850
G01 X-0.9407Y68.9192
G01 X-0.9578Y68.8675
G01 X-0.9694Y68.8253
G01 X-0.9764Y68.7958
G01 X-0.9888Y68.7291
G01 X-0.9950Y68.6794
G01 X-0.9986Y68.6315
G01 X-1.0000Y68.5800
G01 X-1.0000Y-0.0000
G01 X-0.9989Y-0.0466
G00 X-0.9989Y-0.0466
G01 Z-0.7500
G01 X-0.9950Y-0.0994
G01 X-0.9895Y-0.1443
G01 X-0.9764Y-0.2158
G01 X-0.9694Y-0.2453
G01 X-0.9578Y-0.2875
G01 X-0.9407Y-0.3392
G01 X-0.9143Y-0.4050
G01 X-0.8938Y-0.4484
G01 X-0.8589Y-0.5120
G01 X-0.8320Y-0.5547
G01 X-0.8017Y-0.5976
G01 X-0.7599Y-0.6500
G01 X-0.7393Y-0.6733
G01 X-0.7071Y-0.7071
G01 X-0.6733Y-0.7393
G01 X-0.6500Y-0.7599
G01 X-0.5976Y-0.8017
G01 X-0.5547Y-0.8320
G01 X-0.5120Y-0.8589
G01 X-0.4484Y-0.8938
G01 X-0.4050Y-0.9143
G01 X-0.3392Y-0.9407
G01 X-0.2875Y-0.9578
G01 X-0.2453Y-0.9694
G01 X-0.2158Y-0.9764
G01 X-0.1491Y-0.9888
G01 X-0.0994Y-0.9950
G01 X-0.0515Y-0.9986
G01 X-0.0000Y-1.0000
G01 X66.0400Y-1.0000
G01 X66.0915Y-0.9986
G01 X66.1394Y-0.9950
G01 X66.1891Y-0.9888
G01 X66.2558Y-0.9764
G01 X66.2853Y-0.9694
G01 X66.3275Y-0.9578
G01 X66.3792Y-0.9407
G01 X66.4450Y-0.9143
G01 X66.4884Y-0.8938
G01 X66.5520Y-0.8589
G01 X66.5947Y-0.8320
G01 X66.6376Y-0.8017
G01 X66.6900Y-0.7599
G01 X66.7133Y-0.7393
G01 X66.7471Y-0.7071
G01 X66.7793Y-0.6733
G01 X66.8000Y-0.6500
G01 X66.8417Y-0.5976
G01 X66.8720Y-0.5547
G01 X66.8989Y-0.5120
G01 X66.9338Y-0.4484
G01 X66.9543Y-0.4050
G01 X66.9807Y-0.3392
G01 X66.9978Y-0.2875
G01 X67.0094Y-0.2453
G01 X67.0164Y-0.2158
G01 X67.0288Y-0.1491
G01 X67.0350Y-0.0994
G01 X67.0386Y-0.0515
G01 X67.0400Y-0.0000
G01 X67.0400Y68.5800
G01 X67.0386Y68.6315
G01 X67.0350Y68.6794
G01 X67.0288Y68.7291
G01 X67.0164Y68.7958
G01 X67.0094Y68.8253
G01 X66.9978Y68.8675
G01 X66.9807Y68.9192
G01 X66.9543Y68.9850
G01 X66.9338Y69.0284
G01 X66.8989Y69.0920
G01 X66.8720Y69.1347
G01 X66.8417Y69.1776
G01 X66.7999Y69.2300
G01 X66.7793Y69.2533
G01 X66.7471Y69.2871
G01 X66.7133Y69.3193
G01 X66.6900Y69.3399
G01 X66.6376Y69.3817
G01 X66.5947Y69.4120
G01 X66.5520Y69.4389
G01 X66.4884Y69.4738
G01 X66.4450Y69.4943
G01 X66.3792Y69.5207
G01 X66.3275Y69.5378
G01 X66.2853Y69.5494
G01 X66.2558Y69.5564
G01 X66.1891Y69.5688
G01 X66.1394Y69.5750
G01 X66.0915Y69.5786
G01 X66.0400Y69.5800
G01 X-0.0000Y69.5800
G01 X-0.0515Y69.5786
G01 X-0.0994Y69.5750
G01 X-0.1491Y69.5688
G01 X-0.2158Y69.5564
G01 X-0.2453Y69.5494
G01 X-0.2875Y69.5378
G01 X-0.3392Y69.5207
G01 X-0.4050Y69.4943
G01 X-0.4484Y69.4738
G01 X-0.5120Y69.4389
G01 X-0.5547Y69.4120
G01 X-0.5976Y69.3817
G01 X-0.6500Y69.3400
G01 X-0.6733Y69.3193
G01 X-0.7071Y69.2871
G01 X-0.7393Y69.2533
G01 X-0.7599Y69.2300
G01 X-0.8017Y69.1776
G01 X-0.8320Y69.1347
G01 X-0.8589Y69.0920
G01 X-0.8938Y69.0284
G01 X-0.9143Y68.9850
G01 X-0.9407Y68.9192
G01 X-0.9578Y68.8675
G01 X-0.9694Y68.8253
G01 X-0.9764Y68.7958
G01 X-0.9888Y68.7291
G01 X-0.9950Y68.6794
G01 X-0.9986Y68.6315
G01 X-1.0000Y68.5800
G01 X-1.0000Y-0.0000
G01 X-0.9989Y-0.0466
G00 X-0.9989Y-0.0466
G01 Z-1.0000
G01 X-0.9950Y-0.0994
G01 X-0.9895Y-0.1443
G01 X-0.9764Y-0.2158
G01 X-0.9694Y-0.2453
G01 X-0.9578Y-0.2875
G01 X-0.9407Y-0.3392
G01 X-0.9143Y-0.4050
G01 X-0.8938Y-0.4484
G01 X-0.8589Y-0.5120
G01 X-0.8320Y-0.5547
G01 X-0.8017Y-0.5976
G01 X-0.7599Y-0.6500
G01 X-0.7393Y-0.6733
G01 X-0.7071Y-0.7071
G01 X-0.6733Y-0.7393
G01 X-0.6500Y-0.7599
G01 X-0.5976Y-0.8017
G01 X-0.5547Y-0.8320
G01 X-0.5120Y-0.8589
G01 X-0.4484Y-0.8938
G01 X-0.4050Y-0.9143
G01 X-0.3392Y-0.9407
G01 X-0.2875Y-0.9578
G01 X-0.2453Y-0.9694
G01 X-0.2158Y-0.9764
G01 X-0.1491Y-0.9888
G01 X-0.0994Y-0.9950
G01 X-0.0515Y-0.9986
G01 X-0.0000Y-1.0000
G01 X66.0400Y-1.0000
G01 X66.0915Y-0.9986
G01 X66.1394Y-0.9950
G01 X66.1891Y-0.9888
G01 X66.2558Y-0.9764
G01 X66.2853Y-0.9694
G01 X66.3275Y-0.9578
G01 X66.3792Y-0.9407
G01 X66.4450Y-0.9143
G01 X66.4884Y-0.8938
G01 X66.5520Y-0.8589
G01 X66.5947Y-0.8320
G01 X66.6376Y-0.8017
G01 X66.6900Y-0.7599
G01 X66.7133Y-0.7393
G01 X66.7471Y-0.7071
G01 X66.7793Y-0.6733
G01 X66.8000Y-0.6500
G01 X66.8417Y-0.5976
G01 X66.8720Y-0.5547
G01 X66.8989Y-0.5120
G01 X66.9338Y-0.4484
G01 X66.9543Y-0.4050
G01 X66.9807Y-0.3392
G01 X66.9978Y-0.2875
G01 X67.0094Y-0.2453
G01 X67.0164Y-0.2158
G01 X67.0288Y-0.1491
G01 X67.0350Y-0.0994
G01 X67.0386Y-0.0515
G01 X67.0400Y-0.0000
G01 X67.0400Y68.5800
G01 X67.0386Y68.6315
G01 X67.0350Y68.6794
G01 X67.0288Y68.7291
G01 X67.0164Y68.7958
G01 X67.0094Y68.8253
G01 X66.9978Y68.8675
G01 X66.9807Y68.9192
G01 X66.9543Y68.9850
G01 X66.9338Y69.0284
G01 X66.8989Y69.0920
G01 X66.8720Y69.1347
G01 X66.8417Y69.1776
G01 X66.7999Y69.2300
G01 X66.7793Y69.2533
G01 X66.7471Y69.2871
G01 X66.7133Y69.3193
G01 X66.6900Y69.3399
G01 X66.6376Y69.3817
G01 X66.5947Y69.4120
G01 X66.5520Y69.4389
G01 X66.4884Y69.4738
G01 X66.4450Y69.4943
G01 X66.3792Y69.5207
G01 X66.3275Y69.5378
G01 X66.2853Y69.5494
G01 X66.2558Y69.5564
G01 X66.1891Y69.5688
G01 X66.1394Y69.5750
G01 X66.0915Y69.5786
G01 X66.0400Y69.5800
G01 X-0.0000Y69.5800
G01 X-0.0515Y69.5786
G01 X-0.0994Y69.5750
G01 X-0.1491Y69.5688
G01 X-0.2158Y69.5564
G01 X-0.2453Y69.5494
G01 X-0.2875Y69.5378
G01 X-0.3392Y69.5207
G01 X-0.4050Y69.4943
G01 X-0.4484Y69.4738
G01 X-0.5120Y69.4389
G01 X-0.5547Y69.4120
G01 X-0.5976Y69.3817
G01 X-0.6500Y69.3400
G01 X-0.6733Y69.3193
G01 X-0.7071Y69.2871
G01 X-0.7393Y69.2533
G01 X-0.7599Y69.2300
G01 X-0.8017Y69.1776
G01 X-0.8320Y69.1347
G01 X-0.8589Y69.0920
G01 X-0.8938Y69.0284
G01 X-0.9143Y68.9850
G01 X-0.9407Y68.9192
G01 X-0.9578Y68.8675
G01 X-0.9694Y68.8253
G01 X-0.9764Y68.7958
G01 X-0.9888Y68.7291
G01 X-0.9950Y68.6794
G01 X-0.9986Y68.6315
G01 X-1.0000Y68.5800
G01 X-1.0000Y-0.0000
G01 X-0.9989Y-0.0466
G00 X-0.9989Y-0.0466
G01 Z-1.2500
G01 X-0.9950Y-0.0994
G01 X-0.9895Y-0.1443
G01 X-0.9764Y-0.2158
G01 X-0.9694Y-0.2453
G01 X-0.9578Y-0.2875
G01 X-0.9407Y-0.3392
G01 X-0.9143Y-0.4050
G01 X-0.8938Y-0.4484
G01 X-0.8589Y-0.5120
G01 X-0.8320Y-0.5547
G01 X-0.8017Y-0.5976
G01 X-0.7599Y-0.6500
G01 X-0.7393Y-0.6733
G01 X-0.7071Y-0.7071
G01 X-0.6733Y-0.7393
G01 X-0.6500Y-0.7599
G01 X-0.5976Y-0.8017
G01 X-0.5547Y-0.8320
G01 X-0.5120Y-0.8589
G01 X-0.4484Y-0.8938
G01 X-0.4050Y-0.9143
G01 X-0.3392Y-0.9407
G01 X-0.2875Y-0.9578
G01 X-0.2453Y-0.9694
G01 X-0.2158Y-0.9764
G01 X-0.1491Y-0.9888
G01 X-0.0994Y-0.9950
G01 X-0.0515Y-0.9986
G01 X-0.0000Y-1.0000
G01 X66.0400Y-1.0000
G01 X66.0915Y-0.9986
G01 X66.1394Y-0.9950
G01 X66.1891Y-0.9888
G01 X66.2558Y-0.9764
G01 X66.2853Y-0.9694
G01 X66.3275Y-0.9578
G01 X66.3792Y-0.9407
G01 X66.4450Y-0.9143
G01 X66.4884Y-0.8938
G01 X66.5520Y-0.8589
G01 X66.5947Y-0.8320
G01 X66.6376Y-0.8017
G01 X66.6900Y-0.7599
G01 X66.7133Y-0.7393
G01 X66.7471Y-0.7071
G01 X66.7793Y-0.6733
G01 X66.8000Y-0.6500
G01 X66.8417Y-0.5976
G01 X66.8720Y-0.5547
G01 X66.8989Y-0.5120
G01 X66.9338Y-0.4484
G01 X66.9543Y-0.4050
G01 X66.9807Y-0.3392
G01 X66.9978Y-0.2875
G01 X67.0094Y-0.2453
G01 X67.0164Y-0.2158
G01 X67.0288Y-0.1491
G01 X67.0350Y-0.0994
G01 X67.0386Y-0.0515
G01 X67.0400Y-0.0000
G01 X67.0400Y68.5800
G01 X67.0386Y68.6315
G01 X67.0350Y68.6794
G01 X67.0288Y68.7291
G01 X67.0164Y68.7958
G01 X67.0094Y68.8253
G01 X66.9978Y68.8675
G01 X66.9807Y68.9192
G01 X66.9543Y68.9850
G01 X66.9338Y69.0284
G01 X66.8989Y69.0920
G01 X66.8720Y69.1347
G01 X66.8417Y69.1776
G01 X66.7999Y69.2300
G01 X66.7793Y69.2533
G01 X66.7471Y69.2871
G01 X66.7133Y69.3193
G01 X66.6900Y69.3399
G01 X66.6376Y69.3817
G01 X66.5947Y69.4120
G01 X66.5520Y69.4389
G01 X66.4884Y69.4738
G01 X66.4450Y69.4943
G01 X66.3792Y69.5207
G01 X66.3275Y69.5378
G01 X66.2853Y69.5494
G01 X66.2558Y69.5564
G01 X66.1891Y69.5688
G01 X66.1394Y69.5750
G01 X66.0915Y69.5786
G01 X66.0400Y69.5800
G01 X-0.0000Y69.5800
G01 X-0.0515Y69.5786
G01 X-0.0994Y69.5750
G01 X-0.1491Y69.5688
G01 X-0.2158Y69.5564
G01 X-0.2453Y69.5494
G01 X-0.2875Y69.5378
G01 X-0.3392Y69.5207
G01 X-0.4050Y69.4943
G01 X-0.4484Y69.4738
G01 X-0.5120Y69.4389
G01 X-0.5547Y69.4120
G01 X-0.5976Y69.3817
G01 X-0.6500Y69.3400
G01 X-0.6733Y69.3193
G01 X-0.7071Y69.2871
G01 X-0.7393Y69.2533
G01 X-0.7599Y69.2300
G01 X-0.8017Y69.1776
G01 X-0.8320Y69.1347
G01 X-0.8589Y69.0920
G01 X-0.8938Y69.0284
G01 X-0.9143Y68.9850
G01 X-0.9407Y68.9192
G01 X-0.9578Y68.8675
G01 X-0.9694Y68.8253
G01 X-0.9764Y68.7958
G01 X-0.9888Y68.7291
G01 X-0.9950Y68.6794
G01 X-0.9986Y68.6315
G01 X-1.0000Y68.5800
G01 X-1.0000Y-0.0000
G01 X-0.9989Y-0.0466
G00 X-0.9989Y-0.0466
G01 Z-1.5000
G01 X-0.9950Y-0.0994
G01 X-0.9895Y-0.1443
G01 X-0.9764Y-0.2158
G01 X-0.9694Y-0.2453
G01 X-0.9578Y-0.2875
G01 X-0.9407Y-0.3392
G01 X-0.9143Y-0.4050
G01 X-0.8938Y-0.4484
G01 X-0.8589Y-0.5120
G01 X-0.8320Y-0.5547
G01 X-0.8017Y-0.5976
G01 X-0.7599Y-0.6500
G01 X-0.7393Y-0.6733
G01 X-0.7071Y-0.7071
G01 X-0.6733Y-0.7393
G01 X-0.6500Y-0.7599
G01 X-0.5976Y-0.8017
G01 X-0.5547Y-0.8320
G01 X-0.5120Y-0.8589
G01 X-0.4484Y-0.8938
G01 X-0.4050Y-0.9143
G01 X-0.3392Y-0.9407
G01 X-0.2875Y-0.9578
G01 X-0.2453Y-0.9694
G01 X-0.2158Y-0.9764
G01 X-0.1491Y-0.9888
G01 X-0.0994Y-0.9950
G01 X-0.0515Y-0.9986
G01 X-0.0000Y-1.0000
G01 X66.0400Y-1.0000
G01 X66.0915Y-0.9986
G01 X66.1394Y-0.9950
G01 X66.1891Y-0.9888
G01 X66.2558Y-0.9764
G01 X66.2853Y-0.9694
G01 X66.3275Y-0.9578
G01 X66.3792Y-0.9407
G01 X66.4450Y-0.9143
G01 X66.4884Y-0.8938
G01 X66.5520Y-0.8589
G01 X66.5947Y-0.8320
G01 X66.6376Y-0.8017
G01 X66.6900Y-0.7599
G01 X66.7133Y-0.7393
G01 X66.7471Y-0.7071
G01 X66.7793Y-0.6733
G01 X66.8000Y-0.6500
G01 X66.8417Y-0.5976
G01 X66.8720Y-0.5547
G01 X66.8989Y-0.5120
G01 X66.9338Y-0.4484
G01 X66.9543Y-0.4050
G01 X66.9807Y-0.3392
G01 X66.9978Y-0.2875
G01 X67.0094Y-0.2453
G01 X67.0164Y-0.2158
G01 X67.0288Y-0.1491
G01 X67.0350Y-0.0994
G01 X67.0386Y-0.0515
G01 X67.0400Y-0.0000
G01 X67.0400Y68.5800
G01 X67.0386Y68.6315
G01 X67.0350Y68.6794
G01 X67.0288Y68.7291
G01 X67.0164Y68.7958
G01 X67.0094Y68.8253
G01 X66.9978Y68.8675
G01 X66.9807Y68.9192
G01 X66.9543Y68.9850
G01 X66.9338Y69.0284
G01 X66.8989Y69.0920
G01 X66.8720Y69.1347
G01 X66.8417Y69.1776
G01 X66.7999Y69.2300
G01 X66.7793Y69.2533
G01 X66.7471Y69.2871
G01 X66.7133Y69.3193
G01 X66.6900Y69.3399
G01 X66.6376Y69.3817
G01 X66.5947Y69.4120
G01 X66.5520Y69.4389
G01 X66.4884Y69.4738
G01 X66.4450Y69.4943
G01 X66.3792Y69.5207
G01 X66.3275Y69.5378
G01 X66.2853Y69.5494
G01 X66.2558Y69.5564
G01 X66.1891Y69.5688
G01 X66.1394Y69.5750
G01 X66.0915Y69.5786
G01 X66.0400Y69.5800
G01 X-0.0000Y69.5800
G01 X-0.0515Y69.5786
G01 X-0.0994Y69.5750
G01 X-0.1491Y69.5688
G01 X-0.2158Y69.5564
G01 X-0.2453Y69.5494
G01 X-0.2875Y69.5378
G01 X-0.3392Y69.5207
G01 X-0.4050Y69.4943
G01 X-0.4484Y69.4738
G01 X-0.5120Y69.4389
G01 X-0.5547Y69.4120
G01 X-0.5976Y69.3817
G01 X-0.6500Y69.3400
G01 X-0.6733Y69.3193
G01 X-0.7071Y69.2871
G01 X-0.7393Y69.2533
G01 X-0.7599Y69.2300
G01 X-0.8017Y69.1776
G01 X-0.8320Y69.1347
G01 X-0.8589Y69.0920
G01 X-0.8938Y69.0284
G01 X-0.9143Y68.9850
G01 X-0.9407Y68.9192
G01 X-0.9578Y68.8675
G01 X-0.9694Y68.8253
G01 X-0.9764Y68.7958
G01 X-0.9888Y68.7291
G01 X-0.9950Y68.6794
G01 X-0.9986Y68.6315
G01 X-1.0000Y68.5800
G01 X-1.0000Y-0.0000
G01 X-0.9989Y-0.0466
G00 X-0.9989Y-0.0466
G01 Z-1.7500
G01 X-0.9950Y-0.0994
G01 X-0.9895Y-0.1443
G01 X-0.9764Y-0.2158
G01 X-0.9694Y-0.2453
G01 X-0.9578Y-0.2875
G01 X-0.9407Y-0.3392
G01 X-0.9143Y-0.4050
G01 X-0.8938Y-0.4484
G01 X-0.8589Y-0.5120
G01 X-0.8320Y-0.5547
G01 X-0.8017Y-0.5976
G01 X-0.7599Y-0.6500
G01 X-0.7393Y-0.6733
G01 X-0.7071Y-0.7071
G01 X-0.6733Y-0.7393
G01 X-0.6500Y-0.7599
G01 X-0.5976Y-0.8017
G01 X-0.5547Y-0.8320
G01 X-0.5120Y-0.8589
G01 X-0.4484Y-0.8938
G01 X-0.4050Y-0.9143
G01 X-0.3392Y-0.9407
G01 X-0.2875Y-0.9578
G01 X-0.2453Y-0.9694
G01 X-0.2158Y-0.9764
G01 X-0.1491Y-0.9888
G01 X-0.0994Y-0.9950
G01 X-0.0515Y-0.9986
G01 X-0.0000Y-1.0000
G01 X66.0400Y-1.0000
G01 X66.0915Y-0.9986
G01 X66.1394Y-0.9950
G01 X66.1891Y-0.9888
G01 X66.2558Y-0.9764
G01 X66.2853Y-0.9694
G01 X66.3275Y-0.9578
G01 X66.3792Y-0.9407
G01 X66.4450Y-0.9143
G01 X66.4884Y-0.8938
G01 X66.5520Y-0.8589
G01 X66.5947Y-0.8320
G01 X66.6376Y-0.8017
G01 X66.6900Y-0.7599
G01 X66.7133Y-0.7393
G01 X66.7471Y-0.7071
G01 X66.7793Y-0.6733
G01 X66.8000Y-0.6500
G01 X66.8417Y-0.5976
G01 X66.8720Y-0.5547
G01 X66.8989Y-0.5120
G01 X66.9338Y-0.4484
G01 X66.9543Y-0.4050
G01 X66.9807Y-0.3392
G01 X66.9978Y-0.2875
G01 X67.0094Y-0.2453
G01 X67.0164Y-0.2158
G01 X67.0288Y-0.1491
G01 X67.0350Y-0.0994
G01 X67.0386Y-0.0515
G01 X67.0400Y-0.0000
G01 X67.0400Y68.5800
G01 X67.0386Y68.6315
G01 X67.0350Y68.6794
G01 X67.0288Y68.7291
G01 X67.0164Y68.7958
G01 X67.0094Y68.8253
G01 X66.9978Y68.8675
G01 X66.9807Y68.9192
G01 X66.9543Y68.9850
G01 X66.9338Y69.0284
G01 X66.8989Y69.0920
G01 X66.8720Y69.1347
G01 X66.8417Y69.1776
G01 X66.7999Y69.2300
G01 X66.7793Y69.2533
G01 X66.7471Y69.2871
G01 X66.7133Y69.3193
G01 X66.6900Y69.3399
G01 X66.6376Y69.3817
G01 X66.5947Y69.4120
G01 X66.5520Y69.4389
G01 X66.4884Y69.4738
G01 X66.4450Y69.4943
G01 X66.3792Y69.5207
G01 X66.3275Y69.5378
G01 X66.2853Y69.5494
G01 X66.2558Y69.5564
G01 X66.1891Y69.5688
G01 X66.1394Y69.5750
G01 X66.0915Y69.5786
G01 X66.0400Y69.5800
G01 X-0.0000Y69.5800
G01 X-0.0515Y69.5786
G01 X-0.0994Y69.5750
G01 X-0.1491Y69.5688
G01 X-0.2158Y69.5564
G01 X-0.2453Y69.5494
G01 X-0.2875Y69.5378
G01 X-0.3392Y69.5207
G01 X-0.4050Y69.4943
G01 X-0.4484Y69.4738
G01 X-0.5120Y69.4389
G01 X-0.5547Y69.4120
G01 X-0.5976Y69.3817
G01 X-0.6500Y69.3400
G01 X-0.6733Y69.3193
G01 X-0.7071Y69.2871
G01 X-0.7393Y69.2533
G01 X-0.7599Y69.2300
G01 X-0.8017Y69.1776
G01 X-0.8320Y69.1347
G01 X-0.8589Y69.0920
G01 X-0.8938Y69.0284
G01 X-0.9143Y68.9850
G01 X-0.9407Y68.9192
G01 X-0.9578Y68.8675
G01 X-0.9694Y68.8253
G01 X-0.9764Y68.7958
G01 X-0.9888Y68.7291
G01 X-0.9950Y68.6794
G01 X-0.9986Y68.6315
G01 X-1.0000Y68.5800
G01 X-1.0000Y-0.0000
G01 X-0.9989Y-0.0466
G00 X-0.9989Y-0.0466
G01 Z-2.0000
G01 X-0.9950Y-0.0994
G01 X-0.9895Y-0.1443
G01 X-0.9764Y-0.2158
G01 X-0.9694Y-0.2453
G01 X-0.9578Y-0.2875
G01 X-0.9407Y-0.3392
G01 X-0.9143Y-0.4050
G01 X-0.8938Y-0.4484
G01 X-0.8589Y-0.5120
G01 X-0.8320Y-0.5547
G01 X-0.8017Y-0.5976
G01 X-0.7599Y-0.6500
G01 X-0.7393Y-0.6733
G01 X-0.7071Y-0.7071
G01 X-0.6733Y-0.7393
G01 X-0.6500Y-0.7599
G01 X-0.5976Y-0.8017
G01 X-0.5547Y-0.8320
G01 X-0.5120Y-0.8589
G01 X-0.4484Y-0.8938
G01 X-0.4050Y-0.9143
G01 X-0.3392Y-0.9407
G01 X-0.2875Y-0.9578
G01 X-0.2453Y-0.9694
G01 X-0.2158Y-0.9764
G01 X-0.1491Y-0.9888
G01 X-0.0994Y-0.9950
G01 X-0.0515Y-0.9986
G01 X-0.0000Y-1.0000
G01 X66.0400Y-1.0000
G01 X66.0915Y-0.9986
G01 X66.1394Y-0.9950
G01 X66.1891Y-0.9888
G01 X66.2558Y-0.9764
G01 X66.2853Y-0.9694
G01 X66.3275Y-0.9578
G01 X66.3792Y-0.9407
G01 X66.4450Y-0.9143
G01 X66.4884Y-0.8938
G01 X66.5520Y-0.8589
G01 X66.5947Y-0.8320
G01 X66.6376Y-0.8017
G01 X66.6900Y-0.7599
G01 X66.7133Y-0.7393
G01 X66.7471Y-0.7071
G01 X66.7793Y-0.6733
G01 X66.8000Y-0.6500
G01 X66.8417Y-0.5976
G01 X66.8720Y-0.5547
G01 X66.8989Y-0.5120
G01 X66.9338Y-0.4484
G01 X66.9543Y-0.4050
G01 X66.9807Y-0.3392
G01 X66.9978Y-0.2875
G01 X67.0094Y-0.2453
G01 X67.0164Y-0.2158
G01 X67.0288Y-0.1491
G01 X67.0350Y-0.0994
G01 X67.0386Y-0.0515
G01 X67.0400Y-0.0000
G01 X67.0400Y68.5800
G01 X67.0386Y68.6315
G01 X67.0350Y68.6794
G01 X67.0288Y68.7291
G01 X67.0164Y68.7958
G01 X67.0094Y68.8253
G01 X66.9978Y68.8675
G01 X66.9807Y68.9192
G01 X66.9543Y68.9850
G01 X66.9338Y69.0284
G01 X66.8989Y69.0920
G01 X66.8720Y69.1347
G01 X66.8417Y69.1776
G01 X66.7999Y69.2300
G01 X66.7793Y69.2533
G01 X66.7471Y69.2871
G01 X66.7133Y69.3193
G01 X66.6900Y69.3399
G01 X66.6376Y69.3817
G01 X66.5947Y69.4120
G01 X66.5520Y69.4389
G01 X66.4884Y69.4738
G01 X66.4450Y69.4943
G01 X66.3792Y69.5207
G01 X66.3275Y69.5378
G01 X66.2853Y69.5494
G01 X66.2558Y69.5564
G01 X66.1891Y69.5688
G01 X66.1394Y69.5750
G01 X66.0915Y69.5786
G01 X66.0400Y69.5800
G01 X-0.0000Y69.5800
G01 X-0.0515Y69.5786
G01 X-0.0994Y69.5750
G01 X-0.1491Y69.5688
G01 X-0.2158Y69.5564
G01 X-0.2453Y69.5494
G01 X-0.2875Y69.5378
G01 X-0.3392Y69.5207
G01 X-0.4050Y69.4943
G01 X-0.4484Y69.4738
G01 X-0.5120Y69.4389
G01 X-0.5547Y69.4120
G01 X-0.5976Y69.3817
G01 X-0.6500Y69.3400
G01 X-0.6733Y69.3193
G01 X-0.7071Y69.2871
G01 X-0.7393Y69.2533
G01 X-0.7599Y69.2300
G01 X-0.8017Y69.1776
G01 X-0.8320Y69.1347
G01 X-0.8589Y69.0920
G01 X-0.8938Y69.0284
G01 X-0.9143Y68.9850
G01 X-0.9407Y68.9192
G01 X-0.9578Y68.8675
G01 X-0.9694Y68.8253
G01 X-0.9764Y68.7958
G01 X-0.9888Y68.7291
G01 X-0.9950Y68.6794
G01 X-0.9986Y68.6315
G01 X-1.0000Y68.5800
G01 X-1.0000Y-0.0000
G01 X-0.9989Y-0.0466
G00 Z3.0000
G00 Z3.0000
G00 X0Y0
M05
G0 Z20
G0 X0 Y100